{"version": 0.6, "generator": "Overpass API 0.7.61.5 4133829e", "osm3s": {"timestamp_osm_base": "2024-01-02T22:21:00Z", "copyright": "The data included in this document is from www.openstreetmap.org. The data is made available under ODbL."}, "elements": [{"type": "node", "id": 252204472, "lat": 52.5495479, "lon": 13.571724, "tags": {"alt_name": "Fußballplatz BSC Marzahn", "leisure": "sports_centre", "name": "Sportanlage Schönagelstraße", "sport": "soccer", "wheelchair": "no", "wikidata": "Q117829268"}}, {"type": "node", "id": 281426523, "lat": 52.4612367, "lon": 13.5126209, "tags": {"addr:city": "Berlin", "addr:country": "DE", "addr:housenumber": "89", "addr:postcode": "12459", "addr:street": "Wilhelminenhofstraße", "leisure": "sports_centre", "name": "Bowling Spreehöfe", "opening_hours": "Mo 12:00-24:00; Tu-Th 14:00-24:00; Fr-Sa 12:00-01:00, Su 10:00-22:00", "phone": "+49 30 538 95 922", "sport": "bowling", "website": "https://www.bowling-spreehoefe.de/"}}, {"type": "node", "id": 282743483, "lat": 52.5195649, "lon": 13.4670158, "tags": {"leisure": "sports_centre", "name": "Bowlero", "opening_hours": "Mo-Sa 16:00-22:00; Su 10:00-20:00", "sport": "10pin", "toilets:wheelchair": "no", "website": "https://www.bowling-in-berlin.de/", "wheelchair": "no"}}, {"type": "node", "id": 291656876, "lat": 52.5201789, "lon": 13.209132, "tags": {"club": "sport", "contact:phone": "+49 30 331 42 46", "contact:website": "http://www.hevella.de/", "leisure": "sports_centre", "name": "Ruder-Club Hevella", "sport": "rowing"}}, {"type": "node", "id": 315240798, "lat": 52.5313803, "lon": 13.4251219, "tags": {"addr:city": "Berlin", "addr:country": "DE", "addr:housenumber": "14", "addr:postcode": "10405", "addr:street": "Immanuelkirchstraße", "addr:suburb": "Prenzlauer Berg", "contact:phone": "+4930 443 58 344", "contact:website": "http://www.nautilus-training-berlin.de", "leisure": "sports_centre", "name": "Nautilus Training", "sport": "fitness"}}, {"type": "node", "id": 325670043, "lat": 52.5972093, "lon": 13.6917059, "tags": {"leisure": "sports_centre", "name": "Bogenscheune “Bulls Eye”", "sport": "archery"}}, {"type": "node", "id": 354513937, "lat": 52.5284363, "lon": 13.1338082, "tags": {"leisure": "sports_centre", "name": "Pacific Fitness Studio", "opening_hours": "Mo-Fr 10:00-22:00; Sa-Su 10:00-14:00", "wheelchair": "no"}}, {"type": "node", "id": 579988110, "lat": 52.5368636, "lon": 13.2701899, "tags": {"addr:city": "Berlin", "addr:country": "DE", "addr:housenumber": "92", "addr:postcode": "13629", "addr:street": "Nonnendammallee", "addr:suburb": "Siemensstadt", "leisure": "sports_centre", "name": "Miss Sporty", "sport": "gymnastics"}}, {"type": "node", "id": 632385089, "lat": 52.4973462, "lon": 13.3439273, "tags": {"leisure": "sports_centre", "name": "Geisberghalle"}}, {"type": "node", "id": 638751846, "lat": 52.4964457, "lon": 13.4221664, "tags": {"addr:city": "Berlin", "addr:country": "DE", "addr:housenumber": "41", "addr:postcode": "10999", "addr:street": "Paul-Lincke-Ufer", "addr:suburb": "Kreuzberg", "contact:phone": "+493061280596", "contact:website": "http://shinsonhapkido-berlin.de", "leisure": "sports_centre", "name": "Shinson Hapkido Berlin e.V.", "sport": "hapkido"}}, {"type": "node", "id": 648259075, "lat": 52.5109192, "lon": 13.2101239, "tags": {"addr:city": "Berlin", "addr:country": "DE", "addr:housenumber": "2,2A", "addr:postcode": "13595", "addr:street": "Brandensteinweg", "alt_name": "RVB Clubhaus", "club": "sport", "contact:phone": "+49 30 361 14 67", "contact:website": "http://www.rvb1878.de/", "leisure": "sports_centre", "name": "Ruderverein Berlin von 1878", "source": "local knowledge", "sport": "rowing"}}, {"type": "node", "id": 652418750, "lat": 52.5646251, "lon": 13.3249268, "tags": {"leisure": "sports_centre", "name": "Fitness Center"}}, {"type": "node", "id": 653165262, "lat": 52.5106334, "lon": 13.5345727, "tags": {"addr:city": "Berlin", "addr:country": "DE", "addr:housenumber": "65 D", "addr:postcode": "10315", "addr:street": "Alt-Friedrichsfelde", "addr:suburb": "Friedrichsfelde", "leisure": "sports_centre", "name": "Frauenfitness balance", "opening_hours": "Mo-Fr 09:00-13:00, Sa,Su 10:00-13:00, Mo-Fr 17:00-21:00", "phone": "+493051067707", "sport": "gymnastics", "website": "http://www.frauenfitness-balance.de", "wheelchair": "limited"}}, {"type": "node", "id": 654202879, "lat": 52.4908163, "lon": 13.3084939, "tags": {"addr:city": "Berlin", "addr:country": "DE", "addr:housenumber": "12A", "addr:postcode": "10709", "addr:street": "Ruhrstraße", "addr:suburb": "Wilmersdorf", "contact:website": "http://www.combat-berlin.de", "leisure": "sports_centre", "name": "Combat Berlin e.V."}}, {"type": "node", "id": 678967898, "lat": 52.5508931, "lon": 13.3539279, "tags": {"leisure": "sports_centre", "name": "Fit im Wedding", "toilets:wheelchair": "no", "wheelchair": "no"}}, {"type": "node", "id": 693826342, "lat": 52.4595265, "lon": 13.3150105, "tags": {"addr:city": "Berlin", "addr:country": "DE", "addr:housenumber": "14a", "addr:postcode": "12165", "addr:street": "Grunewaldstraße", "addr:suburb": "Steglitz", "contact:website": "https://www.wassermeloni.de/kursort/schwimmbad-wassermeloni-berlin-steglitz/", "leisure": "sports_centre", "name": "Schwimmschule Wassermeloni", "operator": "Wassermeloni KG", "sport": "swimming"}}, {"type": "node", "id": 703744109, "lat": 52.4031371, "lon": 13.5072516, "tags": {"leisure": "sports_centre", "shop": "convenience"}}, {"type": "node", "id": 747882908, "lat": 52.669094, "lon": 13.2880077, "tags": {"addr:city": "Hohen Neuendorf", "addr:housenumber": "17", "addr:postcode": "16540", "addr:street": "Schönfließer Straße", "leisure": "sports_centre", "name": "Schwimmschule Richter", "sport": "swimming", "website": "www.schwimmschule-richter.de"}}, {"type": "node", "id": 802697163, "lat": 52.4797986, "lon": 13.3454215, "tags": {"addr:city": "Berlin", "addr:housenumber": "60", "addr:postcode": "10827", "addr:street": "Hauptstraße", "leisure": "sports_centre", "name": "Shaolin Kungfu Berlin", "opening_hours": "Mo-Fr 10:00-12:00, 16:00-21:00; Sa 12:00-15:00", "phone": "+49 30 32523663", "sport": "kung_fu", "website": "https://www.shaolin-kungfu-berlin.de/", "wheelchair": "no"}}, {"type": "node", "id": 852868183, "lat": 52.4190685, "lon": 13.3592598, "tags": {"leisure": "sports_centre", "name": "Budo Academy Berlin", "sport": "gymnastics"}}, {"type": "node", "id": 876502187, "lat": 52.6685214, "lon": 13.3182906, "tags": {"leisure": "sports_centre"}}, {"type": "node", "id": 913133075, "lat": 52.536244, "lon": 13.3989044, "tags": {"addr:city": "Berlin", "addr:country": "DE", "addr:housenumber": "33, 2.Hinterhof", "addr:postcode": "10115", "addr:street": "Anklamer Straße", "addr:suburb": "Mitte", "leisure": "sports_centre", "name": "Yoga Delta Berlin", "website": "https://www.yogadelta.de/"}}, {"type": "node", "id": 978426577, "lat": 52.4616006, "lon": 13.5127271, "tags": {"addr:city": "Berlin", "addr:country": "DE", "addr:housenumber": "89", "addr:postcode": "12459", "addr:street": "Wilhelminenhofstraße", "leisure": "sports_centre", "name": "Der Wellness Club", "note": "Wellness, Squash, Sauna, Fitness usw.", "opening_hours": "Mo-Fr 09:00-23:00; Sa,Su 10:00-18:00", "phone": "+49 30 530 15 070", "website": "https://derwellnessclubberlin.de/", "wheelchair": "no", "wheelchair:description": "Nur durch Treppe erreichbar."}}, {"type": "node", "id": 986525060, "lat": 52.5054221, "lon": 13.3674272, "tags": {"addr:city": "Berlin", "addr:country": "DE", "addr:housenumber": "58", "addr:postcode": "10785", "addr:street": "Potsdamer Straße", "addr:suburb": "Tiergarten", "check_date:opening_hours": "2021-10-18", "leisure": "sports_centre", "name": "therapiezentrum working motion physio/ergo", "opening_hours": "Mo-Fr 08:00-20:00", "phone": "+49 30 26369669", "website": "http://www.working-motion.de", "wheelchair": "yes"}}, {"type": "node", "id": 1103266295, "lat": 52.53338, "lon": 13.198009, "tags": {"contact:phone": "+49 30 33890650", "contact:website": "http://www.meridianspa.de", "leisure": "sports_centre", "level": "2", "name": "MeridianSpa", "opening_hours": "Mo-Fr 09:00-23:00; Tu,Th 07:00-23:00; Sa,Su 09:00-22:00", "wheelchair": "limited"}}, {"type": "node", "id": 1111632078, "lat": 52.4794909, "lon": 13.4327678, "tags": {"addr:city": "Berlin", "addr:country": "DE", "addr:housenumber": "50", "addr:postcode": "12053", "addr:street": "Werbellinstraße", "leisure": "sports_centre", "name": "Berlin Kart", "sport": "karting", "website": "http://www.berlin-kart.de/"}}, {"type": "node", "id": 1172019472, "lat": 52.6073684, "lon": 13.4199703, "tags": {"addr:city": "Berlin", "addr:country": "DE", "addr:housenumber": "4", "addr:postcode": "13127", "addr:street": "Hugenottenplatz", "addr:suburb": "Französisch Buchholz", "leisure": "sports_centre", "name": "Vital One", "shop": "vacant", "sport": "gymnastics", "wheelchair": "no"}}, {"type": "node", "id": 1223849541, "lat": 52.5573727, "lon": 13.3638597, "tags": {"leisure": "sports_centre", "name": "Luise-Schröder-Halle", "toilets:wheelchair": "yes", "wheelchair": "yes"}}, {"type": "node", "id": 1336704980, "lat": 52.5372216, "lon": 13.2060342, "tags": {"addr:city": "Berlin", "addr:country": "DE", "addr:housenumber": "25", "addr:postcode": "13597", "addr:street": "Breite Straße", "addr:suburb": "Spandau", "contact:phone": "+49 30 3311730", "contact:website": "http://www.sportpark-budokan.de/", "leisure": "sports_centre", "name": "Sportpark Budokan KG", "wheelchair": "yes", "wheelchair:description": "Aufzug vorhanden"}}, {"type": "node", "id": 1412505911, "lat": 52.5577438, "lon": 13.0922376, "tags": {"contact:phone": "+49 171 7197450", "description": "Kampfsportschule", "leisure": "sports_centre", "level": "0", "name": "The Rock Fighters", "opening_hours": "Mo-Fr 15:00-21:30; Sa 10:00-16:00", "wheelchair": "limited"}}, {"type": "node", "id": 1509270667, "lat": 52.671576, "lon": 13.5531558, "tags": {"addr:city": "Bernau bei Berlin", "addr:country": "DE", "addr:housename": "Kampfkunstschule Bernau", "addr:housenumber": "32", "addr:postcode": "16321", "addr:street": "Friedenstaler Platz", "alt_name": "Wingtsun", "designation": "Kampfkunstschule", "int_name": "Wingtsun", "leisure": "sports_centre", "name": "Kampfkunstschule Bernau", "old_name": "Wingtsun"}}, {"type": "node", "id": 1548522724, "lat": 52.6605725, "lon": 13.5343773, "tags": {"leisure": "sports_centre", "name": "Gesu Vital"}}, {"type": "node", "id": 1575010825, "lat": 52.4089916, "lon": 13.3775391, "tags": {"addr:city": "Berlin", "addr:country": "DE", "addr:housenumber": "5", "addr:postcode": "12277", "addr:street": "Motzener Straße", "addr:suburb": "Marienfelde", "leisure": "sports_centre", "name": "Insel Sports Club"}}, {"type": "node", "id": 1610111889, "lat": 52.4897726, "lon": 13.3930155, "tags": {"addr:city": "Berlin", "addr:country": "DE", "addr:housenumber": "91", "addr:postcode": "10961", "addr:street": "Bergmannstraße", "addr:suburb": "Kreuzberg", "leisure": "sports_centre", "name": "Yoga-Institut Berlin", "source": "www.yoga-institut-berlin.de", "sport": "gymnastics"}}, {"type": "node", "id": 1657364481, "lat": 52.3634825, "lon": 13.1392647, "tags": {"addr:city": "Potsdam", "addr:country": "DE", "addr:housenumber": "11/13", "addr:postcode": "14480", "addr:street": "Maimi-von-Mirbach-Straße", "addr:suburb": "Kirchsteigfeld", "leisure": "sports_centre", "name": "SC Potsdam e.V.", "phone": "+49 331 622900", "website": "https://www.sc-potsdam.de/", "wheelchair": "yes"}}, {"type": "node", "id": 1673191293, "lat": 52.4227228, "lon": 13.539715, "tags": {"addr:city": "Berlin", "addr:country": "DE", "addr:housenumber": "11", "addr:postcode": "12524", "addr:street": "Köpenicker Straße", "addr:suburb": "Altglienicke", "leisure": "sports_centre", "name": "Frauenfitness Ladies Pur", "opening_hours": "Mo-Fr 08:00-16:00", "phone": "+49 30 67896623", "sport": "multi"}}, {"type": "node", "id": 1710197750, "lat": 52.5694066, "lon": 13.3711999, "tags": {"addr:city": "Berlin", "addr:country": "DE", "addr:housenumber": "79", "addr:postcode": "13409", "addr:street": "Amendestraße", "addr:suburb": "Reinickendorf", "contact:website": "https://www.shuri-ryu.de/", "leisure": "sports_centre", "name": "Shuri-Ryu Berlin", "operator": "Shuri-Ryu Berlin e.V.", "sport": "karate;modern_arnis;qigong", "toilets:wheelchair": "yes", "wheelchair": "yes"}}, {"type": "node", "id": 1742989893, "lat": 52.422859, "lon": 13.264092, "tags": {"description": "Trainingsstätte der VfL Judogruppe", "leisure": "sports_centre", "name": "Verein für Leibesübungen Zehlendorf e.V.", "sport": "judo", "website": "https://judo.vfl-zehlendorf.de/", "wheelchair": "yes"}}, {"type": "node", "id": 1766636057, "lat": 52.6114835, "lon": 13.2495195, "tags": {"addr:city": "Berlin", "addr:country": "DE", "addr:housenumber": "6", "addr:postcode": "13503", "addr:street": "Diakonieweg", "addr:suburb": "Heiligensee", "alt_name": "Reitschule", "leisure": "sports_centre", "name": "Reit- und Fahrverein Diakoniezentrum Heiligensee e.V.", "sport": "equestrian", "website": "https://rufd-heiligensee.de/"}}, {"type": "node", "id": 1773500987, "lat": 52.4586076, "lon": 13.3274617, "tags": {"leisure": "sports_centre", "name": "Sera-fit Pilates"}}, {"type": "node", "id": 1800383252, "lat": 52.6178117, "lon": 13.3357798, "tags": {"addr:city": "Berlin", "addr:country": "DE", "addr:housenumber": "9", "addr:postcode": "13469", "addr:street": "Am Freibad", "addr:suburb": "Lübars", "email": "info@strandbad-luebars.de", "leisure": "sports_centre", "name": "Freibad Lübars", "phone": "+49 30 53086035", "sport": "swimming", "website": "https://www.strandbad-luebars.de/", "wheelchair": "no", "wikidata": "Q33133182"}}, {"type": "node", "id": 1814665856, "lat": 52.5277833, "lon": 13.4031487, "tags": {"addr:city": "Berlin", "addr:country": "DE", "addr:housenumber": "63/64", "addr:postcode": "10119", "addr:street": "Rosenthaler Straße", "addr:suburb": "Mitte", "contact:website": "https://johnreed.fitness/womens-club-berlin-mitte/#/", "leisure": "sports_centre", "level": "1", "name": "John Reed", "opening_hours": "Mo-Fr 06:30-23:00; Sa,Su 09:00-21:00"}}, {"type": "node", "id": 1814675572, "lat": 52.5203424, "lon": 13.3884666, "tags": {"leisure": "sports_centre", "name": "Pink Frauen Fitness", "toilets:wheelchair": "yes", "wheelchair": "yes"}}, {"type": "node", "id": 1901137847, "lat": 52.3659482, "lon": 13.103337, "tags": {"addr:city": "Potsdam", "addr:country": "DE", "addr:housenumber": "42", "addr:postcode": "14478", "addr:street": "Drewitzer Straße", "leisure": "sports_centre", "name": "Potsdamer Reitverein e.V.", "phone": "+49 1525 8723041", "sport": "equestrian", "website": "http://www.potsdamer-reitverein.de", "wheelchair": "yes"}}, {"type": "node", "id": 1914072612, "lat": 52.5175363, "lon": 13.2793437, "tags": {"leisure": "sports_centre", "name": "Kimuras Karate Schule", "source": "GDAL 1.9.1", "sport": "martial_arts", "website": "http://www.kimura-karate-online.de"}}, {"type": "node", "id": 1914078567, "lat": 52.5250025, "lon": 13.3274483, "tags": {"contact:website": "https://www.tezentao-kampfkunst.de/", "leisure": "sports_centre", "name": "Tezentao Kampfkunst", "sport": "martial_arts"}}, {"type": "node", "id": 1914078965, "lat": 52.4554479, "lon": 13.3206811, "tags": {"leisure": "sports_centre", "name": "Sportschule Randori", "source": "GDAL 1.9.1", "sport": "martial_arts", "website": "https://www.randori-berlin.de/"}}, {"type": "node", "id": 1914079256, "lat": 52.5098876, "lon": 13.3240444, "tags": {"leisure": "sports_centre", "name": "Taekwondo-Institut Berlin", "source": "GDAL 1.9.1", "sport": "martial_arts", "website": "https://www.taekwondo-institut.de/"}}, {"type": "node", "id": 1914079546, "lat": 52.4875006, "lon": 13.3613567, "tags": {"leisure": "sports_centre", "name": "MMA Berlin Mixed Martial Arts", "source": "GDAL 1.9.1", "sport": "martial_arts", "website": "https://www.mma-berlin.de/"}}, {"type": "node", "id": 1914080650, "lat": 52.5279387, "lon": 13.4504508, "tags": {"leisure": "sports_centre", "name": "Siu Lam Wing Chun Schule", "phone": "+493020662228", "source": "GDAL 1.9.1", "sport": "martial_arts", "website": "https://siulam-wingchun.org/"}}, {"type": "node", "id": 1914080779, "lat": 52.4842868, "lon": 13.3618779, "tags": {"leisure": "sports_centre", "name": "Kampfkunstschule Ichi Geki", "source": "GDAL 1.9.1", "sport": "martial_arts"}}, {"type": "node", "id": 1914085781, "lat": 52.4867086, "lon": 13.318198, "tags": {"leisure": "sports_centre", "name": "Chen-Taichi-Berlin", "source": "GDAL 1.9.1", "sport": "martial_arts", "website": "https://www.entspannung-mit-system.de/"}}, {"type": "node", "id": 1914552746, "lat": 52.497067, "lon": 13.3232138, "tags": {"addr:city": "Berlin", "addr:country": "DE", "addr:housenumber": "46", "addr:postcode": "10719", "addr:street": "Pariser Straße", "addr:suburb": "Wilmersdorf", "leisure": "sports_centre", "name": "FitbyFerro - Personal Training"}}, {"type": "node", "id": 1918476296, "lat": 52.488898, "lon": 13.3873151, "tags": {"leisure": "sports_centre", "name": "Aikido Kreuzberg", "source": "GDAL 1.9.1", "sport": "martial_arts", "website": "http://www.aikido-kreuzberg.de/", "wheelchair": "no"}}, {"type": "node", "id": 1918480806, "lat": 52.5270373, "lon": 13.3908582, "tags": {"contact:website": "https://zeh2.zeh.hu-berlin.de/sportarten/aktueller_zeitraum/_Ju_Jutsu.html", "fixme": "still there?", "leisure": "sports_centre", "name": "Ju Jutsu @ HU-Berlin", "sport": "martial_arts"}}, {"type": "node", "id": 1918482388, "lat": 52.5322268, "lon": 13.380451, "tags": {"leisure": "sports_centre", "name": "Kampfsportschule Randori-Pro Mitte GmbH", "source": "GDAL 1.9.1", "sport": "martial_arts", "website": "https://randori-pro.de/", "wheelchair": "no"}}, {"type": "node", "id": 1918483212, "lat": 52.5316773, "lon": 13.3993936, "tags": {"leisure": "sports_centre", "name": "Aikido-Zentrum, Horst Späthling", "source": "GDAL 1.9.1", "sport": "martial_arts", "website": "http://www.aikidozentrum.de/"}}, {"type": "node", "id": 1918483826, "lat": 52.5335481, "lon": 13.407098, "tags": {"addr:city": "Berlin", "addr:country": "DE", "addr:housenumber": "57", "addr:postcode": "10119", "addr:street": "Zionskirchstraße", "addr:suburb": "Mitte", "contact:email": "info@taichi-schule.berlin", "contact:mobile": "+49 177 6887278", "contact:website": "https://www.taichi-schule.berlin/", "leisure": "sports_centre", "level": "0", "name": "Tai Chi Schule Dang Lang", "sport": "taijiquan", "wheelchair": "yes"}}, {"type": "node", "id": 1918485997, "lat": 52.5392911, "lon": 13.4131216, "tags": {"leisure": "sports_centre", "name": "Chen Tai-Chi-Chuan (Taijiquan) des CTND Berlin", "source": "GDAL 1.9.1", "sport": "martial_arts", "website": "https://www.ctnd.de/"}}, {"type": "node", "id": 1918486517, "lat": 52.5395753, "lon": 13.4135412, "tags": {"leisure": "sports_centre", "name": "Seon Taekwondo", "source": "GDAL 1.9.1", "sport": "martial_arts", "website": "https://www.seontaekwondo.de/"}}, {"type": "node", "id": 1918487036, "lat": 52.5464752, "lon": 13.4161267, "tags": {"leisure": "sports_centre", "name": "Aikido für Kinder Tanden Dojo", "source": "GDAL 1.9.1", "sport": "martial_arts", "website": "https://www.tanden-aikido.de/"}}, {"type": "node", "id": 1918487574, "lat": 52.5467577, "lon": 13.4206583, "tags": {"leisure": "sports_centre", "name": "Chen Taiji Berlin", "source": "GDAL 1.9.1", "sport": "martial_arts", "website": "http://www.taiji-berlin.de"}}, {"type": "node", "id": 1918491864, "lat": 52.5529818, "lon": 13.3802493, "tags": {"leisure": "sports_centre", "name": "Chen Taiji Berlin - Kampfkunst, Meditation, Philosophie", "source": "GDAL 1.9.1", "sport": "martial_arts", "website": "http://www.taiji-berlin.de/de/"}}, {"type": "node", "id": 1918493379, "lat": 52.5319166, "lon": 13.429726, "tags": {"leisure": "sports_centre", "name": "ChoHwa", "source": "GDAL 1.9.1", "sport": "martial_arts", "website": "https://www.chohwa.de/"}}, {"type": "node", "id": 1918506060, "lat": 52.5078725, "lon": 13.4728466, "tags": {"leisure": "sports_centre", "name": "Thaiboxgym Berlin e.V.", "source": "GDAL 1.9.1", "sport": "martial_arts", "website": "https://www.thaiboxen-mma-berlin.de/"}}, {"type": "node", "id": 1918506398, "lat": 52.5082083, "lon": 13.4726101, "tags": {"leisure": "sports_centre", "name": "Ringside Gym", "source": "GDAL 1.9.1", "sport": "martial_arts", "website": "https://ringsidegym.de/"}}, {"type": "node", "id": 1918511401, "lat": 52.5120465, "lon": 13.4487702, "tags": {"leisure": "sports_centre", "name": "Wing Tai Akademie für Kampfkunst & Selbstverteidigung Berlin - Friedrichshain", "source": "GDAL 1.9.1", "sport": "martial_arts", "website": "http://www.wingtai-berlin.de/"}}, {"type": "node", "id": 1918511544, "lat": 52.5182348, "lon": 13.4397386, "tags": {"leisure": "sports_centre", "name": "Kikentai-Berlin", "source": "GDAL 1.9.1", "sport": "martial_arts", "website": "http://www.kikentai-berlin.de/", "wheelchair": "no"}}, {"type": "node", "id": 1918513971, "lat": 52.5179533, "lon": 13.465553, "tags": {"club": "sport", "leisure": "sports_centre", "name": "Karate Club Nord e.V", "source": "GDAL 1.9.1", "sport": "martial_arts", "website": "https://kcn-berlin.de/"}}, {"type": "node", "id": 1918515872, "lat": 52.5046545, "lon": 13.4296632, "tags": {"leisure": "sports_centre", "name": "Capoeira in Berlin", "source": "GDAL 1.9.1", "sport": "martial_arts", "website": "http://www.berlin-capoeira.de/"}}, {"type": "node", "id": 1918519134, "lat": 52.500867, "lon": 13.4159323, "tags": {"leisure": "sports_centre", "name": "Taiji Weg - Isolde Schwarz", "source": "GDAL 1.9.1", "sport": "martial_arts", "website": "https://www.taiji-weg-berlin.de/"}}, {"type": "node", "id": 1918520393, "lat": 52.5020611, "lon": 13.4139305, "tags": {"leisure": "sports_centre", "name": "Gym Fist and Kick", "source": "GDAL 1.9.1", "sport": "martial_arts", "website": "http://www.a-systems.org/GFK-Berlin/gfk.html"}}, {"type": "node", "id": 1918525780, "lat": 52.4704052, "lon": 13.3242967, "tags": {"leisure": "sports_centre", "name": "Schule für Tai Chi Chuan und Qi Gong", "source": "GDAL 1.9.1", "sport": "martial_arts", "website": "https://www.taichi-qigong-berlin.de/", "wheelchair": "no"}}, {"type": "node", "id": 1918527003, "lat": 52.4462602, "lon": 13.3849036, "tags": {"addr:city": "Berlin", "addr:country": "DE", "addr:housenumber": "72", "addr:postcode": "12109", "addr:street": "Mariendorfer Damm", "addr:suburb": "Mariendorf", "email": "info@kampfsportschule-berlin.de", "leisure": "sports_centre", "name": "Sportschule Bernd Grossmann", "phone": "+49 30 7062034", "source": "GDAL 1.9.1", "sport": "martial_arts", "website": "https://www.kampfsportschule-berlin.de/"}}, {"type": "node", "id": 1918530253, "lat": 52.4405364, "lon": 13.3909488, "tags": {"leisure": "sports_centre", "name": "Kung Fu - Choy Lee Fut", "source": "GDAL 1.9.1", "sport": "martial_arts", "website": "https://www.choyleefut.de"}}, {"type": "node", "id": 1918534365, "lat": 52.4542261, "lon": 13.3262147, "tags": {"addr:city": "Berlin", "addr:country": "DE", "addr:housenumber": "34", "addr:postcode": "12167", "addr:street": "Mittelstraße", "addr:suburb": "Steglitz", "contact:website": "http://www.sportstudio-nippon.com/", "leisure": "sports_centre", "name": "Nippon - Gesundheit, Fitness & Kampfkunst", "source": "GDAL 1.9.1", "sport": "martial_arts"}}, {"type": "node", "id": 1918542673, "lat": 52.4085231, "lon": 13.2652251, "tags": {"addr:city": "Berlin", "addr:country": "DE", "addr:housenumber": "9-11", "addr:postcode": "14165", "addr:street": "Kleinmachnower Weg", "addr:suburb": "Zehlendorf", "leisure": "sports_centre", "name": "Kampfkunstakademie Berlin", "source": "GDAL 1.9.1", "sport": "martial_arts", "website": "http://www.selbstverteidigung-berlin.de/"}}, {"type": "node", "id": 1948112263, "lat": 52.5154091, "lon": 13.2874053, "tags": {"addr:city": "Berlin", "addr:country": "DE", "addr:postcode": "14059", "addr:street": "Sophie-Charlotten-Straße", "addr:suburb": "Charlottenburg", "leisure": "sports_centre", "name": "Sportstudio Maximus", "sport": "multi"}}, {"type": "node", "id": 2010391329, "lat": 52.4628098, "lon": 13.3801975, "tags": {"addr:city": "Berlin", "addr:country": "DE", "addr:housenumber": "3", "addr:postcode": "12103", "addr:street": "Bosestraße", "addr:suburb": "Tempelhof", "leisure": "sports_centre", "name": "Tempelhofer Tennis Club e.V.", "sport": "tennis"}}, {"type": "node", "id": 2047311677, "lat": 52.5531063, "lon": 13.3614293, "tags": {"addr:city": "Berlin", "addr:country": "DE", "addr:housenumber": "27", "addr:postcode": "13347", "addr:street": "Groninger Straße", "addr:suburb": "Wedding", "alt_name": "J.A.B. JKD Akademie Berlin", "leisure": "sports_centre", "name": "IMAG e.V. Berlin", "wheelchair": "no"}}, {"type": "node", "id": 2059798815, "lat": 52.4879655, "lon": 13.3567272, "tags": {"addr:city": "Berlin", "addr:country": "DE", "addr:housenumber": "7", "addr:postcode": "10823", "addr:street": "Belziger Straße", "addr:suburb": "Schöneberg", "alt_name": "Schwangerenyoga Frauke Stadali", "leisure": "sports_centre", "name": "Yoga in der Schwangerschaft Frauke Stadali", "name:en": "PrePostNatal Yoga Frauke Stadali", "old_name": "Frauke Stadali Yoga"}}, {"type": "node", "id": 2115582888, "lat": 52.5348405, "lon": 13.4118414, "tags": {"addr:city": "Berlin", "addr:country": "DE", "addr:housenumber": "165", "addr:postcode": "10435", "addr:street": "Schönhauser Allee", "addr:suburb": "Prenzlauer Berg", "alt_name": "Jugendzentrum go", "alt_name:en": "youth centre go", "leisure": "sports_centre", "name": "Kinder- und Jugendclub go", "old_name": "Juks", "sport": "table_tennis"}}, {"type": "node", "id": 2126006003, "lat": 52.588898, "lon": 13.286528, "tags": {"addr:city": "Berlin", "addr:country": "DE", "addr:housename": "Tegel Center", "addr:housenumber": "5-6", "addr:postcode": "13507", "addr:street": "Grußdorfstraße", "addr:suburb": "Tegel", "leisure": "sports_centre", "name": "Sportschule Bushido", "sport": "martial_arts", "wheelchair": "limited"}}, {"type": "node", "id": 2142710470, "lat": 52.5419862, "lon": 13.3551346, "tags": {"addr:city": "Berlin", "addr:country": "DE", "addr:housenumber": "14", "addr:postcode": "13353", "addr:street": "Sprengelstraße", "addr:suburb": "Wedding", "contact:phone": "+49 30 453 10 216", "leisure": "sports_centre", "name": "Ergotherapie im Sprengelkiez", "website": "http://www.ergo-sprengelkiez.de/", "wheelchair": "limited", "wheelchair:description": "mobile Rampe vorhanden, einfach fragen"}}, {"type": "node", "id": 2142712447, "lat": 52.5419589, "lon": 13.3548313, "tags": {"addr:city": "Berlin", "addr:country": "DE", "addr:housenumber": "15", "addr:postcode": "13353", "addr:street": "Sprengelstraße", "addr:suburb": "Wedding", "contact:phone": "+49 30 33 93 69 89", "leisure": "sports_centre", "name": "Fit4age", "opening_hours": "Mo-Fr 09:00-20:00; Sa 09:00-17:00", "website": "http://www.fit4age.net/", "wheelchair": "limited"}}, {"type": "node", "id": 2291424796, "lat": 52.4937134, "lon": 13.3430574, "tags": {"addr:city": "Berlin", "addr:country": "DE", "addr:housenumber": "47", "addr:postcode": "10779", "addr:street": "Hohenstaufenstraße", "addr:suburb": "Schöneberg", "contact:phone": "+49 30 89392725", "contact:website": "https://www.aikidoschule.de/", "leisure": "sports_centre", "name": "Aikido Schule Berlin", "sport": "aikido", "wheelchair": "no"}}, {"type": "node", "id": 2325901153, "lat": 52.4991015, "lon": 13.3056727, "tags": {"leisure": "sports_centre", "name": "Kampfkunstakademie Berlin-Wilmersdorf", "source": "GDAL 1.9.1", "sport": "martial_arts", "website": "https://www.kampf-kunst.de/"}}, {"type": "node", "id": 2329751488, "lat": 52.5318854, "lon": 13.4296923, "tags": {"addr:city": "Berlin", "addr:country": "DE", "addr:housenumber": "29", "addr:postcode": "10405", "addr:street": "Greifswalder Straße", "addr:suburb": "Prenzlauer Berg", "contact:website": "http://www.aikido-prenzlauerberg.com", "description": "aikido für Kinder und erwachsene", "leisure": "sports_centre", "name": "Aikido Prenzlauerberg", "sport": "martial_arts", "wheelchair": "limited"}}, {"type": "node", "id": 2347288661, "lat": 52.4583408, "lon": 13.4547339, "tags": {"addr:city": "Berlin", "addr:country": "DE", "addr:housenumber": "45e", "addr:postcode": "12359", "addr:street": "Haarlemer Straße", "addr:suburb": "Britz", "club": "sport", "email": "buero@rg-wiking.de", "leisure": "sports_centre", "name": "Rudergesellschaft Wiking e.V. Berlin", "phone": "+49 30 685 40 22", "sport": "rowing", "website": "https://www.rg-wiking.de/"}}, {"type": "node", "id": 2419879256, "lat": 52.530506, "lon": 13.413411, "tags": {"addr:city": "Berlin", "addr:country": "DE", "addr:housename": "Königstadt", "addr:housenumber": "24", "addr:postcode": "10405", "addr:street": "Saarbrücker Straße", "addr:suburb": "Prenzlauer Berg", "leisure": "sports_centre", "name": "Jugendhaus Königstadt", "wheelchair": "yes"}}, {"type": "node", "id": 2466034524, "lat": 52.5377466, "lon": 13.6038724, "tags": {"addr:city": "Berlin", "addr:country": "DE", "addr:housenumber": "25", "addr:postcode": "12627", "addr:street": "Stendaler Straße", "addr:suburb": "Hellersdorf", "contact:email": "info@bergwerk.berlin", "contact:phone": "+49 30 99274373", "contact:website": "https://bergwerk.berlin", "description": "Indoor-Hochseilgarten", "indoor": "yes", "leisure": "sports_centre", "name": "Bergwerk Berlin", "operator": "Gipfelstürmer Berlin GmbH", "payment:cash": "yes", "payment:coins": "yes", "payment:maestro": "yes", "payment:mastercard": "yes", "payment:visa_electron": "yes", "sport": "climbing_adventure", "wheelchair": "no"}}, {"type": "node", "id": 2489339161, "lat": 52.5296048, "lon": 13.5933044, "tags": {"addr:city": "Berlin", "addr:country": "DE", "addr:housenumber": "4", "addr:postcode": "12619", "addr:street": "Etkar-André-Straße", "addr:suburb": "Hellersdorf", "contact:email": "info@kampfkunst-pham.de", "contact:phone": "+49 30 5626839", "contact:website": "http://www.kungfu-taichi-berlin.de", "leisure": "sports_centre", "name": "Kampfkunst Studio Pham", "note": "Kung Fu, Krav Maga, Kick- & Thaiboxen, MMA und mehr im Kampfkunst Studio Pham Berlin Hellersdorf", "sport": "martial_arts"}}, {"type": "node", "id": 2641805244, "lat": 52.4794081, "lon": 13.4189959, "tags": {"leisure": "sports_centre", "name": "Jahn-Sportplatz"}}, {"type": "node", "id": 2657573291, "lat": 52.5029734, "lon": 13.407743, "tags": {"leisure": "sports_centre", "name": "Spree Crossfit", "opening_hours": "Mo-Fr 7:30-19:30;Sa-Su 10:30-14:30", "toilets:wheelchair": "no", "website": "https://www.spreecrossfit.de/", "wheelchair": "yes"}}, {"type": "node", "id": 2756088537, "lat": 52.4304169, "lon": 13.4342731, "tags": {"club": "sport", "contact:website": "https://www.sternbritz.de/", "leisure": "sports_centre", "name": "SV Stern Britz 1889 e.V.", "sport": "soccer"}}, {"type": "node", "id": 2827715473, "lat": 52.5219698, "lon": 13.349009, "tags": {"addr:city": "Berlin", "addr:country": "DE", "addr:housenumber": "7B", "addr:postcode": "10557", "addr:street": "Helgoländer Ufer", "addr:suburb": "Moabit", "leisure": "sports_centre", "name": "Shogun", "office": "association", "opening_hours": "\"feste Trainingszeiten\"", "sport": "tai_chi", "website": "https://www.shogun-gesundheit.de", "wheelchair": "yes"}}, {"type": "node", "id": 2864985082, "lat": 52.407054, "lon": 13.4394957, "tags": {"leisure": "sports_centre", "name": "Kampfkunstakademie WingTsun"}}, {"type": "node", "id": 2875570228, "lat": 52.5247674, "lon": 13.209265, "tags": {"addr:city": "Berlin", "addr:country": "DE", "addr:housenumber": "17", "addr:postcode": "13597", "addr:street": "Tiefwerderweg", "addr:suburb": "Spandau", "club": "sport", "contact:email": "info@tib1848ev.de", "contact:fax": "+49 30 61101019", "contact:phone": "+49 30 6110100", "contact:phone:counter": "+49 30 61101020", "contact:phone:member": "+49 30 61101031", "contact:website": "http://www.tib1848ev.de/sportarten/rudern-tiefwerder/", "leisure": "sports_centre", "name": "Turngemeinde in Berlin 1848 e.V. Rudern Tiefwerder", "opening_hours": "Mo-Fr 08:00-23:30; Sa 09:00-20:30; Su,PH 09:00-23:30", "opening_hours:member": "Tu 16:00-20:00;We 10:00-12:00", "source": "Geoportal Berlin / Hauskoordinaten", "sport": "rowing"}}, {"type": "node", "id": 2917748026, "lat": 52.5485758, "lon": 13.3818333, "tags": {"addr:city": "Berlin", "addr:housenumber": "20", "addr:postcode": "13357", "addr:street": "Böttgerstraße", "check_date": "2023-07-31", "fee": "yes", "leisure": "sports_centre", "name": "Magic Mountain", "sport": "climbing", "website": "https://www.magicmountain.de/"}}, {"type": "node", "id": 2921456208, "lat": 52.6293665, "lon": 13.5479116, "tags": {"addr:city": "Panketal", "addr:country": "DE", "addr:housenumber": "14e", "addr:postcode": "16341", "addr:street": "Dorfstraße", "addr:suburb": "Schwanebeck", "leisure": "sports_centre", "name": "SG Schwanebeck 98 e.V."}}, {"type": "node", "id": 2967292333, "lat": 52.5069325, "lon": 13.3262444, "tags": {"addr:city": "Berlin", "addr:country": "DE", "addr:housenumber": "194", "addr:postcode": "10623", "addr:street": "Uhlandstraße", "addr:suburb": "Charlottenburg", "leisure": "sports_centre", "name": "Sporthalle im Freizeitzentrum am Steinplatz", "wheelchair": "no"}}, {"type": "node", "id": 2977828725, "lat": 52.513118, "lon": 13.7451657, "tags": {"leisure": "sports_centre", "name": "LebensWert Gesundheitsstudio"}}, {"type": "node", "id": 3037805664, "lat": 52.5038258, "lon": 13.3251553, "tags": {"addr:city": "Berlin", "addr:country": "DE", "addr:housenumber": "20-25", "addr:postcode": "10623", "addr:street": "Uhlandstraße", "addr:suburb": "Charlottenburg", "currency:XBT": "yes", "leisure": "sports_centre", "level": "4", "name": "ICE Aesthetic - Zentrum Kryolipolyse Berlin", "opening_hours": "Mo-Fr 10:00-20:00; Sa 10:00-18:00", "payment:lightning": "yes", "payment:lightning_contactless": "no", "payment:onchain": "yes", "phone": "+49 30 68911584", "source": "Geoportal Berlin / Hauskoordinaten", "survey:date": "2022-11-05", "website": "https://www.ice-aesthetic.de/", "wheelchair": "yes"}}, {"type": "node", "id": 3081225428, "lat": 52.5431788, "lon": 13.376891, "tags": {"check_date": "2022-12-20", "leisure": "sports_centre", "level": "0", "name": "taykan Sports Arena", "website": "https://www.taykan.de", "wheelchair": "no"}}, {"type": "node", "id": 3186272257, "lat": 52.4869489, "lon": 13.3182979, "tags": {"addr:housenumber": "46", "addr:postcode": "10713", "addr:street": "Berliner Straße", "contact:mobile": "+49 172 8014424", "contact:phone": "+49 30 79784646", "email": "info@boulderworx.de", "indoor": "yes", "leisure": "sports_centre", "name": "Boulderworx", "opening_hours": "Mo-Fr 10:00-22:30; Sa-Su 10:00-21:00", "sport": "climbing", "website": "https://www.boulderworx.de/"}}, {"type": "node", "id": 3202080069, "lat": 52.4918674, "lon": 13.3890452, "tags": {"addr:city": "Berlin", "addr:country": "DE", "addr:housename": "Mehringhof", "addr:housenumber": "2a", "addr:postcode": "10961", "addr:street": "Gneisenaustraße", "leisure": "sports_centre", "name": "Tung Dojo Karate- und Jiu Jitsu-Verein", "phone": "+49 176 86911682", "sport": "karate"}}, {"type": "node", "id": 3206861422, "lat": 52.39626, "lon": 13.1190154, "tags": {"addr:city": "Potsdam", "addr:country": "DE", "addr:housenumber": "162", "addr:postcode": "14482", "addr:street": "Rudolf-Breitscheid-Straße", "addr:suburb": "Babelsberg", "contact:email": "satori@satori.in", "contact:phone": "+49 331 719 400", "contact:website": "https://www.satori-fitness.de/", "leisure": "sports_centre", "name": "Satori Fitness Club", "opening_hours": "Mo-Fr 07:00-22:00; Sa,Su 08:00-18:00; PH 10:00-14:00; Jan 01 14:00-18:00", "operator": "Satori GmbH & Co. KG", "operator:type": "business", "ref:vatin": "DE332821088"}}, {"type": "node", "id": 3234859877, "lat": 52.5808982, "lon": 13.2205398, "tags": {"club": "sport", "leisure": "sports_centre", "name": "Ruder-Club Tegelort", "sport": "rowing", "website": "https://www.rctegelort-berlin.de/"}}, {"type": "node", "id": 3235489272, "lat": 52.3783891, "lon": 13.6513924, "tags": {"club": "sport", "leisure": "sports_centre", "name": "Eisenbahn-Sportverein Schmöckwitz", "phone": "+49 30 675 84 30", "sport": "rowing", "website": "https://www.rudern-schmoeckwitz.de/", "wikimedia_commons": "File:ESV Schmöckwitz rowing club.jpg"}}, {"type": "node", "id": 3238139982, "lat": 52.5003917, "lon": 13.4326878, "tags": {"contact:website": "https://tib1848ev.de/", "leisure": "sports_centre", "name": "Turngemeinde in Berlin 1848 – Budozentrum", "operator": "Turngemeinde in Berlin 1848 e.V.", "operator:type": "private_non_profit", "short_name": "TIB", "sport": "budo"}}, {"type": "node", "id": 3303132312, "lat": 52.5243415, "lon": 13.3046153, "tags": {"addr:city": "Berlin", "addr:country": "DE", "addr:housenumber": "22", "addr:postcode": "10589", "addr:street": "Nordhauser Straße", "addr:suburb": "Charlottenburg", "leisure": "sports_centre", "name": "jugendkunstschule", "source": "Geoportal Berlin / Hauskoordinaten", "sport": "multi"}}, {"type": "node", "id": 3317552338, "lat": 52.4553612, "lon": 13.3878899, "tags": {"addr:city": "Berlin", "addr:country": "DE", "addr:housenumber": "227", "addr:postcode": "12099", "addr:street": "Tempelhofer Damm", "addr:suburb": "Tempelhof", "email": "tempelhof@superwomen.fitness", "leisure": "sports_centre", "name": "Super Women", "opening_hours": "Mo-Fr 07:00-22:00; Sa,Su 10:00-20:00", "phone": "+493020613800", "website": "http://www.superwomen.fitness/"}}, {"type": "node", "id": 3347694569, "lat": 52.5151052, "lon": 13.3806119, "tags": {"access": "yes", "contact:email": "spa.adlon@kempinski.com", "contact:phone": "+49 30 2261 1220", "contact:website": "http://www.kempinski.com/de/berlin/hotel-adlon/luxus-spa/", "leisure": "sports_centre", "name": "Adlon Spa", "opening_hours:fitness": "Mo-Su 06:00-22:00", "opening_hours:pool": "Mo-Su 06:00-22:00", "opening_hours:spa": "Mo,Su 09:00-20:00; Tu-Sa 09:00-21:00", "operator": "Adlon Hotel Kempinski Berlin", "sport": "multi", "tourism": "spa_resort", "wheelchair": "yes"}}, {"type": "node", "id": 3442698430, "lat": 52.4901185, "lon": 13.4488498, "tags": {"addr:city": "Berlin", "addr:housenumber": "21", "addr:postcode": "12435", "addr:street": "Karl-Kunger-Straße", "addr:suburb": "Alt-Treptow", "leisure": "sports_centre", "name": "Yoga und Körperarbeit", "sport": "yoga"}}, {"type": "node", "id": 3767184831, "lat": 52.5059378, "lon": 13.4601592, "tags": {"addr:city": "Berlin", "addr:country": "DE", "addr:housenumber": "33", "addr:postcode": "10245", "addr:street": "Revaler Straße", "addr:suburb": "Friedrichshain", "contact:phone": "+49 30 55159740", "contact:website": "http://www.ladycompany.de/", "leisure": "sports_centre", "name": "Lady Company Fitness für Frauen GmbH", "source": "eigene Anschauung und Telefonnummer von http://www.ladycompany.de/", "sport": "gymnastics", "wheelchair": "yes"}}, {"type": "node", "id": 3819522964, "lat": 52.5037245, "lon": 13.3252108, "tags": {"leisure": "sports_centre", "name": "Lagoa Yoga", "sport": "yoga", "website": "https://www.lagoayoga.de/", "wheelchair": "no"}}, {"type": "node", "id": 3826452464, "lat": 52.5004396, "lon": 13.3478256, "tags": {"addr:city": "Berlin", "addr:country": "DE", "addr:housenumber": "1", "addr:postcode": "10777", "addr:street": "Kalckreuthstraße", "addr:suburb": "Schöneberg", "email": "info@sportstudio-maximus.de", "fax": "+49 30 21 91 33 22", "leisure": "sports_centre", "name": "Maximus Sportstudio + Wellness", "operator": "Maximus Sportstudiobetriebsgesellschaft mbH", "phone": "+49 30 21913333", "website": "http://www.sportstudio-maximus.de"}}, {"type": "node", "id": 3966842994, "lat": 52.4951304, "lon": 13.4286748, "tags": {"addr:city": "Berlin", "addr:housenumber": "38", "addr:postcode": "10999", "addr:street": "Ohlauer Straße", "climbing:boulder": "yes", "climbing:sport": "no", "climbing:toprope": "no", "contact:phone": "+49 30 51302181", "contact:website": "http://boulderklubkreuzberg.de", "indoor": "yes", "leisure": "sports_centre", "name": "Boulderklub Kreuzberg", "opening_hours": "Mo-Fr 07:00-22:00; Sa-Su 09:00-22:00", "sport": "climbing", "wheelchair": "no"}}, {"type": "node", "id": 3989801753, "lat": 52.5421112, "lon": 13.221067, "tags": {"addr:city": "Berlin", "addr:country": "DE", "addr:housename": "Havelwerke", "addr:postcode": "13599", "addr:street": "Zitadellenweg", "climbing:boulder": "yes", "climbing:sport": "no", "description": "Boulderhalle", "fee": "yes", "indoor": "yes", "leisure": "sports_centre", "name": "Cliffhanger", "opening_hours": "Mo-Su 10:00-22:00", "operator": "Cliffhanger Boulderlounge Berlin GmbH", "phone": "+49 30 67060160", "sport": "climbing", "website": "https://cliffhanger-berlin.de/"}}, {"type": "node", "id": 4021566749, "lat": 52.4882441, "lon": 13.4230337, "tags": {"addr:city": "Berlin", "addr:country": "DE", "addr:housenumber": "70A", "addr:postcode": "10967", "addr:street": "Urbanstraße", "addr:suburb": "Kreuzberg", "contact:website": "https://www.lowkick-berlin.de/", "female": "yes", "leisure": "sports_centre", "name": "Lowkick", "operator": "Lowkick e.V.", "sport": "boxing;kickboxing;wendo"}}, {"type": "node", "id": 4128610786, "lat": 52.3858785, "lon": 13.1084135, "tags": {"addr:city": "Potsdam", "addr:country": "DE", "addr:housenumber": "127-135", "addr:postcode": "14482", "addr:street": "Großbeerenstraße", "addr:suburb": "Babelsberg", "contact:email": "member@mysuperfit.com", "contact:facebook": "https://www.facebook.com/Superfitclubs/", "contact:instagram": "https://www.instagram.com/superfitclubs/", "contact:phone": "+49 331 740 0456", "contact:website": "https://superfit.club/", "leisure": "sports_centre", "name": "SuperFit Potsdam-Babelsberg", "opening_hours": "24/7", "sport": "fitness", "wheelchair": "yes"}}, {"type": "node", "id": 4128610990, "lat": 52.5849505, "lon": 13.2859281, "tags": {"email": "member@mysuperfit.com", "leisure": "sports_centre", "level": "2", "name": "Superfit", "opening_hours": "24/7", "sport": "fitness", "website": "http://www.mysuperfit.com"}}, {"type": "node", "id": 4261575759, "lat": 52.5266821, "lon": 13.389507, "tags": {"addr:city": "Berlin", "addr:country": "DE", "addr:housenumber": "127", "addr:postcode": "10115", "addr:street": "Linienstraße", "addr:suburb": "Mitte", "leisure": "sports_centre", "name": "Chimosa", "website": "https://www.chimosa.de/", "wheelchair": "yes"}}, {"type": "node", "id": 4392774819, "lat": 52.50045, "lon": 13.3041481, "tags": {"leisure": "sports_centre", "name": "The Eight", "website": "https://www.the8.de/"}}, {"type": "node", "id": 4420389490, "lat": 52.4620074, "lon": 13.5124714, "tags": {"addr:city": "Berlin", "addr:housenumber": "89", "addr:postcode": "12459", "addr:street": "Wilhelminenhofstraße", "leisure": "sports_centre", "name": "Lasergame Berlin", "toilets:wheelchair": "yes", "website": "https://www.spielt-lasertag.de/", "wheelchair": "yes", "wheelchair:description": "Lasertagarena für jung und alt, voll Rollstuhlgerecht."}}, {"type": "node", "id": 4424022530, "lat": 52.5106479, "lon": 13.3974279, "tags": {"addr:housenumber": "46/47", "addr:postcode": "10117", "addr:street": "Leipziger Straße", "leisure": "sports_centre", "name": "McFit", "opening_hours": "Mo-Su 06:00-00:00", "sport": "fitness", "wheelchair": "no"}}, {"type": "node", "id": 4520986013, "lat": 52.5185242, "lon": 13.4520872, "tags": {"addr:city": "Berlin", "addr:housenumber": "51", "addr:postcode": "10249", "addr:street": "Weidenweg", "email": "info@koerperklang-yoga.de", "leisure": "sports_centre", "name": "Yogastudio Körperklang", "phone": "+49 30 23 61 77 73", "sport": "yoga", "website": "https://www.koerperklang-yoga.de/", "wheelchair": "yes"}}, {"type": "node", "id": 4524667531, "lat": 52.5273544, "lon": 13.4459319, "tags": {"access": "customers", "contact:phone": "+49 30 400 4890", "contact:website": "http://www.sez-berlin.com/", "fee": "yes", "leisure": "sports_centre", "name": "SEZ", "opening_hours": "Mo-Fr 16:00-23:00; Sa-Su 13:00-20:00", "operator": "SEZ Berlin GmbH", "sport": "bowling;table_tennis;badminton"}}, {"type": "node", "id": 4564107683, "lat": 52.4188392, "lon": 13.3590907, "tags": {"leisure": "sports_centre", "name": "Trampolinpark Sprung.Raum", "opening_hours": "Mo-Fr 13:00-21:00; Sa 10:00-24:00; Su 10:00-21:00", "phone": "+49 30 754488090", "sport": "trampoline", "website": "https://www.sprungraum.de/"}}, {"type": "node", "id": 4962961839, "lat": 52.5523555, "lon": 13.3739271, "tags": {"addr:city": "Berlin", "addr:country": "DE", "addr:housenumber": "8", "addr:postcode": "13357", "addr:street": "Uferstraße", "addr:suburb": "Gesundbrunnen", "contact:facebook": "https://www.facebook.com/thebaseberlin/", "contact:instagram": "https://www.instagram.com/TheBaseBerlin/", "leisure": "sports_centre", "name": "The Base", "opening_hours": "Mo-Fr 15:00-20:00 \"Ab 12 Jahre\"; Sa 10:00-20:00 \"Ab 12 Jahre\"; Su 12:00-20:00 \"Ab 12 Jahre\" || Mo-Fr 15:00-22:00 \"Ab 16 Jahre\"; Sa 10:00-22:00 \"Ab 16 Jahre\"; Su 12:00-22:00 \"Ab 16 Jahre\"", "operator": "adidas Football", "sport": "soccer", "start_date": "2013-06"}}, {"type": "node", "id": 5054068393, "lat": 52.4986333, "lon": 13.290212, "tags": {"leisure": "sports_centre", "name": "Gymnastikstudio Schlanke Linie", "sport": "gymnastics"}}, {"type": "node", "id": 5054068398, "lat": 52.4980802, "lon": 13.2905842, "tags": {"addr:city": "Berlin", "addr:country": "DE", "addr:housenumber": "3", "addr:postcode": "10711", "addr:street": "Georg-Wilhelm-Straße", "addr:suburb": "Halensee", "leisure": "sports_centre", "name": "Top Ten Budo Akademie", "sport": "kickboxing", "website": "https://www.afk-berlin.de/"}}, {"type": "node", "id": 5525004972, "lat": 52.4515425, "lon": 13.3844084, "tags": {"leisure": "sports_centre", "name": "Fit Woman", "wheelchair": "no"}}, {"type": "node", "id": 5549151400, "lat": 52.6043218, "lon": 13.3548088, "tags": {"leisure": "sports_centre", "name": "TSV Berlin-Wittenau 1896 e.V."}}, {"type": "node", "id": 5597962250, "lat": 52.5214094, "lon": 13.4067191, "tags": {"addr:city": "Berlin", "addr:country": "DE", "addr:housenumber": "9", "addr:postcode": "10178", "addr:street": "Karl-Liebknecht-Straße", "addr:suburb": "Mitte", "contact:website": "https://woodcutter.de/", "leisure": "sports_centre", "name": "Woodcutter", "sport": "axe"}}, {"type": "node", "id": 5869100123, "lat": 52.5055035, "lon": 13.4299959, "tags": {"addr:city": "Berlin", "addr:country": "DE", "addr:housenumber": "154", "addr:postcode": "10997", "addr:street": "Köpenicker Straße", "addr:suburb": "Kreuzberg", "contact:website": "https://lurich.de/sport/boxen-boxfabrik/", "leisure": "sports_centre", "name": "Boxfabrik", "operator": "Sport-Club Lurich 02 e.V.", "operator:type": "association", "sport": "boxing", "toilets:wheelchair": "no", "wheelchair": "yes"}}, {"type": "node", "id": 5892784983, "lat": 52.3385259, "lon": 13.2741719, "tags": {"leisure": "sports_centre", "name": "Multifunktions- & Sporthalle", "sport": "multi"}}, {"type": "node", "id": 5969166959, "lat": 52.4882271, "lon": 13.3884686, "tags": {"addr:city": "Berlin", "addr:country": "DE", "addr:housenumber": "7d", "addr:postcode": "10965", "addr:street": "Am Tempelhofer Berg", "addr:suburb": "Kreuzberg", "contact:website": "https://yoga-sky.de/", "leisure": "sports_centre", "name": "Yoga Sky Berlin", "wheelchair": "limited"}}, {"type": "node", "id": 6027199452, "lat": 52.5217464, "lon": 13.4465225, "tags": {"contact:phone": "+49 30 420 25459", "contact:website": "http://matsyendrasanas.de/", "leisure": "sports_centre", "name": "iyengaryoga", "sport": "yoga", "wheelchair": "no"}}, {"type": "node", "id": 6490332529, "lat": 52.4448538, "lon": 13.3740001, "tags": {"addr:city": "Berlin", "addr:country": "DE", "addr:housenumber": "62", "addr:postcode": "12105", "addr:street": "Gersdorfstraße", "addr:suburb": "Mariendorf", "contact:email": "daniel@kampfkunst-werkstatt.de", "contact:instagram": "https://www.instagram.com/kampfkunstwerkstatt/", "description": "Kampfkunst & Selbstverteidigung für Kinder und Jugendliche", "leisure": "sports_centre", "level": "0", "name": "Kampfkunstwerkstatt", "sport": "martial_arts;self_defense"}}, {"type": "node", "id": 6984344179, "lat": 52.4966839, "lon": 13.4140441, "tags": {"addr:city": "Berlin", "addr:country": "DE", "addr:housenumber": "59/61", "addr:postcode": "10999", "addr:street": "Erkelenzdamm", "addr:suburb": "Kreuzberg", "contact:email": "team@pole-and-sports.de", "contact:website": "http://yvonne-haug-pole-and-sports.de/", "leisure": "sports_centre", "level": "3", "name": "Yvonne Haug", "sport": "pole_dance", "wheelchair": "no"}}, {"type": "node", "id": 7148689662, "lat": 52.4702612, "lon": 13.3280697, "tags": {"addr:city": "Berlin", "addr:country": "DE", "addr:housenumber": "79", "addr:postcode": "12161", "addr:street": "Bundesallee", "addr:suburb": "Friedenau", "check_date:opening_hours": "2021-03-03", "contact:phone": "+49 30 97989422", "contact:website": "http://wt-steglitz.de/", "leisure": "sports_centre", "name": "WingTsun Kampfkunst Akademie Steglitz", "opening_hours": "Mo,We,Fr 18:30-20:00", "sport": "wingtsun", "wheelchair": "no"}}, {"type": "node", "id": 7280505360, "lat": 52.5464914, "lon": 13.4204341, "tags": {"addr:city": "Berlin", "addr:country": "DE", "addr:housenumber": "73", "addr:postcode": "10437", "addr:street": "Lychener Straße", "contact:mobile": "+49 176 21006000", "contact:website": "https://www.tanden-aikido.de/", "description": "Aikido, Qigong, Meditation Kampfkunst & Gesundheit", "leisure": "sports_centre", "name": "Tanden Aikido", "sport": "aikido;qigong"}}, {"type": "node", "id": 7353306217, "lat": 52.3845869, "lon": 13.1039151, "tags": {"climbing:boulder": "yes", "contact:email": "mail@7aplus.de", "contact:instagram": "7aplus_bouldergym", "contact:phone": "+49 331 740 03111", "contact:website": "https://7aplus.de/", "fee": "yes", "indoor": "yes", "internet_access": "wlan", "leisure": "sports_centre", "name": "7aplus Boulderhalle", "opening_hours": "Mo-Fr 10:00-23:00; Sa-Su 09:00-22:00", "operator": "Monkeywall GmbH", "operator:type": "business", "sport": "climbing"}}, {"type": "node", "id": 7580713139, "lat": 52.4334048, "lon": 13.7040005, "tags": {"leisure": "sports_centre"}}, {"type": "node", "id": 7773837709, "lat": 52.481914, "lon": 13.3271356, "tags": {"addr:city": "Berlin", "addr:country": "DE", "addr:housenumber": "5", "addr:postcode": "10715", "addr:street": "Hildegardstraße", "addr:suburb": "Wilmersdorf", "leisure": "sports_centre", "name": "Tao Taekwondo", "sport": "taekwondo", "website": "http://tao-taekwondo.de/"}}, {"type": "node", "id": 8231739132, "lat": 52.4788768, "lon": 13.4506564, "tags": {"access": "customers", "check_date": "2020-12-15", "contact:email": "berlin@shuffleboardclub.de", "contact:phone": "+49 30 68999270", "contact:website": "http://shuffleboardclub.de", "fee": "yes", "leisure": "sports_centre", "name": "Shuffleboard Club", "note": "Räumlichkeiten unterhalb des Gebäudes in einer ehemaligen Tiefgarage", "opening_hours": "Tu-Th 18:00-23:00; Fr-Sa 18:00-24:00", "opening_hours:covid19": "closed", "sport": "shuffleboard"}}, {"type": "node", "id": 9215893418, "lat": 52.4208929, "lon": 13.5391467, "tags": {"addr:city": "Berlin", "addr:country": "DE", "addr:housenumber": "40", "addr:postcode": "12524", "addr:street": "Köpenicker Straße", "addr:suburb": "Altglienicke", "contact:website": "https://www.kungfufabrik.de/", "leisure": "sports_centre", "name": "Kungfufabrik", "opening_hours": "Mo,Tu,Fr 16:30-20:00; We 17:30-20:00; Th 17:00-20:00", "operator": "Enrico Scheddin", "sport": "kung_fu"}}, {"type": "node", "id": 9250071835, "lat": 52.3907175, "lon": 13.0996395, "tags": {"addr:city": "Potsdam", "addr:country": "DE", "addr:housenumber": "16", "addr:postcode": "14482", "addr:street": "Stephensonstraße", "addr:suburb": "Babelsberg", "contact:email": "js@yogapraxis-potsdam.de", "contact:facebook": "https://www.facebook.com/yogapraxispotsdam", "contact:mobile": "+49 176 647 46327", "contact:pinterest": "https://www.pinterest.de/yogapotsdam/", "contact:twitter": "https://twitter.com/YogaPotsdam", "contact:website": "https://www.yogapraxis-potsdam.de/", "contact:youtube": "https://www.youtube.com/channel/UCIolalFyggQzmlZvL8yizaw", "leisure": "sports_centre", "name": "Yoga Praxis Potsdam", "operator": "Jens Schmidt", "operator:type": "private", "sport": "yoga"}}, {"type": "node", "id": 9569467386, "lat": 52.4953281, "lon": 13.3048109, "tags": {"leisure": "sports_centre", "name": "Urban Tribe"}}, {"type": "node", "id": 9696051925, "lat": 52.366741, "lon": 13.5618771, "tags": {"addr:city": "Schönefeld", "addr:country": "DE", "addr:housenumber": "4b", "addr:postcode": "12529", "addr:street": "Zeppelinstraße", "addr:suburb": "Waltersdorf", "leisure": "sports_centre", "name": "Kampfsportschule Randori-Pro Walltersdorf", "sport": "martial_arts;kickboxing", "website": "https://randori-pro.de/"}}, {"type": "node", "id": 9733504166, "lat": 52.5119159, "lon": 13.2932373, "tags": {"leisure": "sports_centre", "name": "Sportevre", "wheelchair": "no"}}, {"type": "node", "id": 10000526648, "lat": 52.5115417, "lon": 13.3018282, "tags": {"leisure": "sports_centre", "name": "Believe Martial Arts"}}, {"type": "node", "id": 10003860051, "lat": 52.5133626, "lon": 13.291624, "tags": {"check_date": "2022-09-06", "leisure": "sports_centre", "name": "Yoga & More"}}, {"type": "node", "id": 10124308217, "lat": 52.4845809, "lon": 13.4083453, "tags": {"contact:website": "https://www.coraggio.de/hochseilarena/", "email": "hochseil@kulturanstifter.de", "leisure": "sports_centre", "name": "Hochseilarena Berlin", "sport": "climbing_adventure"}}, {"type": "node", "id": 10809220987, "lat": 52.4545355, "lon": 13.3295028, "tags": {"addr:city": "Berlin", "addr:housenumber": "2", "addr:postcode": "12169", "addr:street": "Plantagenstraße", "leisure": "sports_centre", "name": "1. Berliner Kinder-Schwimmschule", "opening_hours": "Mo-Su 09:00-19:00", "sport": "swimming", "website": "https://berlinerkinderschwimmschule.de/"}}, {"type": "node", "id": 10946026254, "lat": 52.5098856, "lon": 13.4164968, "tags": {"addr:city": "Berlin", "addr:housenumber": "3", "addr:postcode": "10179", "addr:street": "Heinrich-Heine-Straße", "fee": "yes", "leisure": "sports_centre", "name": "Arrow Tag Berlin", "opening_hours": "Mo-Su 10:00-19:00", "operator": "Mister Neo", "operator:type": "private", "sport": "arrow_tag", "website": "https://misterneo.com/berlin/arrow-tag/"}}, {"type": "node", "id": 10955712973, "lat": 52.4661788, "lon": 13.4427188, "tags": {"addr:city": "Berlin", "addr:country": "DE", "addr:housenumber": "255", "addr:postcode": "12057", "addr:street": "Karl-Marx-Straße", "addr:suburb": "Neukölln", "contact:phone": "+49 30 403673050", "leisure": "sports_centre", "name": "Laserstar", "opening_hours": "Mo-Su 10:00-22:00", "payment:cash": "no", "sport": "laser_tag"}}, {"type": "node", "id": 11112856978, "lat": 52.43773, "lon": 13.3752049, "tags": {"leisure": "sports_centre", "sport": "taekwondo"}}, {"type": "node", "id": 11269471641, "lat": 52.5573077, "lon": 13.3630088, "tags": {"addr:city": "Berlin", "addr:housenumber": "80", "addr:postcode": "13347", "addr:street": "Seestraße", "fee": "yes", "leisure": "sports_centre", "name": "Kombibad Seestraße", "operator": "Berliner Bäder", "sport": "swimming"}}]}