{"version": 0.6, "generator": "Overpass API 0.7.61.5 4133829e", "osm3s": {"timestamp_osm_base": "2024-01-02T13:45:02Z", "copyright": "The data included in this document is from www.openstreetmap.org. The data is made available under ODbL."}, "elements": [{"type": "node", "id": 282748367, "lat": 52.515594, "lon": 13.4721266, "tags": {"addr:city": "Berlin", "addr:country": "DE", "addr:housenumber": "7", "addr:postcode": "10247", "addr:street": "Waldeyerstraße", "addr:suburb": "Friedrichshain", "amenity": "ice_cream", "indoor_seating": "yes", "name": "Sweet Hands", "outdoor_seating": "yes", "takeaway": "yes", "wheelchair": "no"}}, {"type": "node", "id": 293225672, "lat": 52.5323311, "lon": 13.4357348, "tags": {"addr:city": "Berlin", "addr:country": "DE", "addr:housenumber": "32", "addr:postcode": "10407", "addr:street": "Pasteurstraße", "addr:suburb": "Prenzlauer Berg", "amenity": "ice_cream", "contact:phone": "+49 163 808 2002", "contact:website": "https://rosacanina.eu", "cuisine": "ice_cream", "diet:vegan": "yes", "name": "Rosa Canina", "opening_hours": "Mar-Oct: Mo-Fr 13:00+; Sa-Su 12:00+", "organic": "only", "wheelchair": "no"}}, {"type": "node", "id": 416076804, "lat": 52.4437443, "lon": 13.2938733, "tags": {"addr:city": "Berlin", "addr:country": "DE", "addr:housenumber": "10", "addr:postcode": "12205", "addr:street": "Knesebeckstraße", "addr:suburb": "Lichterfelde", "amenity": "ice_cream", "check_date": "2023-12-17", "cuisine": "italian", "name": "Gelatteria Vanilla", "toilets:wheelchair": "no", "wheelchair": "limited"}}, {"type": "node", "id": 482737289, "lat": 52.4900563, "lon": 13.3831738, "tags": {"addr:city": "Berlin", "addr:country": "DE", "addr:postcode": "10965", "addr:street": "Kreuzbergstraße", "addr:suburb": "Kreuzberg", "amenity": "ice_cream", "changing_table": "no", "internet_access": "no", "name": "Fior di Latte", "outdoor_seating": "yes", "takeaway": "yes", "toilets": "yes", "toilets:wheelchair": "no", "wheelchair": "no"}}, {"type": "node", "id": 482737290, "lat": 52.4914869, "lon": 13.3862658, "tags": {"addr:city": "Berlin", "addr:country": "DE", "addr:housenumber": "1", "addr:postcode": "10965", "addr:street": "Hagelberger Straße", "addr:suburb": "Kreuzberg", "amenity": "ice_cream", "cuisine": "ice_cream", "name": "vanille & marille Eismanufaktur", "opening_hours": "Mar-Oct Mo-Su 11:00-23:00", "phone": "+49 30 78954731", "website": "https://www.vanille-marille.de/", "wheelchair": "no"}}, {"type": "node", "id": 615020649, "lat": 52.4992919, "lon": 13.4429169, "tags": {"addr:city": "Berlin", "addr:country": "DE", "addr:housenumber": "7", "addr:postcode": "10997", "addr:street": "Falckensteinstraße", "addr:suburb": "Kreuzberg", "amenity": "ice_cream", "contact:facebook": "https://www.facebook.com/aldemir.eisdiele/", "cuisine": "ice_cream", "internet_access": "no", "name": "Aldemir Eis", "opening_hours": "Mo-Su 10:00-22:00", "surveillance": "indoor", "wheelchair": "no"}}, {"type": "node", "id": 664244067, "lat": 52.4745195, "lon": 13.2939042, "tags": {"addr:city": "Berlin", "addr:country": "DE", "addr:housenumber": "14A", "addr:postcode": "14199", "addr:street": "Breite Straße", "addr:suburb": "Schmargendorf", "amenity": "ice_cream", "check_date": "2023-08-25", "name": "Eis Da Dalt", "wheelchair": "yes"}}, {"type": "node", "id": 670658034, "lat": 52.4865601, "lon": 13.3605488, "tags": {"amenity": "ice_cream", "name": "Don Gelato"}}, {"type": "node", "id": 670658039, "lat": 52.4945809, "lon": 13.3607729, "tags": {"addr:city": "Berlin", "addr:country": "DE", "addr:housenumber": "170-170b", "addr:postcode": "10783", "addr:street": "Potsdamer Straße", "addr:suburb": "Schöneberg", "amenity": "ice_cream", "cuisine": "ice_cream", "name": "Eis-Café Vannini", "outdoor_seating": "yes", "wheelchair": "yes"}}, {"type": "node", "id": 674432264, "lat": 52.4450623, "lon": 13.2929326, "tags": {"addr:city": "Berlin", "addr:country": "DE", "addr:housenumber": "95b", "addr:postcode": "12205", "addr:street": "Unter den Eichen", "addr:suburb": "Lichterfelde", "amenity": "ice_cream", "indoor_seating": "yes", "name": "Artigiani", "opening_hours": "Mo-Su 11:30-20:30", "outdoor_seating": "yes", "wheelchair": "yes"}}, {"type": "node", "id": 735944492, "lat": 52.4450013, "lon": 13.5743639, "tags": {"addr:city": "Berlin", "addr:country": "DE", "addr:housenumber": "33", "addr:postcode": "12555", "addr:street": "Alt-Köpenick", "addr:suburb": "Köpenick", "amenity": "ice_cream", "contact:instagram": "https://www.instagram.com/eisbar_friederici/", "contact:mobile": "+49 177 8664377", "diet:vegan": "yes", "diet:vegetarian": "only", "name": "Eisbar Friederici", "opening_hours": "Mar-Oct: Mo-Su 11:00-18:00", "phone": "+49 30 65497969", "start_date": "2015", "wheelchair": "no"}}, {"type": "node", "id": 739991143, "lat": 52.4334723, "lon": 13.3596096, "tags": {"addr:suburb": "Lankwitz", "amenity": "ice_cream", "wheelchair": "yes"}}, {"type": "node", "id": 746853085, "lat": 52.5807501, "lon": 13.3996999, "tags": {"air_conditioning": "yes", "amenity": "ice_cream", "check_date:opening_hours": "2023-07-13", "diet:vegan": "no", "indoor_seating": "yes", "name": "Jacksons Ice Cream", "opening_hours": "Mo-Su 11:00-20:00", "outdoor_seating": "yes", "payment:credit_cards": "no", "payment:debit_cards": "no", "smoking": "no", "wheelchair": "no"}}, {"type": "node", "id": 747528359, "lat": 52.587148, "lon": 13.401989, "tags": {"addr:city": "Berlin", "addr:country": "DE", "addr:housenumber": "68", "addr:postcode": "13156", "addr:street": "Dietzgenstraße", "addr:suburb": "Niederschönhausen", "amenity": "ice_cream", "indoor_seating": "yes", "name": "Eiscafé Gelato degli Angeli", "outdoor_seating": "yes", "wheelchair": "yes"}}, {"type": "node", "id": 753361477, "lat": 52.5699404, "lon": 13.4106207, "tags": {"addr:city": "Berlin", "addr:country": "DE", "addr:housenumber": "4", "addr:postcode": "13187", "addr:street": "Berliner Straße", "addr:suburb": "Pankow", "amenity": "ice_cream", "contact:facebook": "https://www.facebook.com/Eisspatz/", "cuisine": "ice_cream", "indoor_seating": "yes", "name": "Eisspatz", "opening_hours": "Sa-Mo 12:00-20:00; Tu-Fr 12:00-19:00", "outdoor_seating": "yes"}}, {"type": "node", "id": 773563718, "lat": 52.5374295, "lon": 13.4210527, "tags": {"addr:city": "Berlin", "addr:country": "DE", "addr:housenumber": "40", "addr:postcode": "10405", "addr:street": "Rykestraße", "addr:suburb": "Prenzlauer Berg", "amenity": "ice_cream", "check_date": "2023-09-03", "contact:instagram": "https://www.instagram.com/tribecaicecream/", "contact:website": "https://www.tribecaicecream.com/", "diet:vegan": "only", "name": "Tribeca", "opening_hours": "Mo-Su 12:00-22:00", "outdoor_seating": "yes", "payment:cash": "no", "payment:contactless": "yes", "payment:mastercard": "yes", "payment:visa": "yes", "wheelchair": "no"}}, {"type": "node", "id": 775342946, "lat": 52.4581642, "lon": 13.3216253, "tags": {"amenity": "ice_cream", "check_date": "2023-06-15", "indoor_seating": "no", "name": "Eis Da Dalt", "opening_hours": "Mo-Sa 09:00-20:00", "outdoor_seating": "no", "takeaway": "only", "wheelchair": "yes"}}, {"type": "node", "id": 832835242, "lat": 52.551954, "lon": 13.3667613, "tags": {"amenity": "ice_cream", "check_date": "2023-06-10", "name": "Eis & Back", "wheelchair": "limited"}}, {"type": "node", "id": 833025100, "lat": 52.5417617, "lon": 13.4221348, "tags": {"addr:city": "Berlin", "addr:country": "DE", "addr:housenumber": "32", "addr:postcode": "10437", "addr:street": "Raumerstraße", "addr:suburb": "Prenzlauer Berg", "amenity": "ice_cream", "name": "Eislabor", "opening_hours": "Mo-Su 14:00+", "opening_hours:signed": "no", "outdoor_seating": "yes", "takeaway": "yes", "wheelchair": "no"}}, {"type": "node", "id": 853810631, "lat": 52.4892469, "lon": 13.3939761, "tags": {"addr:city": "Berlin", "addr:housenumber": "15", "addr:postcode": "10961", "addr:street": "Marheinekeplatz", "amenity": "ice_cream", "check_date:opening_hours": "2022-02-16", "level": "0", "name": "Bio Eissalon tanne B.", "opening_hours": "Mo-Fr 11:00-19:00; Sa 11:00-18:00; Su off", "organic": "yes", "outdoor_seating": "yes", "shop": "ice_cream", "website": "https://www.tanneb.de/", "wheelchair": "yes"}}, {"type": "node", "id": 860691104, "lat": 52.5114743, "lon": 13.2975913, "tags": {"addr:city": "Berlin", "addr:country": "DE", "addr:housenumber": "28", "addr:postcode": "14059", "addr:street": "Schloßstraße", "addr:suburb": "Charlottenburg", "amenity": "ice_cream", "contact:website": "http://moono.de/", "diet:vegan": "no", "indoor_seating": "yes", "name": "Moono Frozen Yogurt Berlin", "opening_hours": "Mo-Su 12:00-20:00", "outdoor_seating": "yes", "wheelchair": "yes"}}, {"type": "node", "id": 864085678, "lat": 52.5010414, "lon": 13.4310567, "tags": {"addr:housenumber": "48", "addr:street": "Eisenbahnstraße", "amenity": "ice_cream", "contact:phone": "+49 30 69567811", "contact:website": "https://www.tanneb.de/", "cuisine": "ice_cream", "delivery": "no", "diet:vegan": "yes", "indoor_seating": "yes", "name": "Eissalon tanne B.", "opening_hours": "Tu-Su 10:00-18:00", "outdoor_seating": "yes", "takeaway": "yes", "toilets:wheelchair": "yes", "wheelchair": "yes"}}, {"type": "node", "id": 916563260, "lat": 52.4936851, "lon": 13.4373087, "tags": {"addr:city": "Berlin", "addr:country": "DE", "addr:housenumber": "104", "addr:postcode": "10999", "addr:street": "Reichenberger Straße", "addr:suburb": "Kreuzberg", "amenity": "ice_cream", "name": "Five Elephant (Ice Scream)", "operator": "Five Elephant"}}, {"type": "node", "id": 926359040, "lat": 52.5221389, "lon": 13.4112166, "tags": {"amenity": "ice_cream", "cuisine": "ice_cream", "name": "San Marco"}}, {"type": "node", "id": 977707412, "lat": 52.4944225, "lon": 13.4155388, "tags": {"addr:city": "Berlin", "addr:country": "DE", "addr:housenumber": "1", "addr:postcode": "10967", "addr:street": "Böckhstraße", "addr:suburb": "Kreuzberg", "amenity": "ice_cream", "cuisine": "ice_cream", "indoor_seating": "yes", "name": "Eiscafé Isabel", "outdoor_seating": "yes", "wheelchair": "no", "wheelchair:source": "http://wheelmap.org"}}, {"type": "node", "id": 1080870487, "lat": 52.4348556, "lon": 13.2600032, "tags": {"amenity": "ice_cream", "wheelchair": "yes"}}, {"type": "node", "id": 1227247985, "lat": 52.5173455, "lon": 13.3077236, "tags": {"addr:city": "Berlin", "addr:housenumber": "104", "addr:postcode": "10585", "addr:street": "Otto-Suhr-Allee", "amenity": "ice_cream", "check_date": "2023-10-26", "diet:vegan": "yes", "name": "Faldon Eismanufaktur", "opening_hours": "May-Sep 11:00-20:00; Jan-Apr off; Oct-Dec off", "outdoor_seating": "yes", "wheelchair": "yes"}}, {"type": "node", "id": 1236954083, "lat": 52.6068479, "lon": 13.2102847, "tags": {"amenity": "ice_cream", "name": "Eisinsel", "opening_hours": "Mo-Su 12:00-19:00"}}, {"type": "node", "id": 1239737913, "lat": 52.5103967, "lon": 13.3764124, "tags": {"amenity": "ice_cream", "brand": "Häagen-Dazs", "brand:wikidata": "Q1143333", "brand:wikipedia": "en:Häagen-Dazs", "check_date:opening_hours": "2023-07-10", "cuisine": "ice_cream", "indoor_seating": "yes", "internet_access": "wlan", "internet_access:fee": "no", "level": "0", "name": "Häagen-Dazs", "opening_hours": "Mo-Th,Su 11:00-22:00; Fr-Sa 11:00-23:00; PH off", "outdoor_seating": "yes", "takeaway": "yes", "wheelchair": "yes"}}, {"type": "node", "id": 1252865192, "lat": 52.5885432, "lon": 13.2781145, "tags": {"amenity": "ice_cream", "cuisine": "ice_cream", "email": "kontakt@floridaeis.de", "name": "Florida Eiscafé", "opening_hours": "11:00-19:00", "outdoor_seating": "yes", "phone": "+49 30 36403550", "website": "https://www.floridaeis.de/", "wheelchair": "yes"}}, {"type": "node", "id": 1342682103, "lat": 52.4998032, "lon": 13.4328743, "tags": {"amenity": "ice_cream", "indoor_seating": "yes", "name": "La Gelateria picola", "outdoor_seating": "yes", "shop": "ice_cream", "takeaway": "yes", "toilets:wheelchair": "no", "wheelchair": "yes"}}, {"type": "node", "id": 1374234250, "lat": 52.511115, "lon": 13.4616423, "tags": {"addr:city": "Berlin", "addr:country": "DE", "addr:housenumber": "85", "addr:postcode": "10245", "addr:street": "Grünberger Straße", "addr:suburb": "Friedrichshain", "amenity": "ice_cream", "contact:website": "http://www.eispiraten-berlin.de/", "diet:vegan": "yes", "name": "EisPiraten", "opening_hours": "Mo-Fr 14:00+; Sa-Su 12:00+", "shop": "ice_cream", "wheelchair": "limited", "wheelchair:description": "Klingel für Rollstuhlfahrer an der Eingangstür."}}, {"type": "node", "id": 1418640423, "lat": 52.536846, "lon": 13.270978, "tags": {"addr:city": "Berlin", "addr:country": "DE", "addr:housenumber": "89", "addr:postcode": "13629", "addr:street": "Nonnendammallee", "amenity": "ice_cream", "cuisine": "ice_cream", "delivery": "no", "name": "Da Mauro", "outdoor_seating": "yes", "takeaway": "yes", "wheelchair": "yes"}}, {"type": "node", "id": 1420714926, "lat": 52.4643463, "lon": 13.314186, "tags": {"addr:city": "Berlin", "addr:housenumber": "17", "addr:postcode": "12163", "addr:street": "Forststraße", "addr:suburb": "Steglitz", "alt_name": "Eis-Fee", "amenity": "ice_cream", "contact:mobile": "+49 1578 7339303", "contact:website": "https://www.eisfee.eu/", "cuisine": "ice_cream", "delivery:covid19": "no", "indoor_seating": "yes", "name": "Eisfee", "note": "wheelchair war laut eines Doppeleintrags 1x \"no\", 1x \"yes\", deshalb erstmal die wheelchair-Angabe entfernt", "opening_hours": "Mo-Sa 13:00-17:30; Su 12:00-17:30", "opening_hours:covid19": "Mo-Fr 15:00-19:00; Sa,Su 14:00-19:00", "outdoor_seating": "yes", "takeaway:covid19": "yes", "wheelchair": "yes"}}, {"type": "node", "id": 1435425821, "lat": 52.3713188, "lon": 13.1352948, "tags": {"addr:city": "Potsdam", "addr:country": "DE", "addr:housenumber": "1-10", "addr:postcode": "14480", "addr:street": "Nuthestraße", "addr:suburb": "Drewitz", "amenity": "ice_cream", "contact:phone": "+49 331 626 1615", "name": "Fantasia del Gelato", "opening_hours": "Mo-Th 10:00-20:00; Fr 10:00-21:00; Sa 09:00-21:00; PH,Su off", "wheelchair": "yes"}}, {"type": "node", "id": 1544188668, "lat": 52.5474135, "lon": 13.411646, "tags": {"addr:city": "Berlin", "addr:country": "DE", "addr:housenumber": "26", "addr:postcode": "10437", "addr:street": "Gleimstraße", "addr:suburb": "Prenzlauer Berg", "amenity": "ice_cream", "description": "fresh vegan ice rolls", "diet:vegan": "yes", "name": "Scrolls Garden", "outdoor_seating": "yes", "toilets": "no", "wheelchair": "no"}}, {"type": "node", "id": 1579564854, "lat": 52.5267288, "lon": 13.3372932, "tags": {"addr:city": "Berlin", "addr:country": "DE", "addr:housenumber": "35A", "addr:postcode": "10551", "addr:street": "Turmstraße", "addr:suburb": "Moabit", "amenity": "ice_cream", "check_date:opening_hours": "2023-04-21", "cuisine": "ice_cream", "name": "Gelateria Da Gianni", "opening_hours:signed": "no", "payment:credit_cards": "no", "payment:debit_cards": "no", "wheelchair": "yes"}}, {"type": "node", "id": 1595959825, "lat": 52.4554574, "lon": 13.5033722, "tags": {"addr:city": "Berlin", "addr:country": "DE", "addr:housenumber": "169", "addr:postcode": "12487", "addr:street": "Südostallee", "addr:suburb": "Johannisthal", "amenity": "ice_cream", "brand": "Demeter", "contact:website": "http://www.bioeisdiele.de/", "name": "BioEisdiele", "organic": "only"}}, {"type": "node", "id": 1643139873, "lat": 52.561866, "lon": 13.7233967, "tags": {"addr:city": "Altlandsberg", "addr:country": "DE", "addr:housenumber": "14", "addr:postcode": "15345", "addr:street": "Berliner Allee", "amenity": "ice_cream", "entrance": "main", "internet_access": "no", "name": "Eisdiele", "opening_hours": "We-Su 12:00-18:00", "operator": "Peter Chladek", "outdoor_seating": "yes", "phone": "+49 3343860381", "takeaway": "yes", "toilets:wheelchair": "no", "website": "http://www.eisdiele-altlandsberg.de", "wheelchair": "no"}}, {"type": "node", "id": 1655132781, "lat": 52.4379767, "lon": 13.2712876, "tags": {"amenity": "ice_cream", "check_date": "2023-09-24", "name": "Eiscafe Frech"}}, {"type": "node", "id": 1665206595, "lat": 52.506386, "lon": 13.3089127, "tags": {"addr:city": "Berlin", "addr:country": "DE", "addr:housenumber": "117a", "addr:postcode": "10627", "addr:street": "Kantstraße", "addr:suburb": "Charlottenburg", "amenity": "ice_cream", "name": "Eissalon Fiore di ciliegio", "wheelchair": "limited"}}, {"type": "node", "id": 1704338330, "lat": 52.3601651, "lon": 13.4095569, "tags": {"addr:city": "Blankenfelde-Mahlow", "addr:housenumber": "1", "addr:postcode": "15831", "addr:street": "Am Bahnhof", "addr:suburb": "Mahlow", "amenity": "ice_cream", "check_date:opening_hours": "2023-07-10", "name": "Eiscafe Athene", "opening_hours": "Mo-Su 11:00-19:00", "website": "https://eiscafeathene-mahlow.de/", "wheelchair": "limited"}}, {"type": "node", "id": 1710136143, "lat": 52.5883744, "lon": 13.2786473, "tags": {"addr:city": "Berlin", "addr:country": "DE", "addr:housenumber": "27", "addr:postcode": "13507", "addr:street": "Alt-Tegel", "addr:suburb": "Tegel", "amenity": "ice_cream", "indoor_seating": "yes", "name": "La Donna", "opening_hours": "Tu-Fr 09:30-18:30; Sa,Su 09:00-18:30", "outdoor_seating": "yes", "wheelchair": "limited"}}, {"type": "node", "id": 1773561652, "lat": 52.4636145, "lon": 13.4843935, "tags": {"addr:city": "Berlin", "addr:country": "DE", "addr:housenumber": "74", "addr:postcode": "12437", "addr:street": "Baumschulenstraße", "addr:suburb": "Baumschulenweg", "amenity": "ice_cream", "fixme": "Website down, existiert der Laden noch?", "indoor_seating": "yes", "name": "eiscafé MOINMOIN", "opening_hours": "Mo-Su 12:00-19:00", "outdoor_seating": "yes", "wheelchair": "no"}}, {"type": "node", "id": 1839787343, "lat": 52.5232348, "lon": 13.3793711, "tags": {"addr:city": "Berlin", "addr:country": "DE", "addr:housenumber": "14", "addr:postcode": "10117", "addr:street": "Luisenstraße", "addr:suburb": "Mitte", "amenity": "ice_cream", "check_date:opening_hours": "2023-03-03", "contact:phone": "+49 30 26299072", "contact:website": "https://www.der-eisladen.de/", "description": "Eis aus eigener Herstellung; Eis aus Bio-Milch nach DE-ÖKO-030", "indoor_seating": "yes", "internet_access:wlan": "no", "name": "Der Eisladen", "opening_hours": "Feb-Dec Mo-Fr 11:00-17:00", "outdoor_seating": "yes", "payment:cash": "yes", "payment:credit_cards": "no", "takeaway": "yes", "wheelchair": "no", "wheelchair:description": "3 Stufen am Eingang"}}, {"type": "node", "id": 1846030173, "lat": 52.5048146, "lon": 13.4776526, "tags": {"addr:city": "Berlin", "addr:country": "DE", "addr:housenumber": "15", "addr:postcode": "10317", "addr:street": "Kaskelstraße", "addr:suburb": "Rummelsburg", "amenity": "ice_cream", "indoor_seating": "yes", "name": "SchokoLadenEis", "opening_hours": "Mo-Su 12:00+", "organic": "only", "outdoor_seating": "yes", "smoking": "no", "wheelchair": "no"}}, {"type": "node", "id": 1850625817, "lat": 52.4872163, "lon": 13.3535138, "tags": {"addr:city": "Berlin", "addr:country": "DE", "addr:housenumber": "24", "addr:postcode": "10823", "addr:street": "Belziger Straße", "addr:suburb": "Schöneberg", "amenity": "ice_cream", "contact:phone": "+49 30 78954731", "contact:website": "https://www.vanille-marille.de/", "cuisine": "ice_cream", "diet:vegan": "yes", "indoor_seating": "no", "name": "Vanille & Marille", "opening_hours": "Mar-Oct: 12:00-20:00", "outdoor_seating": "no", "takeaway": "only", "wheelchair": "no"}}, {"type": "node", "id": 1950643808, "lat": 52.6318563, "lon": 13.2892921, "tags": {"addr:city": "Berlin", "addr:housenumber": "7", "addr:postcode": "13465", "addr:street": "Welfenallee", "amenity": "ice_cream", "check_date:opening_hours": "2023-06-15", "delivery": "no", "drive_through": "no", "indoor_seating": "yes", "internet_access": "no", "name": "Dolce Vita", "opening_hours": "10:00-19:00", "outdoor_seating": "yes", "smoking": "outside", "wheelchair": "yes"}}, {"type": "node", "id": 1965271022, "lat": 52.4845749, "lon": 13.4278083, "tags": {"amenity": "ice_cream", "indoor_seating": "yes", "name": "Prizreni", "outdoor_seating": "yes"}}, {"type": "node", "id": 2018810746, "lat": 52.4938875, "lon": 13.4212355, "tags": {"addr:city": "Berlin", "addr:housenumber": "9", "addr:postcode": "10967", "addr:street": "Kottbusser Damm", "amenity": "ice_cream", "name": "Waffle 36", "opening_hours": "Sa-Th 14:00-23:00; Fr 14:00-24:00"}}, {"type": "node", "id": 2033283081, "lat": 52.5242166, "lon": 13.4021071, "tags": {"addr:city": "Berlin", "addr:country": "DE", "addr:housename": "Hackesche Höfe, Hof 1", "addr:housenumber": "40-41", "addr:postcode": "10178", "addr:street": "Rosenthaler Straße", "addr:suburb": "Mitte", "amenity": "ice_cream", "name": "Canal", "website": "https://www.canal.berlin/", "wheelchair": "yes"}}, {"type": "node", "id": 2136186734, "lat": 52.5435849, "lon": 13.5713443, "tags": {"addr:city": "Berlin", "addr:country": "DE", "addr:housenumber": "146", "addr:postcode": "12685", "addr:street": "Blumberger Damm", "addr:suburb": "Marzahn", "amenity": "ice_cream", "cuisine": "ice_cream", "name": "Jannys Eis", "opening_hours": "Tu-Fr 14:00-17:00; PH,Sa,Su 13:00-17:00", "source": "Geoportal Berlin / Hauskoordinaten", "website": "https://www.jannys-eis.com/", "wheelchair": "yes"}}, {"type": "node", "id": 2140736759, "lat": 52.5407603, "lon": 13.4059926, "tags": {"addr:city": "Berlin", "addr:country": "DE", "addr:housenumber": "4", "addr:postcode": "10437", "addr:street": "Eberswalder Straße", "addr:suburb": "Prenzlauer Berg", "amenity": "ice_cream", "name": "Pingolino"}}, {"type": "node", "id": 2206272353, "lat": 52.4195163, "lon": 13.4936564, "tags": {"amenity": "ice_cream", "name": "Da Dalt", "toilets:wheelchair": "no", "wheelchair": "yes"}}, {"type": "node", "id": 2293986337, "lat": 52.3654085, "lon": 13.0934757, "tags": {"addr:city": "Potsdam", "addr:country": "DE", "addr:housenumber": "1", "addr:postcode": "14478", "addr:street": "Am Moosfenn", "amenity": "ice_cream", "contact:facebook": "https://www.facebook.com/JannysEis", "contact:website": "https://www.jannys-eis.com/", "name": "Jannys Eis", "wheelchair": "yes"}}, {"type": "node", "id": 2300052110, "lat": 52.5500685, "lon": 13.3639425, "tags": {"addr:city": "Berlin", "addr:country": "DE", "addr:housenumber": "11", "addr:postcode": "13347", "addr:street": "Maxstraße", "addr:suburb": "Wedding", "air_conditioning": "no", "amenity": "ice_cream", "diet:vegan": "yes", "indoor_seating": "no", "name": "Spoonful Berlin", "opening_hours": "Mo-Th 13:00-19:00; Fr-Su 13:00-19:30", "outdoor_seating": "yes", "phone": "+49 175 5751935", "takeaway": "yes", "website": "https://www.eismanufaktur-berlin.de/", "wheelchair": "limited"}}, {"type": "node", "id": 2309384558, "lat": 52.5304151, "lon": 13.3870778, "tags": {"addr:city": "Berlin", "addr:country": "DE", "addr:housenumber": "21", "addr:postcode": "10115", "addr:street": "Schlegelstraße", "addr:suburb": "Mitte", "amenity": "ice_cream", "cuisine": "ice_cream", "delivery": "no", "diet:vegan": "yes", "indoor_seating": "no", "name": "Eismieze", "opening_hours": "Mo-Su 12:00+", "outdoor_seating": "yes", "wheelchair": "no", "wheelchair:description": "3 Stufen am Eingang"}}, {"type": "node", "id": 2328402490, "lat": 52.4127058, "lon": 13.572316, "tags": {"addr:city": "Berlin", "addr:housenumber": "1", "addr:postcode": "12524", "addr:street": "Bruno-Taut-Straße", "addr:suburb": "Bohnsdorf", "amenity": "ice_cream", "name": "Mokka-Milch-Eiscafé", "opening_hours": "Mo-Sa 10:00-20:00; Mar-Oct Su 12:00-20:00", "outdoor_seating": "yes", "phone": "+49-30-67891499", "wheelchair": "yes"}}, {"type": "node", "id": 2335250353, "lat": 52.4882098, "lon": 13.4274772, "tags": {"addr:city": "Berlin", "addr:country": "DE", "addr:housenumber": "6", "addr:postcode": "12047", "addr:street": "Weserstraße", "addr:suburb": "Neukölln", "amenity": "ice_cream", "contact:phone": "+49 175 5025985", "contact:website": "https://www.eismanufaktur-berlin.de/", "email": "service@spoonfulberlin.de", "name": "Eismanufaktur Spoonful", "opening_hours": "12:00-21:00; 21:00+ \"evt noch geöffnet\"; Nov-Feb closed \"geschlossen, alternative Nutzung\"", "wheelchair": "no"}}, {"type": "node", "id": 2400918123, "lat": 52.4914615, "lon": 13.4200401, "tags": {"addr:city": "Berlin", "addr:housenumber": "11", "addr:postcode": "10967", "addr:street": "Schönleinstraße", "amenity": "ice_cream"}}, {"type": "node", "id": 2438932665, "lat": 52.5082288, "lon": 13.4594493, "tags": {"addr:city": "Berlin", "addr:country": "DE", "addr:housenumber": "33a", "addr:postcode": "10245", "addr:street": "Gärtnerstraße", "addr:suburb": "Friedrichshain", "amenity": "ice_cream", "contact:facebook": "https://www.facebook.com/Eismanufaktur-134687816578281", "contact:instagram": "https://www.instagram.com/eismanufakturberlin/", "contact:phone": "+49 160 97670801", "contact:website": "https://www.eismanufaktur-berlin.de/", "cuisine": "ice_cream", "diet:vegan": "yes", "indoor_seating": "no", "name": "Spoonful", "opening_hours": "Mo-Su 12:30-18:00", "outdoor_seating": "yes", "smoking": "no", "toilets:wheelchair": "no", "wheelchair": "yes"}}, {"type": "node", "id": 2445454962, "lat": 52.4851165, "lon": 13.3201033, "tags": {"addr:city": "Berlin", "addr:country": "DE", "addr:housenumber": "12", "addr:postcode": "10713", "addr:street": "Blissestraße", "addr:suburb": "Wilmersdorf", "air_conditioning": "no", "amenity": "ice_cream", "contact:email": "info@eiscafe-monheim.berlin", "indoor_seating": "yes", "name": "Eiscafé Monheim", "opening_hours": "Mo-Su, PH 11:00-19:00", "outdoor_seating": "yes", "phone": "+49 30 33948944", "website": "https://eiscafe-monheim.berlin/", "wheelchair": "no"}}, {"type": "node", "id": 2726147775, "lat": 52.4585977, "lon": 13.3813245, "tags": {"addr:city": "Berlin", "addr:country": "DE", "addr:housenumber": "22", "addr:postcode": "12103", "addr:street": "Friedrich-Wilhelm-Straße", "addr:suburb": "Tempelhof", "amenity": "ice_cream", "check_date": "2023-08-05", "name": "vanille & marille Eismanufaktur", "opening_hours": "Mar 15-Oct 15 Mo-Su 12:00-20:00", "phone": "+49 30 78954731", "website": "https://www.vanille-marille.de/", "wheelchair": "limited"}}, {"type": "node", "id": 2756763433, "lat": 52.5644458, "lon": 13.392676, "tags": {"addr:city": "Berlin", "addr:country": "DE", "addr:housenumber": "24", "addr:postcode": "13359", "addr:street": "Wollankstraße", "addr:suburb": "Gesundbrunnen", "amenity": "ice_cream", "indoor_seating": "yes", "name": "Brivido Dolce", "outdoor_seating": "yes", "wheelchair": "no"}}, {"type": "node", "id": 2796753231, "lat": 52.5237256, "lon": 13.4015321, "tags": {"amenity": "ice_cream", "brand": "Amorino", "brand:wikidata": "Q2843884", "brand:wikipedia": "fr:Amorino", "contact:facebook": "AmorinoGelato", "contact:instagram": "amorinogelato", "contact:linkedin": "amorinogelato", "contact:phone": "+49 30 27596517", "cuisine": "ice_cream", "ice_cream_counter": "yes", "name": "Amorino", "website": "https://www.amorino.com/de/news/seite-boutique/Berlin", "wheelchair": "limited"}}, {"type": "node", "id": 2824823225, "lat": 52.539786, "lon": 13.2058596, "tags": {"amenity": "ice_cream", "name": "Da Dalt", "payment:cash": "yes", "payment:credit_cards": "no", "payment:cryptocurrencies": "no", "payment:debit_cards": "no", "payment:electronic_purses": "no", "wheelchair": "yes"}}, {"type": "node", "id": 2852739952, "lat": 52.4929606, "lon": 13.4211946, "tags": {"addr:city": "Berlin", "addr:country": "DE", "addr:housenumber": "27", "addr:postcode": "10967", "addr:street": "Böckhstraße", "addr:suburb": "Kreuzberg", "amenity": "ice_cream", "contact:phone": "+49306929670", "name": "Lido Eis", "wheelchair": "no"}}, {"type": "node", "id": 2914461801, "lat": 52.4927568, "lon": 13.3829946, "tags": {"addr:housenumber": "28d", "addr:street": "Großbeerenstraße", "amenity": "ice_cream", "name": "Schokolottchen", "wheelchair": "no"}}, {"type": "node", "id": 2930771507, "lat": 52.5471962, "lon": 13.4158666, "tags": {"addr:city": "Berlin", "addr:country": "DE", "addr:housenumber": "7", "addr:postcode": "10437", "addr:street": "Stargarder Straße", "addr:suburb": "Prenzlauer Berg", "amenity": "ice_cream", "indoor_seating": "no", "name": "Kleine Eiszeit", "opening_hours": "12:00+", "outdoor_seating": "yes", "wheelchair": "no"}}, {"type": "node", "id": 2936798208, "lat": 52.6159525, "lon": 13.3070449, "tags": {"addr:city": "Berlin", "addr:country": "DE", "addr:housenumber": "28", "addr:postcode": "13467", "addr:street": "Fellbacher Straße", "addr:suburb": "Hermsdorf", "amenity": "ice_cream", "name": "Flamingo", "source": "Geoportal Berlin / Hauskoordinaten"}}, {"type": "node", "id": 2947930990, "lat": 52.4772145, "lon": 13.4212019, "tags": {"addr:city": "Berlin", "addr:country": "DE", "addr:housenumber": "6", "addr:postcode": "12049", "addr:street": "Herrfurthplatz", "amenity": "ice_cream", "contact:email": "hello@moseisley-gelateria.de", "contact:facebook": "https://www.facebook.com/GelateriaMosEisley/", "contact:phone": "+49 30 64498900", "contact:website": "http://www.moseisley-gelateria.de", "diet:lactose_free": "yes", "diet:vegan": "yes", "indoor_seating": "yes", "name": "Mos Eisley", "opening_hours": "Mo-Su 12:00-20:00", "outdoor_seating": "yes", "smoking": "no", "start_date": "2013-05", "toilets:wheelchair": "no", "wheelchair": "yes", "wheelchair:description": "Stufenloser Eingang, aber keine Kundentoilette vorhanden"}}, {"type": "node", "id": 2953557790, "lat": 52.5642818, "lon": 13.3643755, "tags": {"amenity": "ice_cream", "indoor_seating": "yes", "name": "Il Gelato Italiano", "outdoor_seating": "yes"}}, {"type": "node", "id": 2969819044, "lat": 52.5611805, "lon": 13.2080797, "tags": {"amenity": "ice_cream", "disused:name": "Rösler", "indoor_seating": "yes", "name": "Mr. Ice Cream", "opening_hours": "Mo-Sa 16:00-22:00; Su 13:00-22:00", "outdoor_seating": "no", "toilets:wheelchair": "no", "wheelchair": "yes"}}, {"type": "node", "id": 3018856733, "lat": 52.441013, "lon": 13.6880091, "tags": {"addr:city": "Berlin", "addr:housenumber": "26", "addr:postcode": "12589", "addr:street": "Fürstenwalder Allee", "addr:suburb": "Rahnsdorf", "amenity": "ice_cream", "name": "Eislounge \"Sonnenseite\"", "source": "Dakota 20"}}, {"type": "node", "id": 3054792654, "lat": 52.3931166, "lon": 13.2706288, "tags": {"addr:city": "Teltow", "addr:housenumber": "10", "addr:postcode": "14513", "addr:street": "Kanada-Allee", "amenity": "ice_cream", "indoor_seating": "yes", "name": "Dolci Eis-Lounge", "opening_hours": "May-Aug Tu-Fr 14:00-19:00; May-Aug Sa 13:00-19:00; May-Aug PH,Su 12:00-19:00; Feb-Apr Tu-Fr 15:00-18:00; Feb-Apr Sa 13:00-18:00; Feb-Apr PH,Su 12:00-18:00; Sep-Nov Tu-Fr 15:00-18:00; Sep-Nov Sa 14:00-18:00; Sep-Nov PH,Su 13:00-18:00", "outdoor_seating": "yes", "phone": "+49 3328 444 0450", "toilets:wheelchair": "no", "website": "https://www.dolcieis.de", "wheelchair": "yes"}}, {"type": "node", "id": 3055877735, "lat": 52.5468535, "lon": 13.4177126, "tags": {"addr:city": "Berlin", "addr:country": "DE", "addr:housenumber": "72", "addr:postcode": "10437", "addr:street": "Stargarder Straße", "addr:suburb": "Prenzlauer Berg", "amenity": "ice_cream", "delivery": "no", "diet:vegan": "yes", "indoor_seating": "no", "name": "Hokey Pokey", "opening_hours": "Mo-Su 12:00-22:00", "outdoor_seating": "yes", "shop": "ice_cream", "smoking": "yes", "surveillance": "indoor", "takeaway": "yes", "toilets:wheelchair": "no", "website": "https://www.hokey-pokey.de/", "wheelchair": "limited", "wheelchair:description": "There is a step but there is a ramp that is available."}}, {"type": "node", "id": 3150248629, "lat": 52.6185146, "lon": 13.4869412, "tags": {"addr:city": "Berlin", "addr:country": "DE", "addr:housenumber": "46", "addr:postcode": "13125", "addr:street": "Achillesstraße", "addr:suburb": "Karow", "amenity": "ice_cream", "contact:phone": "+4930 94633931", "description": "Italienische Eisdiele", "diet:vegan": "yes", "indoor_seating": "no", "level": "0", "name": "Il Buon Gelato Marcon", "opening_hours": "Mo-Sa 10:30-20:00; Su 11:00-20:00", "outdoor_seating": "pedestrian_zone", "smoking": "outside", "website": "https://ilbuongelato.business.site", "wheelchair": "yes"}}, {"type": "node", "id": 3161789870, "lat": 52.4789989, "lon": 13.3439518, "tags": {"addr:city": "Berlin", "addr:country": "DE", "addr:housenumber": "4", "addr:postcode": "10827", "addr:street": "Innsbrucker Platz", "addr:suburb": "Schöneberg", "amenity": "ice_cream", "check_date:opening_hours": "2022-07-24", "indoor_seating": "yes", "name": "Italy Eis", "opening_hours:signed": "no", "outdoor_seating": "yes"}}, {"type": "node", "id": 3265611317, "lat": 52.5509189, "lon": 13.4125006, "tags": {"addr:city": "Berlin", "addr:country": "DE", "addr:housenumber": "4", "addr:postcode": "10439", "addr:street": "Schivelbeiner Straße", "addr:suburb": "Prenzlauer Berg", "amenity": "ice_cream", "disused:laundry_service": "yes", "mobile": "+49 173 9411672", "name": "Eiscafé Scutari", "opening_hours": "Mo-Su 11:00-20:00", "outdoor_seating": "yes", "wheelchair": "yes"}}, {"type": "node", "id": 3313677764, "lat": 52.5307936, "lon": 13.6309573, "tags": {"addr:city": "Hoppegarten", "addr:housenumber": "4", "addr:postcode": "15366", "addr:street": "Fichtengrund", "amenity": "ice_cream", "name": "Emba Emilia", "opening_hours": "Mo-Su 12:00-18:00", "website": "https://www.emba-emilia.com/", "wheelchair": "yes"}}, {"type": "node", "id": 3343103839, "lat": 52.4904979, "lon": 13.3533896, "tags": {"addr:city": "Berlin", "addr:housenumber": "3", "addr:postcode": "10781", "addr:street": "Goltzstraße", "amenity": "ice_cream", "contact:email": "hello@jonesicecream.com", "contact:phone": "+49 171 8335780", "contact:website": "https://www.jonesicecream.com/", "cuisine": "ice_cream", "indoor_seating": "yes", "name": "Jones Ice Cream", "opening_hours": "Mo-Su 12:00-22:00", "outdoor_seating": "no", "start_date": "2016-07-09", "wheelchair": "no"}}, {"type": "node", "id": 3392131020, "lat": 52.6560267, "lon": 13.4461606, "tags": {"addr:city": "Wandlitz", "addr:housenumber": "38", "addr:postcode": "16348", "addr:street": "Schönerlinder Chaussee", "amenity": "ice_cream", "cuisine": "ice_cream", "delivery": "no", "name": "Conny´s Eiscafe", "outdoor_seating": "yes", "phone": "+49 30 9495045", "website": "http://connys-eiscafe.de/", "wheelchair": "limited"}}, {"type": "node", "id": 3474035725, "lat": 52.5125845, "lon": 13.3048601, "tags": {"amenity": "ice_cream", "check_date": "2023-04-09", "name": "Il piccolo Castello del Gelato", "outdoor_seating": "yes", "wheelchair": "yes"}}, {"type": "node", "id": 3475661392, "lat": 52.5529655, "lon": 13.4495406, "tags": {"addr:city": "Berlin", "addr:housenumber": "1", "addr:postcode": "13086", "addr:street": "Schönstraße", "amenity": "ice_cream", "diet:vegan": "yes", "name": "Eisspatz", "opening_hours": "Mo-Th 06:00-18:00; Fr 06:00-17:00; Sa,Su 07:00-12:30", "toilets:wheelchair": "no", "wheelchair": "no"}}, {"type": "node", "id": 3485840223, "lat": 52.4539873, "lon": 13.3232663, "tags": {"addr:city": "Berlin", "addr:country": "DE", "addr:housenumber": "92", "addr:postcode": "12165", "addr:street": "Leydenallee", "addr:suburb": "Steglitz", "amenity": "ice_cream", "check_date": "2023-10-02", "contact:facebook": "https://www.facebook.com/vanillemarille/", "contact:instagram": "https://www.instagram.com/vanille_und_marille/", "contact:phone": "+49 30 78954731", "contact:website": "http://www.vanille-marille.de", "diet:vegan": "yes", "name": "vanille & marille Eismanufaktur", "opening_hours": "Mar-Oct 12:00-20:00", "outdoor_seating": "yes", "wheelchair": "no"}}, {"type": "node", "id": 3525559346, "lat": 52.4551069, "lon": 13.5147481, "tags": {"addr:city": "Berlin", "addr:country": "DE", "addr:housenumber": "118", "addr:postcode": "12439", "addr:street": "Schnellerstraße", "amenity": "ice_cream", "name": "Eiskultur-Berlin", "opening_hours": "Mar, Apr, Oct: 12:00-18:00; May-Sep: 11:00-20:00; Nov-Feb off", "phone": "+491712894003", "website": "https://eiskultur-berlin.de/", "wheelchair": "yes"}}, {"type": "node", "id": 3530856517, "lat": 52.5043673, "lon": 13.3219025, "tags": {"amenity": "ice_cream", "name": "Lottas Torten"}}, {"type": "node", "id": 3646164022, "lat": 52.3917698, "lon": 13.0934882, "tags": {"addr:city": "Potsdam", "addr:country": "DE", "addr:housenumber": "42", "addr:postcode": "14482", "addr:street": "Rudolf-Breitscheid-Straße", "addr:suburb": "Babelsberg", "air_conditioning": "no", "amenity": "ice_cream", "contact:facebook": "https://www.facebook.com/dieeisfrau", "contact:phone": "+49 331 235 47276", "cuisine": "ice_cream", "diet:vegan": "yes", "indoor_seating": "yes", "name": "Die Eisfrau", "opening_hours": "Tu-Th 12:00-18:00; Fr 12:00-19:00; Sa-Su 11:00-19:00", "outdoor_seating": "yes", "smoking": "no", "toilets:wheelchair": "no", "wheelchair": "no"}}, {"type": "node", "id": 3670161819, "lat": 52.429866, "lon": 13.3322474, "tags": {"addr:city": "Berlin", "addr:country": "DE", "addr:postcode": "12209", "addr:street": "Lankwitzer Straße", "addr:suburb": "Lichterfelde", "amenity": "ice_cream", "diet:vegetarian": "yes", "name": "Eis da Gianni", "opening_hours": "10:00-18:00", "outdoor_seating": "yes", "wheelchair": "yes"}}, {"type": "node", "id": 3676000349, "lat": 52.5031852, "lon": 13.3297086, "tags": {"addr:city": "Berlin", "addr:country": "DE", "addr:housenumber": "224", "addr:postcode": "10719", "addr:street": "Kurfürstendamm", "addr:suburb": "Charlottenburg", "amenity": "ice_cream", "brand": "Häagen-Dazs", "brand:wikidata": "Q1143333", "brand:wikipedia": "en:Häagen-Dazs", "changing_table": "no", "ice_cream_counter": "yes", "indoor_seating": "no", "name": "Häagen-Dazs", "opening_hours": "Mo-Su 12:00-23:00", "outdoor_seating": "yes", "postal_code": "10719", "smoking": "no", "wheelchair": "no"}}, {"type": "node", "id": 3736896887, "lat": 52.4933445, "lon": 13.4182107, "tags": {"addr:city": "Berlin", "addr:country": "DE", "addr:housenumber": "80", "addr:postcode": "10967", "addr:street": "Graefestraße", "addr:suburb": "Kreuzberg", "amenity": "ice_cream", "contact:phone": "+49 30 176 83157435", "contact:website": "http://leckomio-gelateria.de", "cuisine": "ice_cream", "diet:vegan": "yes", "name": "LeckoMio", "opening_hours": "Tu-Su,PH 13:00-21:00", "outdoor_seating": "yes", "wheelchair": "no"}}, {"type": "node", "id": 3751973159, "lat": 52.4149389, "lon": 13.5822737, "tags": {"addr:city": "Berlin", "addr:country": "DE", "addr:housenumber": "2", "addr:postcode": "12527", "addr:street": "Büxensteinallee", "addr:suburb": "Grünau", "amenity": "ice_cream", "cuisine": "ice_cream", "name": "Eiskonditorei Anett", "opening_hours": "Mo-Su 12:00-18:00; We off; Nov-Feb off", "outdoor_seating": "yes", "phone": "+49-30-6743293", "wheelchair": "limited"}}, {"type": "node", "id": 3755411239, "lat": 52.451371, "lon": 13.3363886, "tags": {"access:covid19": "no", "addr:city": "Berlin", "addr:country": "DE", "addr:housenumber": "5", "addr:postcode": "12169", "addr:street": "Steglitzer Damm", "addr:suburb": "Steglitz", "amenity": "ice_cream", "check_date": "2023-09-16", "cuisine": "ice_cream;bubble_tea", "delivery:covid19": "no", "diet:vegetarian": "yes", "name": "Kunterbunt", "opening_hours": "Mo-Su 14:00-20:30", "website": "https://www.eiscafe-kunterbunt.de", "wheelchair": "no"}}, {"type": "node", "id": 3755816789, "lat": 52.4829803, "lon": 13.3815199, "tags": {"amenity": "ice_cream", "check_date": "2021-08-04", "description": "Eiscafé, geöffnet \"ab 12:00 Uhr oder früher\"", "name": "Eisfee"}}, {"type": "node", "id": 3755992395, "lat": 52.4316788, "lon": 13.3382322, "tags": {"amenity": "ice_cream"}}, {"type": "node", "id": 3758497646, "lat": 52.4313428, "lon": 13.3460572, "tags": {"amenity": "ice_cream", "name": "Fior di Latte", "wheelchair": "no"}}, {"type": "node", "id": 3758502759, "lat": 52.4584272, "lon": 13.3845342, "tags": {"amenity": "ice_cream", "name": "Meyman", "wheelchair": "no"}}, {"type": "node", "id": 3758596090, "lat": 52.4641249, "lon": 13.3309606, "tags": {"addr:city": "Berlin", "addr:country": "DE", "addr:housenumber": "11", "addr:postcode": "12163", "addr:street": "Schöneberger Straße", "addr:suburb": "Steglitz", "amenity": "ice_cream", "contact:website": "http://www.henrysberlin.com/", "diet:vegan": "yes", "name": "Henrys", "opening_hours": "Jun 21-Sep 22 11:00-21:00; Mar 20-Jun 20,Sep 23-Dec 21 13:00-19:00", "outdoor_seating": "yes", "payment:credit_cards": "yes", "payment:debit_cards": "yes", "wheelchair": "no"}}, {"type": "node", "id": 3772667669, "lat": 52.5643769, "lon": 13.5061723, "tags": {"addr:city": "Berlin", "addr:housenumber": "1", "addr:postcode": "13051", "addr:street": "Prerower Platz", "amenity": "ice_cream", "level": "0", "name": "Eiskiosk", "wheelchair": "yes"}}, {"type": "node", "id": 3780851157, "lat": 52.507925, "lon": 13.4975918, "tags": {"addr:city": "Berlin", "addr:housenumber": "27", "addr:postcode": "10317", "addr:street": "Margaretenstraße", "amenity": "ice_cream", "delivery": "no", "indoor_seating": "yes", "name": "Eis Kaffee", "opening_hours": "Mo-Su 10:00-19:00", "outdoor_seating": "yes", "takeaway": "yes", "wheelchair": "limited"}}, {"type": "node", "id": 3782211408, "lat": 52.4896774, "lon": 13.3888993, "tags": {"addr:city": "Berlin", "addr:housenumber": "5", "addr:postcode": "10961", "addr:street": "Bergmannstraße", "addr:suburb": "Kreuzberg", "amenity": "ice_cream", "indoor_seating": "no", "name": "Eiskimo", "opening_hours": "May-Sep PH,Mo-Su 12:00-24:00+", "outdoor_seating": "yes", "website": "https://eiscafe-eiskimo.de/", "wheelchair": "yes"}}, {"type": "node", "id": 3826013973, "lat": 52.4984224, "lon": 13.3538454, "tags": {"addr:city": "Berlin", "addr:country": "DE", "addr:housenumber": "4", "addr:postcode": "10777", "addr:street": "Maaßenstraße", "addr:suburb": "Schöneberg", "amenity": "ice_cream", "name": "Caffè e Gelato", "outdoor_seating": "yes", "shop": "ice_cream", "wheelchair": "yes"}}, {"type": "node", "id": 3855567145, "lat": 52.4975688, "lon": 13.3616237, "tags": {"addr:city": "Berlin", "addr:country": "DE", "addr:housenumber": "144", "addr:postcode": "10783", "addr:street": "Potsdamer Straße", "addr:suburb": "Schöneberg", "amenity": "ice_cream", "indoor_seating": "yes", "name": "GioTU", "opening_hours": "Mo-Sa 13:00-20:00; Su 13:00-18:00", "outdoor_seating": "yes", "wheelchair": "no"}}, {"type": "node", "id": 3862835072, "lat": 52.5011928, "lon": 13.3077494, "tags": {"amenity": "ice_cream", "name": "Eis Schober", "shop": "ice_cream", "wheelchair": "no"}}, {"type": "node", "id": 3895256385, "lat": 52.5243114, "lon": 13.4081822, "tags": {"addr:city": "Berlin", "addr:country": "DE", "addr:housenumber": "11b", "addr:postcode": "10178", "addr:street": "Münzstraße", "addr:suburb": "Mitte", "amenity": "ice_cream", "check_date": "2023-06-28", "cuisine": "frozen_yogurt", "delivery": "no", "indoor_seating": "yes", "name": "Yoli", "opening_hours": "Mo-Sa 12:00-20:00; Su 13:00-20:00", "outdoor_seating": "yes", "payment:cash": "only", "website": "http://www.yoli-berlin.de/", "wheelchair": "no"}}, {"type": "node", "id": 3900932271, "lat": 52.537866, "lon": 13.4177261, "tags": {"amenity": "ice_cream", "check_date": "2023-04-13", "cuisine": "ice_cream", "name": "Annamaria", "opening_hours": "Mo-Su 12:00-20:00", "toilets:wheelchair": "no", "wheelchair": "limited"}}, {"type": "node", "id": 3902472793, "lat": 52.5289, "lon": 13.3974529, "tags": {"addr:city": "Berlin", "addr:housenumber": "174", "addr:postcode": "10115", "addr:street": "Ackerstraße", "amenity": "ice_cream", "cuisine": "ice_cream", "name": "Rosa Canina", "opening_hours": "Mo-Su 13:00+", "organic": "only", "outdoor_seating": "yes", "payment:cash": "yes", "takeaway": "yes", "toilets:wheelchair": "no", "website": "https://rosacanina.eu/", "wheelchair": "no", "wheelchair:description": "Accessible only outside"}}, {"type": "node", "id": 3937513962, "lat": 52.5310465, "lon": 13.4020928, "tags": {"addr:city": "Berlin", "addr:housenumber": "21", "addr:postcode": "10119", "addr:street": "Weinbergsweg", "amenity": "ice_cream", "contact:email": "suesse-suende@web.de", "contact:phone": "+49 163 2596058", "contact:website": "https://suesse-suende-eis.blogspot.com", "diet:vegan": "yes", "name": "Süße Sünde", "opening_hours": "Mo-Sa 13:00-22:00; Su 11:00-22:00", "wheelchair": "yes"}}, {"type": "node", "id": 3955630869, "lat": 52.4722979, "lon": 13.3364637, "tags": {"addr:city": "Berlin", "addr:country": "DE", "addr:housenumber": "80b", "addr:postcode": "12159", "addr:street": "Hauptstraße", "addr:suburb": "Friedenau", "amenity": "ice_cream", "name": "Kays Eis"}}, {"type": "node", "id": 3992174257, "lat": 52.5163559, "lon": 13.4985499, "tags": {"amenity": "ice_cream", "name": "Lecker Eis"}}, {"type": "node", "id": 4108072816, "lat": 52.5008179, "lon": 13.3707035, "tags": {"addr:city": "Berlin", "addr:housenumber": "14", "addr:postcode": "10785", "addr:street": "Flottwellstraße", "amenity": "ice_cream", "description": "Eisdiele", "name": "Eisdiele am Gleisdreieck", "opening_hours": "Mo-Su 13:00-20:00", "phone": "+49 177 2372271", "toilets:wheelchair": "no", "website": "https://wenndubravbist.business.site/", "wheelchair": "yes"}}, {"type": "node", "id": 4125128510, "lat": 52.4740804, "lon": 13.4426607, "tags": {"addr:city": "Berlin", "addr:country": "DE", "addr:housenumber": "17", "addr:postcode": "12043", "addr:street": "Karl-Marx-Platz", "addr:suburb": "Neukölln", "amenity": "ice_cream", "contact:phone": "+49 160 91318976", "contact:website": "https://www.eismanufaktur-berlin.de/", "email": "service@spoonfulberlin.de", "name": "Eismanufaktur Spoonful", "opening_hours": "Mar-Oct 12:00+; Nov-Feb closed", "wheelchair": "no"}}, {"type": "node", "id": 4155022039, "lat": 52.6311517, "lon": 13.3232153, "tags": {"amenity": "ice_cream", "cuisine": "ice_cream", "internet_access": "no", "name": "Eisrausch", "opening_hours": "Mo-Sa 10:00-18:00+; Su,PH 12:00-18:00+", "smoking": "no"}}, {"type": "node", "id": 4171763238, "lat": 52.5099105, "lon": 13.3797281, "tags": {"addr:city": "Berlin", "addr:housenumber": "12", "addr:postcode": "10117", "addr:street": "Leipziger Platz", "amenity": "ice_cream", "contact:website": "https://alteatro-eismanufaktur.berlin/eiscafes-restaurants/lp12-berlin-mitte/", "level": "1", "name": "Al Teatro", "toilets": "yes", "toilets:access": "customers", "wheelchair": "yes"}}, {"type": "node", "id": 4181014748, "lat": 52.4808335, "lon": 13.523395, "tags": {"amenity": "ice_cream", "diet:vegan": "no", "indoor_seating": "no", "name": "Prinzeneis", "opening_hours": "Apr-Sep Mo-Su 13:00-19:00", "outdoor_seating": "no", "takeaway": "only", "website": "https://www.eismanufaktur-prinzeneis.de/", "wheelchair": "yes"}}, {"type": "node", "id": 4219261193, "lat": 52.5202778, "lon": 13.3559201, "tags": {"amenity": "ice_cream", "name": "Flamingo Eis", "takeaway": "yes"}}, {"type": "node", "id": 4224268261, "lat": 52.5503082, "lon": 13.3527416, "tags": {"addr:city": "Berlin", "addr:country": "DE", "addr:housenumber": "41", "addr:postcode": "13353", "addr:street": "Müllerstraße", "addr:suburb": "Wedding", "amenity": "ice_cream", "name": "Mado"}}, {"type": "node", "id": 4250016570, "lat": 52.4285166, "lon": 13.3274713, "tags": {"addr:city": "Berlin", "addr:housenumber": "4", "addr:postcode": "12209", "addr:street": "Kranoldplatz", "amenity": "ice_cream", "indoor_seating": "yes", "name": "Lio Gelato", "opening_hours": "Mo-Su 11:00-20:00", "outdoor_seating": "yes", "website": "https://lio-gelato.de/"}}, {"type": "node", "id": 4261575771, "lat": 52.5286891, "lon": 13.4064078, "tags": {"addr:city": "Berlin", "addr:country": "DE", "addr:housenumber": "54", "addr:postcode": "10119", "addr:street": "Linienstraße", "addr:suburb": "Mitte", "amenity": "ice_cream", "diet:vegan": "no", "indoor_seating": "yes", "name": "Canal", "opening_hours": "Tu-Su 12:00-19:00", "outdoor_seating": "yes", "wheelchair": "no"}}, {"type": "node", "id": 4266662203, "lat": 52.5397083, "lon": 13.4061717, "tags": {"addr:city": "Berlin", "addr:housenumber": "38", "addr:postcode": "10435", "addr:street": "Oderberger Straße", "amenity": "ice_cream", "check_date": "2023-11-11", "indoor_seating": "no", "internet_access": "no", "name": "Hokey Pokey", "outdoor_seating": "no", "payment:cash": "yes", "payment:credit_cards": "yes", "payment:debit_cards": "yes", "payment:free": "yes", "takeaway": "only", "website": "https://www.hokey-pokey.de/"}}, {"type": "node", "id": 4283150546, "lat": 52.5069067, "lon": 13.3984353, "tags": {"addr:housenumber": "99", "addr:street": "Oranienstraße", "amenity": "ice_cream", "check_date": "2022-08-25", "diet:vegan": "yes", "indoor_seating": "yes", "internet_access": "no", "name": "Kavlak Eismanufaktur", "outdoor_seating": "yes", "payment:cards": "no", "payment:credit_cards": "no", "payment:debit_cards": "no", "toilets:wheelchair": "no", "wheelchair": "yes"}}, {"type": "node", "id": 4304351492, "lat": 52.5108588, "lon": 13.4583645, "tags": {"addr:city": "Berlin", "addr:housenumber": "17", "addr:postcode": "10245", "addr:street": "Gabriel-Max-Straße", "air_conditioning": "no", "amenity": "ice_cream", "contact:facebook": "https://www.facebook.com/balaram.eis/", "contact:phone": "+49 30 98364440", "contact:website": "http://www.balaram-eis.de", "diet:vegan": "only", "indoor_seating": "yes", "name": "Balaram", "opening_hours": "Sa-Th 13:00-19:00", "outdoor_seating": "yes", "wheelchair": "no"}}, {"type": "node", "id": 4307136694, "lat": 52.5386756, "lon": 13.4224826, "tags": {"addr:city": "Berlin", "addr:housenumber": "26", "addr:postcode": "10405", "addr:street": "Rykestraße", "amenity": "ice_cream", "contact:facebook": "EiskontorBerlin", "diet:vegan": "yes", "diet:vegetarian": "yes", "name": "Giannis Eis", "opening_hours": "Mo-Su 13:00-20:00", "wheelchair": "limited"}}, {"type": "node", "id": 4317555793, "lat": 52.5498235, "lon": 13.3886582, "tags": {"amenity": "ice_cream", "check_date": "2022-11-28", "indoor_seating": "yes", "level": "0", "name": "Gelati Eiscafe", "outdoor_seating": "no", "payment:cards": "no", "payment:credit_cards": "no", "payment:debit_cards": "no", "wheelchair": "yes"}}, {"type": "node", "id": 4346903425, "lat": 52.4926651, "lon": 13.3563712, "tags": {"addr:city": "Berlin", "addr:housenumber": "10", "addr:postcode": "10781", "addr:street": "Elßholzstraße", "amenity": "ice_cream", "name": "Berlin Homemade Icecream", "opening_hours": "Mo-Su 12:00-20:00"}}, {"type": "node", "id": 4363623295, "lat": 52.506921, "lon": 13.3040563, "tags": {"amenity": "ice_cream", "name": "Frida Eis", "wheelchair": "yes"}}, {"type": "node", "id": 4381298285, "lat": 52.479556, "lon": 13.4439199, "tags": {"amenity": "ice_cream", "name": "Eis Delfino", "opening_hours:signed": "no", "wheelchair": "no"}}, {"type": "node", "id": 4396230902, "lat": 52.5310776, "lon": 13.3867781, "tags": {"addr:housenumber": "13", "addr:street": "Eichendorffstraße", "amenity": "ice_cream", "indoor_seating": "yes", "name": "Plansche", "outdoor_seating": "yes", "wheelchair": "yes"}}, {"type": "node", "id": 4439295159, "lat": 52.4853812, "lon": 13.347578, "tags": {"addr:city": "Berlin", "addr:country": "DE", "addr:housenumber": "60", "addr:postcode": "10823", "addr:street": "Belziger Straße", "addr:suburb": "Schöneberg", "amenity": "ice_cream", "indoor_seating": "yes", "name": "La Dolce Vita", "opening_hours": "Mo-Su 10:00-22:00", "outdoor_seating": "yes", "wheelchair": "no"}}, {"type": "node", "id": 4452492201, "lat": 52.5274032, "lon": 13.3270284, "tags": {"addr:city": "Berlin", "addr:housenumber": "69", "addr:postcode": "10553", "addr:street": "Huttenstraße", "amenity": "ice_cream", "check_date": "2023-05-02", "cuisine": "ice_cream", "name": "El Reda sweets", "outdoor_seating": "yes", "wheelchair": "yes"}}, {"type": "node", "id": 4470109189, "lat": 52.4513127, "lon": 13.6240141, "tags": {"amenity": "ice_cream", "name": "esila eis"}}, {"type": "node", "id": 4665154495, "lat": 52.3868079, "lon": 13.4046923, "tags": {"amenity": "ice_cream", "name": "Eisdiele", "wheelchair": "no"}}, {"type": "node", "id": 4712176333, "lat": 52.4653676, "lon": 13.4865281, "tags": {"addr:city": "Berlin", "addr:country": "DE", "addr:housenumber": "88", "addr:postcode": "12437", "addr:street": "Baumschulenstraße", "addr:suburb": "Baumschulenweg", "amenity": "ice_cream", "name": "Ruffys Waffel"}}, {"type": "node", "id": 4716502089, "lat": 52.5336996, "lon": 13.4033432, "tags": {"addr:city": "Berlin", "addr:housenumber": "24", "addr:postcode": "10119", "addr:street": "Fehrbelliner Straße", "amenity": "ice_cream", "check_date:opening_hours": "2022-12-28", "cuisine": "ice_cream", "indoor_seating": "yes", "name": "Gelateria by la focacceria", "opening_hours:signed": "no", "outdoor_seating": "yes", "smoking": "outside", "takeaway": "yes", "wheelchair": "no"}}, {"type": "node", "id": 4801247071, "lat": 52.506682, "lon": 13.4694782, "tags": {"addr:city": "Berlin", "addr:country": "DE", "addr:housenumber": "71", "addr:postcode": "10245", "addr:street": "Boxhagener Straße", "addr:suburb": "Friedrichshain", "amenity": "ice_cream", "check_date:opening_hours": "2023-09-11", "diet:vegan": "only", "indoor_seating": "yes", "name": "Green Scoop", "opening_hours": "PH,Su-Th 13:00-22:00; Fr,Sa 13:00-23:00", "outdoor_seating": "yes", "smoking": "outside", "wheelchair": "no"}}, {"type": "node", "id": 4834609477, "lat": 52.5708897, "lon": 13.4079382, "tags": {"amenity": "ice_cream", "check_date": "2023-07-17", "indoor_seating": "yes", "name": "Jannys", "outdoor_seating": "yes", "takeaway": "yes", "wheelchair": "yes"}}, {"type": "node", "id": 4844156523, "lat": 52.5702021, "lon": 13.4964525, "tags": {"addr:city": "Berlin", "addr:housenumber": "24", "addr:postcode": "13051", "addr:street": "Ribnitzer Straße", "amenity": "ice_cream", "name": "Jannys Eis", "opening_hours": "Mo-Su 09:00-20:00", "wheelchair": "yes"}}, {"type": "node", "id": 4906036043, "lat": 52.4886883, "lon": 13.387785, "tags": {"addr:city": "Berlin", "addr:housenumber": "6", "addr:postcode": "10965", "addr:street": "Am Tempelhofer Berg", "amenity": "ice_cream", "delivery": "yes", "name": "Barletta-Eis GmbH", "opening_hours": "Mo-Fr 09:00-15:00; Sa 09:00-13:00", "outdoor_seating": "no", "website": "https://www.barletta-eis.de/", "wheelchair": "no"}}, {"type": "node", "id": 4929307956, "lat": 52.6195049, "lon": 13.3049424, "tags": {"addr:city": "Berlin", "addr:housenumber": "54", "addr:postcode": "13467", "addr:street": "Heinsestraße", "amenity": "ice_cream", "contact:facebook": "https://www.facebook.com/ItalEisFaldon/", "contact:phone": "+49 30 4045911", "contact:website": "https://ital-eis-faldon-deu.business.site/", "diet:halal": "no", "diet:kosher": "no", "diet:lactose_free": "yes", "diet:vegan": "yes", "diet:vegetarian": "yes", "indoor_seating": "no", "name": "ItalEis Faldon", "opening_hours": "Mo-Su 11:00-19:00", "outdoor_seating": "no", "takeaway": "only", "wheelchair": "yes"}}, {"type": "node", "id": 4948137827, "lat": 52.4912235, "lon": 13.4110844, "tags": {"addr:city": "Berlin", "addr:housenumber": "10", "addr:postcode": "10967", "addr:street": "Körtestraße", "amenity": "ice_cream", "check_date:opening_hours": "2023-09-02", "name": "Die Eismacher", "opening_hours": "Mo-Su 12:00-20:00", "opening_hours:signed": "no", "toilets:wheelchair": "no", "wheelchair": "limited"}}, {"type": "node", "id": 4970066224, "lat": 52.501877, "lon": 13.440799, "tags": {"addr:city": "Berlin", "addr:housenumber": "4", "addr:postcode": "10997", "addr:street": "Köpenicker Straße", "amenity": "ice_cream", "check_date": "2023-11-27", "name": "Zàgara", "toilets:wheelchair": "no", "wheelchair": "no"}}, {"type": "node", "id": 4970352421, "lat": 52.4985973, "lon": 13.4346598, "tags": {"addr:city": "Berlin", "addr:housenumber": "69", "addr:postcode": "10997", "addr:street": "Görlitzer Straße", "amenity": "ice_cream", "name": "Kokomo", "website": "https://www.instagram.com/kokomo.berlin", "wheelchair": "no"}}, {"type": "node", "id": 4972445020, "lat": 52.5111778, "lon": 13.4499505, "tags": {"addr:city": "Berlin", "addr:housenumber": "35", "addr:postcode": "10243", "addr:street": "Kopernikusstraße", "amenity": "ice_cream", "name": "Milas Eis", "outdoor_seating": "yes"}}, {"type": "node", "id": 4985572545, "lat": 52.4954747, "lon": 13.4201837, "tags": {"amenity": "ice_cream", "check_date:opening_hours": "2023-05-25", "cuisine": "ice_cream", "diet:halal": "no", "diet:vegan": "yes", "indoor_seating": "no", "name": "Eis Azzura", "opening_hours:signed": "no", "outdoor_seating": "yes", "smoking": "yes", "takeaway": "yes", "wheelchair": "yes"}}, {"type": "node", "id": 5003699413, "lat": 52.5361654, "lon": 13.4181886, "tags": {"amenity": "ice_cream", "name": "Cuffaro", "toilets:wheelchair": "no", "wheelchair": "yes"}}, {"type": "node", "id": 5016747821, "lat": 52.5202086, "lon": 13.3445875, "tags": {"addr:city": "Berlin", "addr:country": "DE", "addr:housenumber": "5", "addr:postcode": "10557", "addr:street": "Flensburger Straße", "addr:suburb": "Hansaviertel", "amenity": "ice_cream", "contact:facebook": "https://www.facebook.com/Eisteufelchen-1455170238060510/", "drink:coffee": "served", "indoor_seating": "yes", "name": "Eisteufelchen", "opening_hours": "Mo-Fr 11:30-19:00; Sa,Su 13:00-19:00", "outdoor_seating": "yes", "wheelchair": "yes"}}, {"type": "node", "id": 5031751086, "lat": 52.5526047, "lon": 13.3823354, "tags": {"amenity": "ice_cream", "check_date": "2023-07-16", "name": "Eis-Cafe", "outdoor_seating": "yes", "takeaway": "yes"}}, {"type": "node", "id": 5054068399, "lat": 52.4983652, "lon": 13.2906087, "tags": {"addr:city": "Berlin", "addr:country": "DE", "addr:housenumber": "4", "addr:postcode": "10711", "addr:street": "Georg-Wilhelm-Straße", "addr:suburb": "Halensee", "amenity": "ice_cream", "contact:facebook": "https://www.facebook.com/3GOLDberlin/", "diet:vegan": "yes", "name": "Scooby Doo", "opening_hours": "Mo-Su 12:00-19:00", "outdoor_seating": "yes", "payment:cash": "yes", "payment:coins": "yes"}}, {"type": "node", "id": 5064111016, "lat": 52.4923876, "lon": 13.427763, "tags": {"amenity": "ice_cream", "check_date:opening_hours": "2023-08-15", "cuisine": "ice_cream", "diet:vegan": "yes", "name": "Fräulein Frost", "opening_hours": "Mo-Su 12:00+", "outdoor_seating": "yes", "toilets:wheelchair": "no", "wheelchair": "limited", "wheelchair:description": "Rampe vorhanden"}}, {"type": "node", "id": 5107966821, "lat": 52.4732951, "lon": 13.4486312, "tags": {"addr:city": "Berlin", "addr:country": "DE", "addr:housenumber": "48", "addr:postcode": "12055", "addr:street": "Böhmische Straße", "addr:suburb": "Neukölln", "amenity": "ice_cream", "name": "Eis de Rix", "outdoor_seating": "no", "takeaway": "yes", "website": "http://eisderix.de/", "wheelchair": "limited", "wheelchair:description": "Nach mobiler Rampe fragen. Ask for mobile wheelchair ramp."}}, {"type": "node", "id": 5126384317, "lat": 52.5491379, "lon": 13.4243541, "tags": {"addr:city": "Berlin", "addr:housenumber": "64", "addr:postcode": "10439", "addr:street": "Erich-Weinert-Straße", "amenity": "ice_cream", "diet:vegan": "yes", "indoor_seating": "no", "name": "Lieblings-Eis am Humannplatz", "opening_hours": "Mar-Oct Mo-Su 13:00-19:00", "outdoor_seating": "yes", "payment:credit_cards": "yes", "payment:debit_cards": "yes", "smoking": "yes", "wheelchair": "limited"}}, {"type": "node", "id": 5126384318, "lat": 52.5499352, "lon": 13.4216782, "tags": {"addr:housenumber": "25", "addr:street": "Stahlheimer Straße", "amenity": "ice_cream", "diet:vegan": "yes", "indoor_seating": "no", "name": "Kult-Eis", "opening_hours": "Mo-Su 12:00-20:00", "outdoor_seating": "yes", "wheelchair": "limited"}}, {"type": "node", "id": 5141152693, "lat": 52.5051558, "lon": 13.4660296, "tags": {"addr:city": "Berlin", "addr:housenumber": "9", "addr:postcode": "10245", "addr:street": "Lenbachstraße", "amenity": "ice_cream", "check_date:opening_hours": "2023-01-06", "contact:facebook": "https://www.facebook.com/eiscaferoyal", "indoor_seating": "yes", "name": "Royal Eisladen", "opening_hours": "Mo-Fr 14:00-21:00", "opening_hours:signed": "no", "outdoor_seating": "no", "takeaway": "yes", "wheelchair": "yes"}}, {"type": "node", "id": 5143411624, "lat": 52.5158493, "lon": 13.4675226, "tags": {"amenity": "ice_cream", "check_date:opening_hours": "2023-04-29", "name": "Sweet Vice", "opening_hours:signed": "no"}}, {"type": "node", "id": 5246874155, "lat": 52.499827, "lon": 13.4249657, "tags": {"amenity": "ice_cream", "name": "Eiscafé Rona"}}, {"type": "node", "id": 5400565642, "lat": 52.4947018, "lon": 13.3018685, "tags": {"addr:city": "Berlin", "addr:housenumber": "49b", "addr:postcode": "10709", "addr:street": "Cicerostraße", "amenity": "ice_cream", "name": "Yalda Eiscafé"}}, {"type": "node", "id": 5489585152, "lat": 52.5001099, "lon": 13.4432765, "tags": {"addr:city": "Berlin", "addr:country": "DE", "addr:housenumber": "7", "addr:postcode": "10997", "addr:street": "Schlesische Straße", "addr:suburb": "Kreuzberg", "amenity": "ice_cream", "contact:phone": "+49 30 78954731", "contact:website": "https://www.vanille-marille.de/", "diet:vegan": "yes", "diet:vegetarian": "yes", "name": "vanille & marille", "opening_hours": "off"}}, {"type": "node", "id": 5512010606, "lat": 52.5235406, "lon": 13.4003843, "tags": {"addr:city": "Berlin", "addr:country": "DE", "addr:housenumber": "89", "addr:postcode": "10178", "addr:street": "Oranienburger Straße", "addr:suburb": "Mitte", "amenity": "ice_cream", "name": "Katchi", "wheelchair": "limited"}}, {"type": "node", "id": 5554966313, "lat": 52.559474, "lon": 13.4126863, "tags": {"amenity": "ice_cream", "name": "Hokey Pokey", "opening_hours": "Mo-Su 14:00-18:00", "outdoor_seating": "yes", "takeaway": "yes", "wheelchair": "no"}}, {"type": "node", "id": 5565800012, "lat": 52.4509791, "lon": 13.3406981, "tags": {"access:covid19": "no", "amenity": "ice_cream", "cuisine": "danish", "delivery:covid19": "no", "name": "Eis&Eis", "opening_hours": "PH,Mo-Su 13:00-20:00", "takeaway": "yes", "takeaway:covid19": "yes"}}, {"type": "node", "id": 5572048797, "lat": 52.5083101, "lon": 13.4511068, "tags": {"amenity": "ice_cream", "name": "Degli Angeli"}}, {"type": "node", "id": 5635556723, "lat": 52.4946459, "lon": 13.4187844, "tags": {"addr:postcode": "10967", "amenity": "ice_cream", "contact:email": "service@eismanufaktur-berlin.de", "contact:phone": "+49 170 9473105", "contact:website": "https://www.eismanufaktur-berlin.de/", "name": "Eismanufaktur Spoonful", "opening_hours": "Mo-Su 13:00-20:00", "wheelchair": "no"}}, {"type": "node", "id": 5641329331, "lat": 52.5173694, "lon": 13.3034996, "tags": {"addr:city": "Berlin", "addr:housenumber": "18", "addr:postcode": "10585", "addr:street": "Schustehrusstraße", "amenity": "ice_cream", "name": "Eisfabrik Alan", "outdoor_seating": "yes"}}, {"type": "node", "id": 5718697051, "lat": 52.488439, "lon": 13.3581157, "tags": {"addr:city": "Berlin", "addr:country": "DE", "addr:housenumber": "11", "addr:postcode": "10827", "addr:street": "Hauptstraße", "addr:suburb": "Schöneberg", "amenity": "ice_cream", "name": "Helvam"}}, {"type": "node", "id": 5726198088, "lat": 52.5210821, "lon": 13.4038867, "tags": {"addr:city": "Berlin", "addr:country": "DE", "addr:housenumber": "2", "addr:postcode": "10178", "addr:street": "Spandauer Straße", "addr:suburb": "Mitte", "amenity": "ice_cream", "check_date": "2023-06-28", "name": "Waffel oder Becher", "outdoor_seating": "yes", "wheelchair": "yes"}}, {"type": "node", "id": 5730607699, "lat": 52.4028426, "lon": 13.2692423, "tags": {"addr:housenumber": "21", "addr:postcode": "14513", "addr:street": "Zehlendorfer Straße", "amenity": "ice_cream", "name": "La Rotonda", "opening_hours": "Tu-Su 11:00-19:00; Mo off", "outdoor_seating": "yes", "phone": "+49 3328 3566400"}}, {"type": "node", "id": 5759194725, "lat": 52.4687792, "lon": 13.435954, "tags": {"addr:city": "Berlin", "addr:country": "DE", "addr:housenumber": "1", "addr:postcode": "12051", "addr:street": "Ilsestraße", "addr:suburb": "Neukölln", "amenity": "ice_cream", "check_date:opening_hours": "2022-02-05", "diet:vegan": "yes", "indoor_seating": "no", "name": "Ilse Eins", "opening_hours": "Mar-Oct: Mo-Su,PH 12:00-18:00+", "outdoor_seating": "no", "takeaway": "only", "website": "http://www.ilse-eins.com", "wheelchair": "no"}}, {"type": "node", "id": 5771640014, "lat": 52.4948115, "lon": 13.4334341, "tags": {"addr:city": "Berlin", "addr:country": "DE", "addr:housenumber": "118", "addr:postcode": "10999", "addr:street": "Reichenberger Straße", "addr:suburb": "Kreuzberg", "amenity": "ice_cream", "check_date": "2023-06-18", "contact:phone": "+49 30 78954731", "contact:website": "https://www.vanille-marille.de/", "diet:vegan": "yes", "diet:vegetarian": "yes", "name": "Vanille & Marille", "opening_hours": "Mo-Su 13:00-20:00"}}, {"type": "node", "id": 5774792932, "lat": 52.5382897, "lon": 13.2071514, "tags": {"amenity": "ice_cream", "name": "Natur Eis", "wheelchair": "yes"}}, {"type": "node", "id": 5787555522, "lat": 52.5106477, "lon": 13.4571691, "tags": {"addr:housenumber": "15", "addr:street": "Krossener Straße", "air_conditioning": "no", "amenity": "ice_cream", "indoor_seating": "yes", "name": "Delabuu Ice Cream", "opening_hours": "Mo-Th 13:00-22:00; Fr 13:00-23:30; Su 12:00-22:00; Sa 12:00-23:30", "opening_hours:signed": "no", "outdoor_seating": "yes", "phone": "+491624019000", "smoking": "outside", "wheelchair": "no"}}, {"type": "node", "id": 5792477122, "lat": 52.5083373, "lon": 13.4598364, "tags": {"addr:city": "Berlin", "addr:housenumber": "2", "addr:postcode": "10245", "addr:street": "Gärtnerstraße", "amenity": "ice_cream", "contact:facebook": "https://www.facebook.com/NaturEisBerlinFriedrichshain/", "contact:website": "https://natur-eis.business.site", "diet:vegan": "yes", "indoor_seating": "no", "name": "NaturEis", "opening_hours": "Mo-Su 13:00-17:00", "opening_hours:signed": "no", "outdoor_seating": "yes", "wheelchair": "limited"}}, {"type": "node", "id": 5804485917, "lat": 52.5093338, "lon": 13.6134379, "tags": {"addr:city": "Berlin", "addr:country": "DE", "addr:housenumber": "53", "addr:postcode": "12623", "addr:street": "Hönower Straße", "addr:suburb": "Mahlsdorf", "amenity": "ice_cream", "name": "Daddys Eiscafé", "website": "https://daddys-eiscafe.business.site/"}}, {"type": "node", "id": 5804765638, "lat": 52.570463, "lon": 13.3212511, "tags": {"amenity": "ice_cream", "name": "Die kleine Eisstation"}}, {"type": "node", "id": 5841685885, "lat": 52.4672179, "lon": 13.3427052, "tags": {"addr:city": "Berlin", "addr:housenumber": "4", "addr:postcode": "12157", "addr:street": "Beckerstraße", "amenity": "ice_cream", "check_date": "2023-08-27", "contact:facebook": "https://www.facebook.com/frolleinfrost", "contact:website": "https://fräulein-frost.de/", "diet:vegan": "yes", "indoor_seating": "no", "name": "Fräulein Frost", "opening_hours": "Mo-Sa 13:00-19:00; Su 12:00-19:00", "outdoor_seating": "yes", "payment:credit_cards": "yes", "payment:debit_cards": "yes", "takeaway": "yes", "wheelchair": "yes"}}, {"type": "node", "id": 5844370762, "lat": 52.526673, "lon": 13.3440185, "tags": {"addr:city": "Berlin", "amenity": "ice_cream", "diet:vegan": "no", "indoor_seating": "yes", "level": "0", "name": "Al Teatro", "opening_hours": "Mo-Sa 10:00-20:00", "outdoor_seating": "no", "payment:credit_cards": "no", "payment:debit_cards": "no", "smoking": "no", "wheelchair": "yes"}}, {"type": "node", "id": 5849339561, "lat": 52.4892682, "lon": 13.3944108, "tags": {"amenity": "ice_cream", "wheelchair": "yes"}}, {"type": "node", "id": 5886792723, "lat": 52.5320168, "lon": 13.4233618, "tags": {"addr:housenumber": "68", "addr:street": "Winsstraße", "amenity": "ice_cream", "name": "Early Bird", "opening_hours": "Mo-Fr 07:00-20:00; Sa,Su 08:00-18:00+", "phone": "+49 1590183615", "wheelchair": "no"}}, {"type": "node", "id": 5938829122, "lat": 52.4722616, "lon": 13.3350398, "tags": {"addr:city": "Berlin", "addr:housenumber": "14-15", "addr:postcode": "12159", "addr:street": "Lauterstraße", "amenity": "ice_cream", "name": "Eis Boutique", "wheelchair": "yes"}}, {"type": "node", "id": 5986470675, "lat": 52.5599573, "lon": 13.0905761, "tags": {"addr:city": "Falkensee", "addr:country": "DE", "addr:housenumber": "8-12", "addr:postcode": "14612", "addr:street": "Bahnstraße", "amenity": "ice_cream", "contact:phone": "+49 3322 205814", "contact:website": "https://jannys-eis-falkensee.de/", "cuisine": "ice_cream", "level": "0", "name": "Jannys Eis", "opening_hours": "Mo-Fr 09:00-20:00; Sa,Su 10:00-20:00", "outdoor_seating": "yes", "wheelchair": "limited"}}, {"type": "node", "id": 6032523106, "lat": 52.5062306, "lon": 13.4457536, "tags": {"amenity": "ice_cream", "level": "0", "name": "La Luna"}}, {"type": "node", "id": 6103423927, "lat": 52.5052111, "lon": 13.443258, "tags": {"amenity": "ice_cream", "brand": "Häagen-Dazs", "brand:wikidata": "Q1143333", "brand:wikipedia": "en:Häagen-Dazs", "name": "Häagen-Dazs", "opening_hours": "Fr 15:00-20:00; Sa 14:00-21:00; Su 14:00-19:00; Mo-Th off", "start_date": "2019-03", "wheelchair": "yes"}}, {"type": "node", "id": 6124870726, "lat": 52.4717852, "lon": 13.3350453, "tags": {"addr:city": "Berlin", "addr:housenumber": "17-18", "addr:postcode": "12159", "addr:street": "Lauterstraße", "amenity": "ice_cream", "indoor_seating": "yes", "name": "Eisfreunde", "opening_hours": "Mo-Fr 12:00-19:00; Sa 11:00-19:00; Su 14:00-19:00", "outdoor_seating": "yes"}}, {"type": "node", "id": 6222861256, "lat": 52.5225944, "lon": 13.4009551, "tags": {"addr:housenumber": "8", "addr:street": "Neue Promenade", "amenity": "ice_cream", "check_date": "2023-01-27", "indoor_seating": "yes", "level": "0", "name": "Frozen Toppi", "outdoor_seating": "yes"}}, {"type": "node", "id": 6353110784, "lat": 52.5006389, "lon": 13.4387155, "tags": {"addr:city": "Berlin", "addr:country": "DE", "addr:housenumber": "82", "addr:postcode": "10997", "addr:street": "Skalitzer Straße", "addr:suburb": "Kreuzberg", "amenity": "ice_cream", "contact:email": "info@duoicecream.de", "contact:facebook": "https://www.facebook.com/duoicecream/", "contact:mobile": "+49 15779527020", "contact:website": "http://duoicecream.de/", "diet:vegan": "yes", "indoor_seating": "yes", "name": "Duo", "opening_hours": "Mo-Su 10:00-22:00", "organic": "yes", "outdoor_seating": "yes"}}, {"type": "node", "id": 6379263620, "lat": 52.3829086, "lon": 13.1220566, "tags": {"amenity": "ice_cream", "check_date:opening_hours": "2022-10-21", "indoor_seating": "yes", "name": "San Giorgio", "opening_hours:signed": "no", "operator": "Cannizzaro & Cuccia GbR", "operator:type": "business", "outdoor_seating": "yes", "takeaway": "yes", "wheelchair": "yes"}}, {"type": "node", "id": 6414817068, "lat": 52.5150522, "lon": 13.4634815, "tags": {"addr:city": "Berlin", "addr:housenumber": "45", "addr:postcode": "10247", "addr:street": "Frankfurter Allee", "amenity": "ice_cream", "name": "Softeis", "wheelchair": "yes"}}, {"type": "node", "id": 6415204947, "lat": 52.5086537, "lon": 13.319936, "tags": {"addr:city": "Berlin", "addr:country": "DE", "addr:housenumber": "14A", "addr:postcode": "10623", "addr:street": "Grolmanstraße", "addr:suburb": "Charlottenburg", "amenity": "ice_cream", "check_date:opening_hours": "2023-12-05", "contact:website": "https://katchi-ice.com/", "cuisine": "ice_cream", "diet:vegan": "yes", "name": "Katchi Ice Cream Art", "opening_hours": "Mo-Su 12:30-19:00", "outdoor_seating": "yes", "wheelchair": "no"}}, {"type": "node", "id": 6483857785, "lat": 52.5471768, "lon": 13.409045, "tags": {"addr:city": "Berlin", "addr:country": "DE", "addr:housenumber": "18", "addr:postcode": "10437", "addr:street": "Gleimstraße", "addr:suburb": "Prenzlauer Berg", "amenity": "ice_cream", "brand": "Kult Eis;The Good Coffee", "contact:facebook": "https://www.facebook.com/kulteis/", "cuisine": "ice_cream;coffee_shop", "drink:coffee": "served", "indoor_seating": "no", "name": "Kult Eis", "outdoor_seating": "no", "self_service": "yes", "takeaway": "only", "wheelchair": "no"}}, {"type": "node", "id": 6489460044, "lat": 52.5101016, "lon": 13.305841, "tags": {"addr:city": "Berlin", "addr:country": "DE", "addr:housenumber": "128", "addr:postcode": "10627", "addr:street": "Wilmersdorfer Straße", "addr:suburb": "Charlottenburg", "amenity": "ice_cream", "check_date": "2023-04-09", "level": "0", "name": "Gelato Barik", "takeaway": "yes", "wheelchair": "yes"}}, {"type": "node", "id": 6502216509, "lat": 52.5469626, "lon": 13.4037592, "tags": {"amenity": "ice_cream", "indoor_seating": "yes", "name": "Cholila", "outdoor_seating": "yes", "wheelchair": "limited"}}, {"type": "node", "id": 6529305707, "lat": 52.5207009, "lon": 13.4532057, "tags": {"addr:city": "Berlin", "addr:housenumber": "64", "addr:postcode": "10249", "addr:street": "Mühsamstraße", "amenity": "ice_cream", "diet:organic": "yes", "diet:vegan": "yes", "diet:vegetarian": "yes", "indoor_seating": "yes", "name": "Eisklecks", "opening_hours": "Mo-Su 15:00-19:00", "outdoor_seating": "yes", "smoking": "outside", "website": "http://www.eisklecks.de", "wheelchair": "yes"}}, {"type": "node", "id": 6542773866, "lat": 52.5435365, "lon": 13.4917781, "tags": {"addr:city": "Berlin", "addr:country": "DE", "addr:housenumber": "111", "addr:postcode": "13055", "addr:street": "Konrad-Wolf-Straße", "addr:suburb": "Alt-Hohenschönhausen", "amenity": "ice_cream", "name": "Eiscafe Heidi", "opening_hours": "We-Mo 12:00-17:30"}}, {"type": "node", "id": 6563578427, "lat": 52.5096076, "lon": 13.304968, "tags": {"addr:city": "Berlin", "addr:street": "Wilmersdorfer Straße", "amenity": "ice_cream", "name": "Oak & Ice"}}, {"type": "node", "id": 6564695283, "lat": 52.4932058, "lon": 13.4652854, "tags": {"amenity": "ice_cream", "check_date": "2023-06-24", "indoor_seating": "no", "name": "Gelateria Italiana da Roberto", "outdoor_seating": "yes", "wheelchair": "yes"}}, {"type": "node", "id": 6584677090, "lat": 52.4982311, "lon": 13.3500328, "tags": {"amenity": "ice_cream", "name": "Vanille & Marille Eismanufaktur", "website": "https://www.vanille-marille.de/", "wheelchair": "limited"}}, {"type": "node", "id": 6654940879, "lat": 52.5393605, "lon": 13.4024212, "tags": {"addr:city": "Berlin", "addr:housenumber": "8", "addr:postcode": "10435", "addr:street": "Kremmener Straße", "amenity": "ice_cream", "delivery": "yes", "diet:vegan": "yes", "internet_access": "yes", "internet_access:fee": "no", "name": "Cookies and Cream", "opening_hours": "Th-Su 13:00-19:00", "outdoor_seating": "yes", "phone": "+49 30 2579", "takeaway": "yes", "website": "https://www.cookiesandcream.berlin/", "wheelchair": "no"}}, {"type": "node", "id": 6712455233, "lat": 52.5450803, "lon": 13.3610336, "tags": {"addr:housenumber": "156D", "addr:street": "Müllerstraße", "amenity": "ice_cream", "check_date": "2023-01-16", "diet:vegan": "no", "indoor_seating": "no", "level": "0", "name": "Ital Eis", "opening_hours": "Mo-Fr 09:00-19:30; Sa 09:00-18:00", "outdoor_seating": "no", "takeaway": "only", "wheelchair": "yes"}}, {"type": "node", "id": 6715513382, "lat": 52.511944, "lon": 13.3914094, "tags": {"amenity": "ice_cream", "check_date": "2022-08-22", "delivery": "no", "internet_access": "no", "name": "Rausch Eis", "name:ja": "ラウシュ・アイス", "opening_hours": "Mo-Sa 10:00-19:00; Su 11:00-15:00", "outdoor_seating": "sidewalk", "payment:american_express": "yes", "payment:credit_cards": "yes", "payment:debit_cards": "yes", "payment:diners_club": "yes", "payment:maestro": "yes", "payment:mastercard": "yes", "payment:visa": "yes", "takeaway": "yes"}}, {"type": "node", "id": 6763564336, "lat": 52.462872, "lon": 13.5141626, "tags": {"addr:city": "Berlin", "addr:country": "DE", "addr:housenumber": "10", "addr:postcode": "12459", "addr:street": "Edisonstraße", "addr:suburb": "Oberschöneweide", "amenity": "ice_cream", "check_date:opening_hours": "2023-02-06", "name": "Marina macht Eis", "opening_hours:signed": "no", "wheelchair": "no"}}, {"type": "node", "id": 6775394311, "lat": 52.4866951, "lon": 13.3555933, "tags": {"addr:city": "Berlin", "addr:country": "DE", "addr:housenumber": "3a", "addr:postcode": "10823", "addr:street": "Akazienstraße", "addr:suburb": "Schöneberg", "amenity": "ice_cream", "contact:website": "https://www.eisfee.eu/", "indoor_seating": "no", "name": "Eisfee", "opening_hours": "13:00-20:00", "outdoor_seating": "yes", "wheelchair": "no"}}, {"type": "node", "id": 6816563937, "lat": 52.4263217, "lon": 13.3318555, "tags": {"amenity": "ice_cream", "name": "Eismanufaktur", "takeaway": "only"}}, {"type": "node", "id": 6989302451, "lat": 52.4531884, "lon": 13.6247254, "tags": {"addr:city": "Berlin", "addr:country": "DE", "addr:housenumber": "94", "addr:postcode": "12587", "addr:street": "Bölschestraße", "addr:suburb": "Friedrichshagen", "amenity": "ice_cream", "capacity:covid19": "2", "contact:facebook": "https://www.facebook.com/ItalienischesEisDaDalt/", "diet:vegan": "yes", "diet:vegetarian": "yes", "name": "Italienisches Eis Da Dalt", "opening_hours": "Mo-Su 10:00-22:00", "outdoor_seating": "no", "takeaway": "only", "wheelchair": "limited"}}, {"type": "node", "id": 7036442808, "lat": 52.4773629, "lon": 13.4233851, "tags": {"addr:city": "Berlin", "addr:country": "DE", "addr:housenumber": "8", "addr:postcode": "12049", "addr:street": "Herrfurthstraße", "addr:suburb": "Neukölln", "amenity": "ice_cream", "check_date": "2021-04-10", "name": "NiceCream", "opening_hours:covid19": "closed"}}, {"type": "node", "id": 7106654377, "lat": 52.4935011, "lon": 13.3793459, "tags": {"addr:city": "Berlin", "addr:postcode": "10963", "addr:street": "Möckernstraße", "amenity": "ice_cream", "name": "Eisdreieck"}}, {"type": "node", "id": 7200716749, "lat": 52.502408, "lon": 13.3135251, "tags": {"amenity": "ice_cream", "name": "Klassens Eis"}}, {"type": "node", "id": 7233554335, "lat": 52.5434738, "lon": 13.4424886, "tags": {"addr:city": "Berlin", "addr:country": "DE", "addr:housenumber": "90", "addr:postcode": "10409", "addr:street": "Greifswalder Straße", "addr:suburb": "Prenzlauer Berg", "amenity": "ice_cream", "check_date:opening_hours": "2023-06-17", "level": "0", "name": "Il Centro", "opening_hours": "Mo-Fr 09:00-19:30; Sa 09:00-18:00", "opening_hours:signed": "no"}}, {"type": "node", "id": 7292274681, "lat": 52.5438473, "lon": 13.4181937, "tags": {"addr:city": "Berlin", "addr:country": "DE", "addr:housenumber": "10", "addr:postcode": "10437", "addr:street": "Lettestraße", "addr:suburb": "Prenzlauer Berg", "amenity": "ice_cream", "name": "Gelato alla Grande", "opening_hours": "Mo-Su 17:00-22:00", "outdoor_seating": "sidewalk"}}, {"type": "node", "id": 7294910505, "lat": 52.5119579, "lon": 13.2940213, "tags": {"addr:city": "Berlin", "addr:housenumber": "15", "addr:postcode": "14059", "addr:street": "Wundtstraße", "amenity": "ice_cream", "check_date": "2023-05-29", "diet:vegan": "yes", "indoor_seating": "no", "internet_access": "wlan", "name": "Gimme Gelato", "opening_hours": "Mo-Fr 13:00-18:00; Sa-Su,PH 11:00-19:00", "outdoor_seating": "yes", "payment:credit_cards": "yes", "payment:debit_cards": "yes", "wheelchair": "yes"}}, {"type": "node", "id": 7308454310, "lat": 52.5429249, "lon": 13.417861, "tags": {"addr:city": "Berlin", "addr:country": "DE", "addr:housenumber": "8", "addr:postcode": "10437", "addr:street": "Raumerstraße", "addr:suburb": "Prenzlauer Berg", "amenity": "ice_cream", "branch": "Raumerstraße", "contact:website": "https://rosacanina.eu/", "name": "Rosa Canina", "opening_hours": "Mo-Fr 13:00-20:00; Sa,Su 12:00-20:00", "operator": "Rosa Canina GmbH", "organic": "only", "wheelchair": "limited"}}, {"type": "node", "id": 7345834490, "lat": 52.5435859, "lon": 13.4219814, "tags": {"addr:city": "Berlin", "addr:country": "DE", "addr:housenumber": "18", "addr:postcode": "10437", "addr:street": "Dunckerstraße", "addr:suburb": "Prenzlauer Berg", "amenity": "ice_cream", "name": "Ludo", "outdoor_seating": "sidewalk"}}, {"type": "node", "id": 7398388375, "lat": 52.4928796, "lon": 13.5068402, "tags": {"amenity": "ice_cream", "check_date:opening_hours": "2023-08-06", "contact:phone": "+49 30 5138806", "diet:vegan": "no", "indoor_seating": "yes", "name": "Fabbrica del Gelato Marco Polo", "opening_hours": "Apr-Oct: PH,Mo-Su 11:00-20:00; Nov-Mar: PH,Mo-Su 11:00-18:00", "operator": "del", "outdoor_seating": "yes", "smoking": "outside", "wheelchair": "yes"}}, {"type": "node", "id": 7680001266, "lat": 52.4688424, "lon": 13.3321379, "tags": {"addr:city": "Berlin", "addr:country": "DE", "addr:housenumber": "19", "addr:postcode": "12161", "addr:street": "Rheinstraße", "addr:suburb": "Friedenau", "amenity": "ice_cream", "name": "Eis Gourmet"}}, {"type": "node", "id": 7744836617, "lat": 52.4387245, "lon": 13.2166393, "tags": {"addr:city": "Berlin", "addr:country": "DE", "addr:housenumber": "52", "addr:postcode": "14129", "addr:street": "Matterhornstraße", "addr:suburb": "Schlachtensee", "amenity": "ice_cream", "contact:email": "artigianiberlin@gmail.com", "contact:facebook": "https://www.facebook.com/artigianiberlin/", "contact:instagram": "https://www.instagram.com/artigianiberlin/", "contact:mobile": "+49 163 8620357", "name": "Artigiani", "opening_hours": "Mo-Su 12:00-20:00", "outdoor_seating": "yes"}}, {"type": "node", "id": 7747008740, "lat": 52.5920154, "lon": 13.3840923, "tags": {"addr:city": "Berlin", "addr:country": "DE", "addr:housenumber": "134", "addr:postcode": "13158", "addr:street": "Friedrich-Engels-Straße", "addr:suburb": "Rosenthal", "amenity": "ice_cream", "name": "I Due Fratelli", "opening_hours": "Mo-Su 12:00-22:00"}}, {"type": "node", "id": 7822822027, "lat": 52.406583, "lon": 13.3494947, "tags": {"amenity": "ice_cream", "name": "Eiscafé Kunterbunt"}}, {"type": "node", "id": 7876639901, "lat": 52.6166468, "lon": 13.3170849, "tags": {"addr:city": "Berlin", "addr:housenumber": "22", "addr:postcode": "13467", "addr:street": "Berliner Straße", "amenity": "ice_cream", "delivery": "yes", "drive_through": "no", "email": "da.massimo@web.de", "level": "0", "name": "Pizzeria & Gelateria da Massimo", "opening_hours": "Tu-Su 12:00-22:00", "outdoor_seating": "no", "phone": "+49 30 76957303", "start_date": "2020-10-01", "wheelchair": "yes"}}, {"type": "node", "id": 7947855086, "lat": 52.5053319, "lon": 13.2994463, "tags": {"addr:city": "Berlin", "addr:housenumber": "19", "addr:postcode": "10627", "addr:street": "Windscheidstraße", "amenity": "ice_cream", "name": "Moono"}}, {"type": "node", "id": 7962054892, "lat": 52.4517488, "lon": 13.1478891, "tags": {"amenity": "ice_cream", "contact:website": "https://emma-pauls-biergarten.com/eiskrem-hausgemacht", "name": "eiskrem Hausgemacht", "opening_hours": "11:00-20:00"}}, {"type": "node", "id": 7963851851, "lat": 52.4880026, "lon": 13.4302972, "tags": {"addr:city": "Berlin", "addr:housenumber": "206", "addr:postcode": "12047", "addr:street": "Weserstraße", "amenity": "ice_cream", "name": "Blin Blin", "opening_hours": "Mo-Su 11:00-24:00", "outdoor_seating": "yes"}}, {"type": "node", "id": 8021129285, "lat": 52.5411673, "lon": 13.4028228, "tags": {"addr:city": "Berlin", "addr:housenumber": "52", "addr:postcode": "13355", "addr:street": "Bernauer Straße", "amenity": "ice_cream", "contact:email": "mueller@shaveiceberlin.de", "contact:instagram": "https://www.instagram.com/shaveiceberlin/", "contact:website": "https://shaveiceberlin.de/", "diet:dairy_free": "yes", "diet:gluten_free": "yes", "diet:lactose_free": "yes", "diet:vegan": "yes", "name": "shaveiceberlin", "opening_hours": "Jun-Sep Su 10:00-18:00", "wheelchair": "yes"}}, {"type": "node", "id": 8072617749, "lat": 52.4677064, "lon": 13.3461303, "tags": {"amenity": "ice_cream", "name": "One Season", "operator": "Kadakal", "outdoor_seating": "yes"}}, {"type": "node", "id": 8120989360, "lat": 52.4573133, "lon": 13.3203362, "tags": {"amenity": "ice_cream", "level": "0", "name": "al teatro", "opening_hours": "Mo-Sa 10:00-20:00; PH,Su off"}}, {"type": "node", "id": 8128324269, "lat": 52.4930801, "lon": 13.465678, "tags": {"amenity": "ice_cream", "check_date": "2023-06-24", "indoor_seating": "no", "name": "Slush Eis", "outdoor_seating": "yes"}}, {"type": "node", "id": 8128324869, "lat": 52.4930927, "lon": 13.4656247, "tags": {"amenity": "ice_cream", "check_date": "2023-06-24", "indoor_seating": "no", "name": "Slush Eis", "outdoor_seating": "yes", "wheelchair": "yes"}}, {"type": "node", "id": 8462378921, "lat": 52.4425215, "lon": 13.2411036, "tags": {"addr:city": "Berlin", "addr:country": "DE", "addr:housenumber": "83a", "addr:postcode": "14163", "addr:street": "Fischerhüttenstraße", "addr:suburb": "Zehlendorf", "amenity": "ice_cream", "name": "Eis Faldon", "opening_hours": "Mo-Su 10:00-22:00", "wheelchair": "yes"}}, {"type": "node", "id": 8463977952, "lat": 52.5699488, "lon": 13.4957909, "tags": {"addr:city": "Berlin", "addr:housenumber": "24", "addr:postcode": "13051", "addr:street": "Ribnitzer Straße", "amenity": "ice_cream", "name": "Eisdealer im RiZ"}}, {"type": "node", "id": 8508597570, "lat": 52.5078968, "lon": 13.33766, "tags": {"amenity": "ice_cream"}}, {"type": "node", "id": 8586851117, "lat": 52.4518292, "lon": 13.4385821, "tags": {"amenity": "ice_cream", "indoor_seating": "no", "name": "Gelateria La Spada", "opening_hours:signed": "no", "outdoor_seating": "yes"}}, {"type": "node", "id": 8664189189, "lat": 52.5894947, "lon": 13.3346067, "tags": {"addr:city": "Berlin", "addr:country": "DE", "addr:housenumber": "86", "addr:postcode": "13437", "addr:street": "Alt-Wittenau", "addr:suburb": "Wittenau", "amenity": "ice_cream", "name": "Dolce Gelato"}}, {"type": "node", "id": 8691573558, "lat": 52.4851331, "lon": 13.352132, "tags": {"addr:city": "Berlin", "addr:country": "DE", "addr:housenumber": "59", "addr:postcode": "10823", "addr:street": "Eisenacher Straße", "addr:suburb": "Schöneberg", "amenity": "ice_cream", "description": "im City Market", "name": "Barletta-Eis"}}, {"type": "node", "id": 8691573574, "lat": 52.4855068, "lon": 13.3402588, "tags": {"addr:city": "Berlin", "addr:country": "DE", "addr:housenumber": "55", "addr:postcode": "10825", "addr:street": "Badensche Straße", "addr:suburb": "Schöneberg", "amenity": "ice_cream", "cafe": "yes", "contact:website": "https://gelateria-marino-eiscafe.business.site", "name": "Gelateria Marino Eiscafé", "operator": "Mo-Su 11:00-18:30", "outdoor_seating": "yes"}}, {"type": "node", "id": 8711623668, "lat": 52.4179118, "lon": 13.5803211, "tags": {"addr:city": "Berlin", "addr:country": "DE", "addr:housenumber": "121", "addr:postcode": "12527", "addr:street": "Regattastraße", "addr:suburb": "Grünau", "amenity": "ice_cream", "name": "Soft-Eisladen", "opening_hours": "Mo,We-Su 12:00-19:00; Tu off", "phone": "+493063314771"}}, {"type": "node", "id": 8761479658, "lat": 52.5367135, "lon": 13.2068914, "tags": {"addr:housenumber": "17", "addr:street": "Lindenufer", "amenity": "ice_cream", "name": "Eiscafé am Ufer"}}, {"type": "node", "id": 8778909754, "lat": 52.4469867, "lon": 13.3068522, "tags": {"addr:housenumber": "66", "addr:street": "Gardeschützenweg", "amenity": "ice_cream", "check_date": "2023-04-09", "name": "Kunterbunt", "wheelchair": "yes"}}, {"type": "node", "id": 8801414017, "lat": 52.4807449, "lon": 13.4357781, "tags": {"amenity": "ice_cream", "indoor_seating": "yes", "name": "Ital. Eis Dadalt", "outdoor_seating": "yes"}}, {"type": "node", "id": 8847848779, "lat": 52.5294386, "lon": 13.434794, "tags": {"amenity": "ice_cream", "name": "Eismanufaktur Il Gelataio"}}, {"type": "node", "id": 8849993891, "lat": 52.4793386, "lon": 13.4095775, "tags": {"amenity": "ice_cream", "contact:website": "https://www.gimmegelato.de/", "name": "Gimme Gelato", "opening_hours": "Apr-Oct: 14:00-22:00"}}, {"type": "node", "id": 8853469884, "lat": 52.5741253, "lon": 13.3583612, "tags": {"air_conditioning": "yes", "amenity": "ice_cream", "check_date:opening_hours": "2023-06-13", "diet:vegan": "yes", "indoor_seating": "yes", "name": "Geheimwaffel", "opening_hours": "Mo-Su 10:00-22:00", "outdoor_seating": "yes", "payment:credit_cards": "no", "payment:debit_cards": "no", "smoking": "no", "wheelchair": "yes"}}, {"type": "node", "id": 8869788017, "lat": 52.452394, "lon": 13.1401933, "tags": {"addr:housenumber": "23", "addr:postcode": "14089", "addr:street": "Sakrower Landstraße", "amenity": "ice_cream", "contact:facebook": "https://www.facebook.com/martaeis/", "contact:phone": "+49 30 556 43876", "name": "Eiscafé Marta", "opening_hours": "We-Mo 12:00-20:00"}}, {"type": "node", "id": 8916909335, "lat": 52.4935677, "lon": 13.3793435, "tags": {"amenity": "ice_cream", "name": "IL Triangolo"}}, {"type": "node", "id": 8916909337, "lat": 52.493803, "lon": 13.3797992, "tags": {"amenity": "ice_cream", "name": "Monchi Eis"}}, {"type": "node", "id": 8918983517, "lat": 52.4279634, "lon": 13.324739, "tags": {"amenity": "ice_cream", "indoor_seating": "no", "name": "Berg & Tal", "opening_hours": "Mo-Su 12:00-20:00", "outdoor_seating": "yes"}}, {"type": "node", "id": 8933232389, "lat": 52.4727431, "lon": 13.2988946, "tags": {"addr:city": "Berlin", "addr:country": "DE", "addr:housenumber": "3", "addr:postcode": "14199", "addr:street": "Zoppoter Straße", "addr:suburb": "Wilmersdorf", "amenity": "ice_cream", "contact:website": "https://www.eiscafelabottegadelgelato.de/", "name": "La Bottega del Gelato"}}, {"type": "node", "id": 8936271543, "lat": 52.5049441, "lon": 13.3074144, "tags": {"amenity": "ice_cream", "name": "Eis König"}}, {"type": "node", "id": 8950919453, "lat": 52.5126347, "lon": 13.4691187, "tags": {"amenity": "ice_cream", "name": "Tante Karla"}}, {"type": "node", "id": 8972746883, "lat": 52.4898715, "lon": 13.3868647, "tags": {"amenity": "ice_cream", "check_date": "2023-09-23", "name": "Blumen Eiscafé", "opening_hours": "Mo-Su 10:00-22:00"}}, {"type": "node", "id": 9005350952, "lat": 52.5179287, "lon": 13.4301397, "tags": {"amenity": "ice_cream", "name": "Eiscafé Il Viale", "opening_hours": "Mo-Su 11:30-19:00", "outdoor_seating": "yes", "wheelchair": "yes"}}, {"type": "node", "id": 9043430528, "lat": 52.5008091, "lon": 13.4398603, "tags": {"amenity": "ice_cream", "name": "Duo Sicilian Food Shop", "opening_hours": "Mo-Su 14:00-20:00", "shop": "deli"}}, {"type": "node", "id": 9045032433, "lat": 52.674796, "lon": 13.5370853, "tags": {"addr:city": "Bernau bei Berlin", "addr:housenumber": "1", "addr:postcode": "16321", "addr:street": "Schönerlinder Straße", "amenity": "ice_cream", "name": "Atlantik Eis", "opening_hours": "Mo-Su 12:00-19:00", "outdoor_seating": "yes"}}, {"type": "node", "id": 9055130538, "lat": 52.4311961, "lon": 13.3089188, "tags": {"amenity": "ice_cream", "indoor_seating": "yes", "name": "Fragola", "outdoor_seating": "yes", "website": "http://cafe-fragola.de/"}}, {"type": "node", "id": 9074024198, "lat": 52.5488077, "lon": 13.4540738, "tags": {"addr:city": "Berlin", "addr:housenumber": "60", "addr:postcode": "13088", "addr:street": "Berliner Allee", "amenity": "ice_cream", "delivery": "no", "name": "Jannys Eis", "opening_hours": "Mar-Oct: Mo-Su 11:00 - 19:30", "operator": "Nadja Preußler", "outdoor_seating": "no", "payment:cash": "yes", "website": "https://jannys-eis.com"}}, {"type": "node", "id": 9074855334, "lat": 52.517426, "lon": 13.2934872, "tags": {"amenity": "ice_cream", "name": "Lumia"}}, {"type": "node", "id": 9080881736, "lat": 52.4543716, "lon": 13.3285741, "tags": {"amenity": "ice_cream", "check_date": "2023-03-27", "name": "Ice Dream", "opening_hours": "off"}}, {"type": "node", "id": 9095176125, "lat": 52.5154579, "lon": 13.4997846, "tags": {"addr:city": "Berlin", "addr:housenumber": "46", "addr:postcode": "10365", "addr:street": "Rüdigerstraße", "amenity": "ice_cream", "check_date:opening_hours": "2023-05-29", "indoor_seating": "yes", "name": "Wolke 7 Eiscafé", "opening_hours": "Mo-Su 12:00-19:00", "outdoor_seating": "yes", "smoking": "outside"}}, {"type": "node", "id": 9098799580, "lat": 52.6462183, "lon": 13.5213634, "tags": {"addr:city": "Panketal", "addr:housenumber": "28", "addr:postcode": "16341", "addr:street": "Steenerbuschstraße", "addr:suburb": "Zepernick", "amenity": "ice_cream", "name": "Päuschen Softeis & Kaffee", "opening_hours": "Mo-Su 12:00 - 18:00", "payment:credit_cards": "yes", "payment:debit_cards": "yes", "phone": "+493094419289", "wheelchair": "yes"}}, {"type": "node", "id": 9124047779, "lat": 52.4983534, "lon": 13.3848727, "tags": {"amenity": "ice_cream", "diet:vegan": "yes", "name": "agiori Eis", "outdoor_seating": "yes"}}, {"type": "node", "id": 9124518721, "lat": 52.5534109, "lon": 13.3785684, "tags": {"amenity": "ice_cream", "check_date:opening_hours": "2023-07-04", "name": "Cafe Luise", "opening_hours": "Mo-Su 12:00-19:00", "opening_hours:signed": "no", "outdoor_seating": "yes", "takeaway": "yes"}}, {"type": "node", "id": 9143588313, "lat": 52.428858, "lon": 13.2594724, "tags": {"addr:city": "Berlin", "addr:housenumber": "54", "addr:postcode": "14167", "addr:street": "Teltower Damm", "amenity": "ice_cream", "name": "Eiscafé Korfu", "opening_hours": "Mar-Sep: Mo-Fr 11:00-19:00; Oct-Feb off", "outdoor_seating": "no"}}, {"type": "node", "id": 9183000760, "lat": 52.5456438, "lon": 13.591292, "tags": {"amenity": "ice_cream", "name": "Timmys Eis"}}, {"type": "node", "id": 9215009717, "lat": 52.5131962, "lon": 13.4525181, "tags": {"addr:city": "Berlin", "addr:country": "DE", "addr:housenumber": "12", "addr:postcode": "10243", "addr:street": "Warschauer Straße", "addr:suburb": "Friedrichshain", "amenity": "ice_cream", "check_date:currency:XBT": "2023-07-18", "contact:facebook": "chipichipibombon", "contact:instagram": "chipichipibombon", "contact:twitter": "chipichipibmbn", "currency:XBT": "yes", "diet:vegetarian": "yes", "indoor_seating": "yes", "name": "Chipi Chipi Bombón", "opening_hours": "Mo-Sa 15:00-23:00; Su 14:00-23:00", "outdoor_seating": "yes", "payment:lightning": "yes", "payment:onchain": "yes", "phone": "+49 30 24032446", "survey:date": "2023-03-11", "twitter": "@chipichipibmbn", "website": "https://www.chipichipibombon.com", "wheelchair": "no"}}, {"type": "node", "id": 9271868177, "lat": 52.5893265, "lon": 13.2809185, "tags": {"amenity": "ice_cream", "check_date:opening_hours": "2023-04-02", "name": "Ital. Eis R & P", "opening_hours:signed": "no", "takeaway": "yes"}}, {"type": "node", "id": 9391870288, "lat": 52.5652422, "lon": 13.4027943, "tags": {"addr:city": "Berlin", "addr:housenumber": "33", "addr:postcode": "13187", "addr:street": "Heynstraße", "amenity": "ice_cream", "name": "Alphis Eis", "note": "im Winter geschlossen", "opening_hours": "Mo-Su,Ph 11:30-20:00; We off; Nov-Mar off", "wheelchair": "yes"}}, {"type": "node", "id": 9405031233, "lat": 52.5495453, "lon": 13.4628606, "tags": {"addr:city": "Berlin", "addr:housenumber": "55", "addr:postcode": "13088", "addr:street": "Lindenallee", "amenity": "ice_cream", "level": "0", "name": "Heiß & Eis", "opening_hours:signed": "no", "outdoor_seating": "yes"}}, {"type": "node", "id": 9455750028, "lat": 52.5455818, "lon": 13.5912402, "tags": {"amenity": "ice_cream", "name": "Timmys Eis"}}, {"type": "node", "id": 9461868215, "lat": 52.5683836, "lon": 13.362285, "tags": {"amenity": "ice_cream", "indoor_seating": "yes", "name": "Dream Eiscafe", "outdoor_seating": "no"}}, {"type": "node", "id": 9500966683, "lat": 52.4655174, "lon": 13.3277239, "tags": {"amenity": "ice_cream", "check_date": "2023-11-04", "level": "-1", "name": "ital. Eis di Russillo"}}, {"type": "node", "id": 9505675856, "lat": 52.4974566, "lon": 13.3199904, "tags": {"amenity": "ice_cream", "level": "0", "name": "Gelateria Mamma Laura", "opening_hours:signed": "no", "outdoor_seating": "only"}}, {"type": "node", "id": 9556212664, "lat": 52.535744, "lon": 13.4923221, "tags": {"amenity": "ice_cream", "check_date:opening_hours": "2023-02-25", "name": "Rodi Eis", "opening_hours:signed": "no"}}, {"type": "node", "id": 9586761908, "lat": 52.4912399, "lon": 13.4120361, "tags": {"amenity": "ice_cream", "diet:vegan": "yes", "diet:vegetarian": "yes", "name": "Chunks by KoRo", "opening_hours:signed": "no", "website": "https://www.chunksbykoro.de/eisdiele"}}, {"type": "node", "id": 9595072749, "lat": 52.5296954, "lon": 13.384415, "tags": {"addr:housenumber": "16", "addr:street": "Chausseestraße", "amenity": "ice_cream", "check_date": "2022-12-14", "indoor_seating": "yes", "level": "0", "name": "Gelateria Italy", "outdoor_seating": "yes", "wheelchair": "limited"}}, {"type": "node", "id": 9631262546, "lat": 52.4893014, "lon": 13.3200112, "tags": {"addr:city": "Berlin", "addr:country": "DE", "addr:housenumber": "30", "addr:postcode": "10717", "addr:street": "Fechnerstraße", "addr:suburb": "Wilmersdorf", "amenity": "ice_cream", "diet:vegan": "yes", "name": "Berliner Eisbär", "website": "https://berlinereisbaer-fechner.com/"}}, {"type": "node", "id": 9656212596, "lat": 52.4527257, "lon": 13.3326451, "tags": {"amenity": "ice_cream", "description": "Bioeis, Getränke", "name": "Eismanufaktur Nizario"}}, {"type": "node", "id": 9667433771, "lat": 52.5218365, "lon": 13.5871708, "tags": {"addr:city": "Berlin", "addr:country": "DE", "addr:housenumber": "77", "addr:postcode": "12619", "addr:street": "Hellersdorfer Straße", "addr:suburb": "Hellersdorf", "amenity": "ice_cream", "level": "0", "name": "Eiscafé Alberts", "opening_hours": "Mo-Sa 09:00-19:00", "outdoor_seating": "yes", "phone": "+49 30 67816389"}}, {"type": "node", "id": 9685479614, "lat": 52.5296396, "lon": 13.3988722, "tags": {"addr:city": "Berlin", "addr:country": "DE", "addr:housenumber": "141", "addr:postcode": "10119", "addr:street": "Torstraße", "addr:suburb": "Mitte", "amenity": "ice_cream", "contact:website": "https://hokey-pokey.de", "name": "Hokey Pokey", "opening_hours": "PH,Mo-Su 12:00-22:00"}}, {"type": "node", "id": 9741549055, "lat": 52.6653789, "lon": 13.3801066, "tags": {"amenity": "ice_cream"}}, {"type": "node", "id": 9767908892, "lat": 52.6175356, "lon": 13.4898289, "tags": {"amenity": "ice_cream"}}, {"type": "node", "id": 9775829186, "lat": 52.3645718, "lon": 13.5938382, "tags": {"addr:city": "Schulzendorf", "addr:housenumber": "4", "addr:postcode": "15732", "addr:street": "Richard-Israel-Straße", "amenity": "ice_cream", "name": "N´ICE CAT"}}, {"type": "node", "id": 9796702485, "lat": 52.5237272, "lon": 13.6790856, "tags": {"addr:city": "Neuenhagen bei Berlin", "addr:housenumber": "82", "addr:postcode": "15366", "addr:street": "Rudolf-Breitscheid-Allee", "amenity": "ice_cream", "name": "Süsse Sünde", "opening_hours": "Mo-Sa 12:00-20:00; Su 11:00-20:00", "outdoor_seating": "yes", "website": "https://www.suesse-suende-shop.de/"}}, {"type": "node", "id": 9797173468, "lat": 52.3765981, "lon": 13.6276021, "tags": {"addr:city": "Eichwalde", "addr:housenumber": "38", "addr:postcode": "15732", "addr:street": "Bahnhofstraße", "amenity": "ice_cream", "name": "N´ICE CAT"}}, {"type": "node", "id": 9797339416, "lat": 52.5440327, "lon": 13.5459901, "tags": {"addr:city": "Berlin", "addr:housenumber": "1", "addr:postcode": "12679", "addr:street": "Marzahner Promenade", "amenity": "ice_cream", "indoor_seating": "yes", "name": "Eiscafé Promenade", "outdoor_seating": "no"}}, {"type": "node", "id": 9809605644, "lat": 52.4929909, "lon": 13.3294662, "tags": {"addr:city": "Berlin", "addr:country": "DE", "addr:housenumber": "19", "addr:postcode": "10717", "addr:street": "Trautenaustraße", "addr:suburb": "Wilmersdorf", "amenity": "ice_cream", "name": "KE GUSTO?", "opening_hours:signed": "no", "outdoor_seating": "yes"}}, {"type": "node", "id": 9813284031, "lat": 52.4889785, "lon": 13.2611359, "tags": {"amenity": "ice_cream", "name": "Kiosk an der Scheune", "opening_hours": "Sa,Su,PH 11:00 - sunset || Mo - Fr \"Eiscreme\""}}, {"type": "node", "id": 9861771518, "lat": 52.4324093, "lon": 13.2588427, "tags": {"addr:city": "Berlin", "addr:housenumber": "24", "addr:postcode": "14169", "addr:street": "Teltower Damm", "amenity": "ice_cream", "name": "Gelateria Europa", "opening_hours": "Mo-Su 10:00-20:00", "phone": "+49 170 7955595", "website": "https://gelateria-europa.de", "wheelchair": "no"}}, {"type": "node", "id": 9887326389, "lat": 52.4921301, "lon": 13.5826196, "tags": {"amenity": "ice_cream", "email": "lecker@daheim-im-kaulsdorfer-busch.de", "opening_hours": "Th-Su 12:00-18:00", "operator": "Kay Oliver Minge", "phone": "+49 30 56584856", "website": "https://www.daheim-im-kaulsdorfer-busch.de/"}}, {"type": "node", "id": 9888031651, "lat": 52.5422614, "lon": 13.3750088, "tags": {"addr:city": "Berlin", "addr:housenumber": "30", "addr:postcode": "13347", "addr:street": "Schönwalder Straße", "air_conditioning": "no", "amenity": "ice_cream", "diet:vegan": "no", "indoor_seating": "no", "name": "Eis Toto", "opening_hours": "Mo-Su 10:00-22:00", "outdoor_seating": "yes", "smoking": "yes"}}, {"type": "node", "id": 9888934886, "lat": 52.525776, "lon": 13.3942864, "tags": {"amenity": "ice_cream", "name": "Gelato Maria Maria", "payment:cash": "yes", "payment:contactless": "yes", "payment:girocard": "yes", "payment:visa": "yes", "seasonal": "yes", "street_vendor": "yes", "takeaway": "only", "wheelchair": "yes"}}, {"type": "node", "id": 9904979248, "lat": 52.5336548, "lon": 13.3467228, "tags": {"addr:city": "Berlin", "addr:country": "DE", "addr:housenumber": "26", "addr:postcode": "10559", "addr:street": "Stephanstraße", "addr:suburb": "Moabit", "amenity": "ice_cream", "name": "Italienisches Eis Marcon", "start_date": "2023-03-01"}}, {"type": "node", "id": 9912702096, "lat": 52.5495527, "lon": 13.3613093, "tags": {"addr:city": "Berlin", "addr:postcode": "13347", "addr:street": "Malplaquetstraße", "amenity": "ice_cream", "drink:coffee": "yes", "level": "0", "name": "Pingolino Eis", "opening_hours": "Mo-Su 12:00-20:00", "outdoor_seating": "yes"}}, {"type": "node", "id": 9918868969, "lat": 52.4953652, "lon": 13.421712, "tags": {"addr:city": "Berlin", "addr:housenumber": "3", "addr:postcode": "12047", "addr:street": "Maybachufer", "amenity": "ice_cream", "diet:vegan": "yes", "name": "Duo Sicilian Ice Cream", "opening_hours": "Mo-Su 13:00-22:00", "phone:mobile": "015779527020", "website": "https://www.duosicilianfoodlab.de/", "wheelchair": "no"}}, {"type": "node", "id": 10029281619, "lat": 52.4897767, "lon": 13.3832579, "tags": {"addr:city": "Berlin", "addr:country": "DE", "addr:housenumber": "71", "addr:postcode": "10965", "addr:street": "Kreuzbergstraße", "addr:suburb": "Kreuzberg", "amenity": "ice_cream", "name": "Gelateria No 1"}}, {"type": "node", "id": 10103240871, "lat": 52.5316672, "lon": 13.6031045, "tags": {"addr:city": "Berlin", "addr:housenumber": "9", "addr:postcode": "12627", "addr:street": "Schneeberger Straße", "amenity": "ice_cream", "name": "Jannys Eis"}}, {"type": "node", "id": 10109260983, "lat": 52.4166588, "lon": 13.5748546, "tags": {"addr:city": "Berlin", "addr:housenumber": "26", "addr:postcode": "12527", "addr:street": "Ammerseestraße", "amenity": "ice_cream", "currency:XBT": "yes", "name": "La Casa Coral", "opening_hours": "Mo-Su 10:00-19:00", "payment:lightning": "no", "payment:lightning_contactless": "no", "payment:onchain": "yes", "survey:date": "2022-10-17"}}, {"type": "node", "id": 10114522634, "lat": 52.3963554, "lon": 13.2759292, "tags": {"amenity": "ice_cream"}}, {"type": "node", "id": 10118912505, "lat": 52.5392278, "lon": 13.3830353, "tags": {"addr:city": "Berlin", "addr:housenumber": "80", "addr:postcode": "13355", "addr:street": "Ackerstraße", "amenity": "ice_cream", "check_date": "2023-11-10", "internet_access": "no", "name": "Chunks by KoRo", "outdoor_seating": "yes", "payment:cards": "no", "payment:cash": "yes", "payment:credit_cards": "no", "payment:debit_cards": "no", "website": "https://www.chunksbykoro.de/"}}, {"type": "node", "id": 10180638417, "lat": 52.5307781, "lon": 13.4018796, "tags": {"addr:housenumber": "24", "addr:street": "Weinbergsweg", "amenity": "ice_cream", "brand": "Ben & Jerrys", "brand:wikidata": "Q816412", "check_date": "2023-01-09", "check_date:opening_hours": "2023-06-03", "cuisine": "ice_cream", "diet:vegan": "yes", "diet:vegetarian": "yes", "indoor_seating": "yes", "level": "0", "name": "Ben & Jerrys", "opening_hours:signed": "no", "outdoor_seating": "yes", "wheelchair": "no"}}, {"type": "node", "id": 10616370270, "lat": 52.5079525, "lon": 13.3742659, "tags": {"amenity": "ice_cream", "name": "Caffè e Gelato"}}, {"type": "node", "id": 10824366874, "lat": 52.5469421, "lon": 13.7448223, "tags": {"addr:city": "Fredersdorf-Vogelsdorf", "addr:housenumber": "15", "addr:postcode": "15370", "addr:street": "Zillestraße", "amenity": "ice_cream", "indoor_seating": "no", "name": "Eiscafé Eisjunge", "opening_hours": "Mi-Su 13:00-18:00", "outdoor_seating": "yes", "payment:cash": "yes"}}, {"type": "node", "id": 10832100823, "lat": 52.4523942, "lon": 13.1402078, "tags": {"amenity": "ice_cream", "name": "Eiscafé Marta", "opening_hours": "Tu-Su 13:00-18:00"}}, {"type": "node", "id": 10884209900, "lat": 52.4788337, "lon": 13.4232542, "tags": {"amenity": "ice_cream", "check_date": "2023-05-22", "level": "0", "name": "Felicia ice cream", "note": "Eisverkauf aus dem Fenster Selchower Str., Teil vom Café in der ehemaligen Kneipe \"Lange Nacht\", Fensteröffnung nicht identisch mit Café-Öffnungszeiten"}}, {"type": "node", "id": 10908387117, "lat": 52.3988282, "lon": 13.4518644, "tags": {"addr:city": "Schönefeld", "addr:housenumber": "78", "addr:postcode": "12529", "addr:street": "Alt Großziethen", "amenity": "ice_cream", "delivery": "no", "drive_through": "no", "level": "0", "name": "Eiscafé Georgino", "opening_hours": "Mo off; Tu-Su 11:00-19:00", "outdoor_seating": "yes"}}, {"type": "node", "id": 10908717676, "lat": 52.5087224, "lon": 13.4973041, "tags": {"addr:city": "Berlin", "addr:housenumber": "26", "addr:postcode": "10317", "addr:street": "Einbecker Straße", "amenity": "ice_cream", "name": "Ca-phê", "outdoor_seating": "yes", "payment:cash": "only"}}, {"type": "node", "id": 10913988788, "lat": 52.5376396, "lon": 13.4172287, "tags": {"amenity": "ice_cream", "name": "Mr. ICE"}}, {"type": "node", "id": 10963865464, "lat": 52.5298888, "lon": 13.4336106, "tags": {"amenity": "ice_cream", "contact:website": "https://duoicecream.de/", "name": "Duo"}}, {"type": "node", "id": 11020839104, "lat": 52.4273458, "lon": 13.4716184, "tags": {"amenity": "ice_cream", "opening_hours": "seasonal"}}, {"type": "node", "id": 11045663310, "lat": 52.5734602, "lon": 13.5629246, "tags": {"amenity": "ice_cream", "name": "Monte Falco"}}, {"type": "node", "id": 11081135262, "lat": 52.5883395, "lon": 13.27557, "tags": {"amenity": "ice_cream"}}, {"type": "node", "id": 11107435651, "lat": 52.5320325, "lon": 13.3282973, "tags": {"addr:housenumber": "49", "addr:street": "Beusselstraße", "amenity": "ice_cream", "check_date": "2023-09-27", "name": "Eis Henri", "opening_hours": "Mo-Sa 11:00-23:00; Su 12:00-23:00", "wheelchair": "yes"}}, {"type": "node", "id": 11130931005, "lat": 52.5281035, "lon": 13.4336186, "tags": {"amenity": "ice_cream"}}, {"type": "node", "id": 11140768480, "lat": 52.4590108, "lon": 13.2830823, "tags": {"amenity": "ice_cream", "name": "Eiscafé Il Pistacchio Dahlem"}}, {"type": "node", "id": 11145846805, "lat": 52.5162554, "lon": 13.4722114, "tags": {"addr:housenumber": "33", "addr:postcode": "10247", "addr:street": "Schreinerstraße", "amenity": "ice_cream", "name": "Eiscafe Il Pistacchio", "name:en": "Ice cream Il Pistacchio", "opening_hours": "Mo-Su 11:00-21:00"}}, {"type": "node", "id": 11148418941, "lat": 52.5076984, "lon": 13.341273, "tags": {"amenity": "ice_cream", "check_date:opening_hours": "2023-10-14", "name:signed": "no", "opening_hours:signed": "no"}}, {"type": "node", "id": 11148419019, "lat": 52.5070638, "lon": 13.3392728, "tags": {"amenity": "ice_cream"}}, {"type": "node", "id": 11198242338, "lat": 52.445463, "lon": 13.6303933, "tags": {"amenity": "ice_cream", "operator": "floss & loss", "website": "http://www.flossundloss.de"}}]}