{"version": 0.6, "generator": "Overpass API 0.7.61.5 4133829e", "osm3s": {"timestamp_osm_base": "2024-01-02T22:21:00Z", "copyright": "The data included in this document is from www.openstreetmap.org. The data is made available under ODbL."}, "elements": [{"type": "node", "id": 705765189, "lat": 52.459232, "lon": 13.31951, "tags": {"addr:city": "Berlin", "addr:country": "DE", "addr:housenumber": "41", "addr:postcode": "12163", "addr:street": "Rothenburgstraße", "addr:suburb": "Steglitz", "amenity": "coworking_space", "name": "lanconference.de", "opening_hours": "Mo-Fr 09:00-17:00", "website": "https://lanconference.de", "wheelchair": "no"}}, {"type": "node", "id": 1232688398, "lat": 52.4862836, "lon": 13.3599205, "tags": {"addr:city": "Berlin", "addr:country": "DE", "addr:housenumber": "8", "addr:postcode": "10827", "addr:street": "Kolonnenstraße", "addr:suburb": "Schöneberg", "amenity": "coworking_space", "check_date:opening_hours": "2023-12-04", "contact:mobile": "+49 171 1536331", "contact:website": "http://cowos-berlin.com/", "name": "CoWoS", "opening_hours": "Mo-Fr 09:00-17:00", "operator": "CoWoS Betriebs GmbH", "phone": "+49 30 235935570", "wheelchair": "yes"}}, {"type": "node", "id": 1244345598, "lat": 52.5144051, "lon": 13.4185717, "tags": {"addr:city": "Berlin", "addr:country": "DE", "addr:housenumber": "6-9", "addr:postcode": "10179", "addr:street": "Holzmarktstraße", "amenity": "coworking_space", "contact:website": "http://www.mindboxberlin.com", "internet_access": "wlan", "internet_access:fee": "no", "layer": "-1", "level": "-1", "name": "DB mindbox", "operator": "Deutsche Bahn AG", "wheelchair": "limited"}}, {"type": "node", "id": 1784674880, "lat": 52.5432379, "lon": 13.4142133, "tags": {"addr:city": "Berlin", "addr:country": "DE", "addr:housenumber": "78/79", "addr:postcode": "10437", "addr:street": "Pappelallee", "addr:suburb": "Prenzlauer Berg", "amenity": "coworking_space", "check_date": "2023-04-10", "check_date:opening_hours": "2020-11-25", "contact:phone": "+49 30 22334455", "contact:website": "https://www.officeclub.com/berlin-prenzlauer-berg", "name": "Office Club", "office": "company", "opening_hours": "Mo-Fr 09:00-19:00", "operator": "mobilesuite cowo GmbH", "toilets:wheelchair": "no", "wheelchair": "limited", "wheelchair:description": "Bitte Hofzugang nutzen."}}, {"type": "node", "id": 3605164303, "lat": 52.4868855, "lon": 13.4328002, "tags": {"addr:city": "Berlin", "addr:housenumber": "21", "addr:postcode": "12045", "addr:street": "Weserstraße", "amenity": "coworking_space", "name": "Weserland Coworking Berlin", "office": "yes", "opening_hours": "09:00-23:30", "smoking": "outside", "website": "http://coworking.weser.land", "wheelchair": "limited"}}, {"type": "node", "id": 3768830257, "lat": 52.4865993, "lon": 13.3556933, "tags": {"addr:city": "Berlin", "addr:country": "DE", "addr:housenumber": "3", "addr:postcode": "10823", "addr:street": "Akazienstraße", "addr:suburb": "Schöneberg", "amenity": "coworking_space", "internet_access": "wlan", "name": "Roof Up", "toilets:wheelchair": "no", "wheelchair": "no"}}, {"type": "node", "id": 3864582957, "lat": 52.4935515, "lon": 13.3601459, "tags": {"addr:city": "Berlin", "addr:country": "DE", "addr:housenumber": "182", "addr:postcode": "10783", "addr:street": "Potsdamer Straße", "addr:suburb": "Schöneberg", "amenity": "coworking_space", "contact:phone": "+49 30 220 66 20 01", "contact:twitter": "@rent24coworking", "contact:website": "https://www.rent24.com/", "level": "4;5", "name": "rent24", "office": "coworking", "opening_hours": "Mo-Fr 09:00-18:00", "operator": "rent24 GmbH", "toilets:wheelchair": "yes", "wheelchair": "yes", "wheelchair:description": "Schwere Hauseingangstür aus Aluprofil, die ohne Hilfe eines Dritten für Rollstuhlfahrer kaum zu öffnen ist. Es gibt ein rollstuhlgerechtes WC im Erdgeschoss, deren Tür ohne Hilfe eines Dritten für Rollstuhlfahrer nicht zu öffnen ist."}}, {"type": "node", "id": 4225752737, "lat": 52.5340487, "lon": 13.3704077, "tags": {"addr:city": "Berlin", "addr:country": "DE", "addr:housenumber": "24", "addr:postcode": "10115", "addr:street": "Scharnhorststraße", "addr:suburb": "Mitte", "amenity": "coworking_space", "check_date:opening_hours": "2023-05-18", "name": "Amapola Coworking", "opening_hours": "Mo-Fr 09:30-16:00", "website": "https://amapola-coworking.de/", "wheelchair": "yes"}}, {"type": "node", "id": 4306070496, "lat": 52.5123455, "lon": 13.3901333, "tags": {"addr:city": "Berlin", "addr:housenumber": "68", "addr:postcode": "10117", "addr:street": "Friedrichstraße", "amenity": "coworking_space", "check_date": "2023-04-03", "name": "mindspace", "office": "company", "toilets:wheelchair": "yes", "website": "https://www.mindspace.me/", "wheelchair": "yes"}}, {"type": "node", "id": 4476799907, "lat": 52.5246687, "lon": 13.4046902, "tags": {"addr:city": "Berlin", "addr:country": "DE", "addr:housenumber": "3-5", "addr:postcode": "10178", "addr:street": "Neue Schönhauser Straße", "amenity": "coworking_space", "check_date": "2023-01-08", "contact:website": "https://wework.com", "name": "WeWork Hackescher Markt", "phone": "+49 30 56838199", "website": "https://wework.com"}}, {"type": "node", "id": 4498449571, "lat": 52.4740867, "lon": 13.4265893, "tags": {"addr:city": "Berlin", "addr:housenumber": "45", "addr:postcode": "12049", "addr:street": "Okerstraße", "amenity": "coworking_space", "name": "D.Collective", "website": "https://dcollectivespace.wordpress.com/"}}, {"type": "node", "id": 5103564057, "lat": 52.5412201, "lon": 13.3906028, "tags": {"addr:city": "Berlin", "addr:housenumber": "11", "addr:postcode": "13355", "addr:street": "Wattstraße", "amenity": "coworking_space", "internet_access": "private", "name": "Ahoy! Berlin"}}, {"type": "node", "id": 5367928671, "lat": 52.4916086, "lon": 13.3603987, "tags": {"addr:city": "Berlin", "addr:housenumber": "188", "addr:postcode": "10783", "addr:street": "Potsdamer Straße", "amenity": "coworking_space", "contact:phone": "+49 30 347 421 800", "contact:website": "https://www.rent24.com/en/locations/berlin/potsdamer-strasse-188/", "internet_access": "yes", "internet_access:fee": "no", "level": "0-3", "name": "rent24", "opening_hours": "Mo-Fr 09:00-18:00", "operator": "rent24 GmbH", "wheelchair": "yes"}}, {"type": "node", "id": 6251995790, "lat": 52.5496879, "lon": 13.3699523, "tags": {"addr:city": "Berlin", "addr:housenumber": "4", "addr:postcode": "13357", "addr:street": "Gottschedstrasse", "amenity": "coworking_space", "internet_access": "wlan", "level": "1", "name": "Cultivation Space", "website": "https://www.cultivation.space/", "wheelchair": "no"}}, {"type": "node", "id": 6311537150, "lat": 52.5483986, "lon": 13.4265789, "tags": {"amenity": "coworking_space", "name": "Happy Pigeons Co-working"}}, {"type": "node", "id": 6403066082, "lat": 52.5065726, "lon": 13.3916017, "tags": {"addr:city": "Berlin", "addr:country": "DE", "addr:housenumber": "23", "addr:postcode": "10969", "addr:street": "Rudi-Dutschke-Straße", "addr:suburb": "Kreuzberg", "amenity": "coworking_space", "name": "betahaus", "website": "https://www.betahaus.com/"}}, {"type": "node", "id": 6753987908, "lat": 52.5294474, "lon": 13.4133499, "tags": {"access": "delivery", "addr:city": "Berlin", "addr:country": "DE", "addr:housenumber": "9F", "addr:postcode": "10405", "addr:street": "Straßburger Straße", "amenity": "coworking_space", "company": "startup", "contact:email": "info@kugu-home.com", "contact:fax": "+49 30 92152991", "contact:phone": "+49 30 92152990", "contact:website": "https://kugu-home.com", "entrance": "main", "name": "KUGU Home GmbH", "office": "company", "operator": "Beton&Freunde", "wheelchair": "yes"}}, {"type": "node", "id": 6915842784, "lat": 52.4759286, "lon": 13.4437324, "tags": {"addr:city": "Berlin", "addr:country": "DE", "addr:housenumber": "85/86", "addr:postcode": "12043", "addr:street": "Richardstraße", "addr:suburb": "Neukölln", "amenity": "coworking_space", "name": "Unicorn Village", "office": "coworking", "website": "https://www.unicorn.de/de/spaces/village/"}}, {"type": "node", "id": 7126670562, "lat": 52.4867628, "lon": 13.355594, "tags": {"addr:city": "Berlin", "addr:housenumber": "3a", "addr:postcode": "10823", "addr:street": "Akazienstraße", "amenity": "coworking_space", "contact:phone": "+49 30 55235449", "name": "Space Shack", "website": "https://space-shack.com/"}}, {"type": "node", "id": 7310118044, "lat": 52.5418663, "lon": 13.4253802, "tags": {"addr:city": "Berlin", "addr:country": "DE", "addr:housenumber": "186", "addr:postcode": "10405", "addr:street": "Prenzlauer Allee", "addr:suburb": "Prenzlauer Berg", "amenity": "coworking_space", "contact:phone": "+49 30 55122388", "contact:website": "https://www.wonder-coworking.de/", "female": "yes", "name": "Wonder", "opening_hours": "Mo-Fr 09:30-16:00", "wheelchair": "yes"}}, {"type": "node", "id": 8919934740, "lat": 52.5603927, "lon": 13.3771781, "tags": {"amenity": "coworking_space"}}, {"type": "node", "id": 9577860884, "lat": 52.5419344, "lon": 13.372268, "tags": {"addr:city": "Berlin", "addr:housenumber": "23", "addr:postcode": "13347", "addr:street": "Schönwalder Straße", "amenity": "coworking_space", "check_date:opening_hours": "2023-06-14", "name": "Werkstatt23", "opening_hours:signed": "no", "wheelchair": "limited"}}, {"type": "node", "id": 10064479039, "lat": 52.5079141, "lon": 13.3914391, "tags": {"amenity": "coworking_space", "fee": "yes", "name": "Mindspace", "opening_hours": "24/7", "operator": "Mindspace"}}, {"type": "node", "id": 10133253469, "lat": 52.5598431, "lon": 13.3771763, "tags": {"amenity": "coworking_space"}}, {"type": "node", "id": 10133253470, "lat": 52.5537046, "lon": 13.3745881, "tags": {"amenity": "coworking_space"}}, {"type": "node", "id": 10741548148, "lat": 52.4791394, "lon": 13.4326669, "tags": {"addr:city": "Berlin", "addr:country": "DE", "addr:housenumber": "28a", "addr:postcode": "12053", "addr:street": "Rollbergstraße", "addr:suburb": "Neukölln", "amenity": "coworking_space", "description": "Open Community Lab \\ Werkstatt \\ Maker Space \\ Atelier", "name": "Rollwerk", "smoking": "no", "website": "https://www.rollwerk.berlin"}}, {"type": "node", "id": 11051017210, "lat": 52.4930571, "lon": 13.3835322, "tags": {"addr:housenumber": "60", "addr:street": "Großbeerenstr.", "amenity": "coworking_space", "name": "UMA Hub", "website": "https://umahub.com/"}}, {"type": "node", "id": 11285466133, "lat": 52.4846237, "lon": 13.4493869, "tags": {"amenity": "coworking_space", "name": "workish.berlin", "opening_hours": "Mo-Fr 09:00-18:00"}}]}