{"version": 0.6, "generator": "Overpass API 0.7.61.5 4133829e", "osm3s": {"timestamp_osm_base": "2024-01-02T22:21:00Z", "copyright": "The data included in this document is from www.openstreetmap.org. The data is made available under ODbL."}, "elements": [{"type": "node", "id": 26865440, "lat": 52.4333644, "lon": 13.190734, "tags": {"amenity": "biergarten", "name": "Spinnerbrücke", "note": "Motorradtreff", "toilets:wheelchair": "no", "website": "https://spinner-bruecke.de/", "wheelchair": "yes"}}, {"type": "node", "id": 27318009, "lat": 52.4200885, "lon": 13.1763456, "tags": {"addr:city": "Berlin", "addr:housenumber": "260", "addr:postcode": "14109", "addr:street": "Kronprinzessinnenweg", "amenity": "biergarten", "contact:email": "info@loretta-berlin.de", "contact:fax": "+49 30 80105334", "contact:phone": "+49 30 80105333", "contact:website": "https://www.loretta-berlin.de/lorettas-biergarten/", "name": "Loretta", "opening_hours": "12:00+", "wheelchair": "limited"}}, {"type": "node", "id": 167013475, "lat": 52.4916944, "lon": 13.4389954, "tags": {"addr:city": "Berlin", "addr:country": "DE", "addr:housenumber": "14c", "addr:postcode": "10999", "addr:street": "Ratiborstraße", "addr:suburb": "Kreuzberg", "amenity": "biergarten", "brewery": "yes", "internet_access": "wlan", "name": "Jockel", "opening_hours": "Mo-Su 10:00-22:00", "outdoor_seating": "yes", "phone": "+49 30 69598060", "smoking": "outside", "website": "https://www.biergartenjockel.de/", "wheelchair": "limited"}}, {"type": "node", "id": 255049657, "lat": 52.4337259, "lon": 13.1642419, "tags": {"amenity": "biergarten", "name": "Haus Sanssouci", "opening_hours": "We,Th,Su 12:00-20:30; Fr,Sa 12:00-21:00", "wheelchair": "yes"}}, {"type": "node", "id": 257708389, "lat": 52.5406075, "lon": 13.2066054, "tags": {"addr:city": "Berlin", "addr:country": "DE", "addr:housenumber": "1", "addr:postcode": "13585", "addr:street": "Neuendorfer Straße", "addr:suburb": "Spandau", "amenity": "biergarten", "brewery": "yes", "capacity": "400", "name": "Brauhaus Spandau", "opening_hours": "PH,Mo-Su 11:00-23:00", "outdoor_seating": "yes", "smoking": "outside", "toilets:wheelchair": "no", "wheelchair": "limited"}}, {"type": "node", "id": 276134997, "lat": 52.429983, "lon": 13.3540107, "tags": {"amenity": "biergarten", "name": "Balkes Park-Treff", "wheelchair": "limited"}}, {"type": "node", "id": 280589004, "lat": 52.5976055, "lon": 13.2749705, "tags": {"amenity": "biergarten", "name": "Wirtshaus im Alten Fritz"}}, {"type": "node", "id": 297233488, "lat": 52.5697896, "lon": 13.3942046, "tags": {"amenity": "biergarten", "name": "Rosengarten", "opening_hours": "Mo-Su 11:00-20:00", "toilets:wheelchair": "yes", "wheelchair": "limited"}}, {"type": "node", "id": 300327588, "lat": 52.5422827, "lon": 13.2816533, "tags": {"addr:housenumber": "274", "addr:street": "Heckerdamm", "amenity": "biergarten", "contact:email": "info@kulturbiergarten.de", "contact:phone": "+49 1522 9796454", "contact:website": "https://kulturbiergarten.de/", "name": "Kulturbiergarten Jungfernheide", "opening_hours": "Mo-Sa 12:00-21:00; Su 11:00-21:00"}}, {"type": "node", "id": 388514302, "lat": 52.4123211, "lon": 13.6095915, "tags": {"addr:city": "Berlin", "addr:country": "DE", "addr:housenumber": "2", "addr:postcode": "12559", "addr:street": "Zum Schmetterlingshorst", "addr:suburb": "Köpenick", "amenity": "biergarten", "contact:email": "bsbtk@t-online.de", "contact:phone": "+49 30 61674861", "cuisine": "german", "email": "schmetterlingshorst@berlin.de", "image": "File:Schmetterlingshorst Berlin 04.jpg", "name": "Schmetterlingshorst", "opening_hours": "Oct-Mar: Tu-Fr 11:00-16:00; Sa-Su 11:00-17:00; Apr-Sep: Mo-Fr 10:00-17:00; Sa-Su 10:00-19:00", "operator": "Bezirkssportbund Treptow-Köpenick e.V.", "phone": "+49 30 61674861", "smoking": "yes", "website": "https://www.schmetterlingshorst.de/", "wheelchair": "yes", "wikidata": "Q2246147", "wikipedia": "de:Schmetterlingshorst"}}, {"type": "node", "id": 400916176, "lat": 52.4747532, "lon": 13.5241898, "tags": {"amenity": "biergarten", "name": "Albers Biergarten", "wheelchair": "yes"}}, {"type": "node", "id": 438209267, "lat": 52.4608859, "lon": 13.5459148, "tags": {"addr:city": "Berlin", "addr:country": "DE", "addr:housenumber": "195", "addr:postcode": "12459", "addr:street": "An der Wuhlheide", "addr:suburb": "Oberschöneweide", "amenity": "biergarten", "contact:phone": "+49 152 26234723", "contact:website": "http://der-waldkater.de/", "craft": "caterer", "name": "Der Waldkater", "operator": "P&R Personal- und Veranstaltungsservice UG"}}, {"type": "node", "id": 492022191, "lat": 52.618156, "lon": 13.335382, "tags": {"amenity": "biergarten", "name": "Freibad Lübars", "website": "https://www.strandbad-luebars.de/"}}, {"type": "node", "id": 573395588, "lat": 52.511952, "lon": 13.239938, "tags": {"amenity": "biergarten", "name": "Stadionterrassen"}}, {"type": "node", "id": 573398147, "lat": 52.5156515, "lon": 13.2439374, "tags": {"amenity": "biergarten", "name": "Pepe Mager"}}, {"type": "node", "id": 622472685, "lat": 52.467458, "lon": 13.2617552, "tags": {"addr:city": "Berlin", "addr:country": "DE", "addr:housenumber": "100", "addr:postcode": "14193", "addr:street": "Hüttenweg", "addr:suburb": "Grunewald", "amenity": "biergarten", "name": "Im Jagdschloss", "opening_hours": "Nov-Mar Sa,Su,PH 10:00-16:00; Apr-Oct Tu-Su 10:00-18:00", "wheelchair": "yes"}}, {"type": "node", "id": 627600191, "lat": 52.655422, "lon": 13.5380797, "tags": {"amenity": "biergarten"}}, {"type": "node", "id": 783980399, "lat": 52.4108388, "lon": 13.3744324, "tags": {"amenity": "biergarten", "name": "PUBalapap Ponyhof", "phone": "+49 30 7212658", "website": "http://www.pubalapap-ponyhof.de"}}, {"type": "node", "id": 986839191, "lat": 52.4866604, "lon": 13.479138, "tags": {"amenity": "biergarten", "name": "Biergarten Bootsverleih Rent a´ Boat"}}, {"type": "node", "id": 1329387334, "lat": 52.4868423, "lon": 13.4813072, "tags": {"addr:city": "Berlin", "addr:country": "DE", "addr:housenumber": "6", "addr:postcode": "12435", "addr:street": "Alt-Treptow", "amenity": "biergarten", "brewery": "Pilsener Urquell", "contact:email": "kontakt@inselberlin.de", "contact:facebook": "inselberlin", "contact:fax": "+49 30 80961849", "contact:foursquare": "https://de.foursquare.com/v/inselgarten/4c4ece3cdb2c20a177cffd74", "contact:phone": "+49 30 80961850", "contact:website": "http://inselberlin.de", "contact:yelp": "kulturhaus-insel-berlin-berlin-3", "name": "Insel", "opening_hours": "Mo 14:00-20:00, Tu 16:00-02:00, We 19:30-02:00, Th,Su 14:00-02:00, Fr 21:00-04:00, Sa 22:00-04:00; Dec-Feb off", "outdoor_seating": "yes", "payment:cash": "only", "smoking": "outside", "toilets:wheelchair": "yes", "wheelchair": "yes"}}, {"type": "node", "id": 1336750491, "lat": 52.4480138, "lon": 13.5765416, "tags": {"addr:city": "Berlin", "addr:country": "DE", "addr:housenumber": "15", "addr:postcode": "12555", "addr:street": "Freiheit", "addr:suburb": "Köpenick", "amenity": "biergarten", "name": "Freiheit 15", "opening_hours": "Su 14:00-20:00 unknown \"im Winter nur So. bei passendem Wetter!\"", "outdoor_seating": "yes", "phone": "+49 30 65887825", "smoking": "yes", "toilets:wheelchair": "yes", "website": "https://www.freiheit15.com/", "wheelchair": "yes"}}, {"type": "node", "id": 1385783342, "lat": 52.5152023, "lon": 13.3364367, "tags": {"amenity": "biergarten", "name": "Biergarten-Quelle", "opening_hours": "Mo-Fr 16:00-24:00+; PH,Sa,Su 12:00-24:00+", "outdoor_seating": "yes", "wheelchair": "limited"}}, {"type": "node", "id": 1405977761, "lat": 52.4840046, "lon": 13.3438293, "tags": {"addr:city": "Berlin", "addr:country": "DE", "addr:housenumber": "20", "addr:postcode": "10825", "addr:street": "Freiherr-vom-Stein-Straße", "addr:suburb": "Schöneberg", "amenity": "biergarten", "name": "PlatzHirsch", "outdoor_seating": "yes", "phone": "+49 30 7848076", "wheelchair": "yes"}}, {"type": "node", "id": 1727023627, "lat": 52.5951674, "lon": 13.3326597, "tags": {"addr:city": "Berlin", "addr:country": "DE", "addr:housenumber": "196", "addr:postcode": "13437", "addr:street": "Oranienburger Straße", "addr:suburb": "Wittenau", "amenity": "biergarten", "name": "Fassl Schänke", "phone": "+493021025106", "toilets:wheelchair": "no", "wheelchair": "no", "wheelchair:description": "Biergaststätte mit Biergarten in der ersten Etage, kein Aufzug oder Rampe"}}, {"type": "node", "id": 1763903215, "lat": 52.510887, "lon": 13.4173873, "tags": {"addr:city": "Berlin", "addr:country": "DE", "addr:housenumber": "74", "addr:postcode": "10179", "addr:street": "Köpenicker Straße", "addr:suburb": "Mitte", "amenity": "biergarten", "name": "republik-berlin", "opening_hours": "Su-Tu 15:00-23:00; We-Sa 15:00-01:00", "website": "https://republik-berlin.de/", "wheelchair": "no"}}, {"type": "node", "id": 1861543922, "lat": 52.4735935, "lon": 13.4581489, "tags": {"amenity": "biergarten", "name": "Estrel Biergarten", "opening_hours": "Mo-Su 12:00-24:00", "wheelchair": "no"}}, {"type": "node", "id": 1907437298, "lat": 52.5545195, "lon": 13.4570315, "tags": {"amenity": "biergarten", "name": "Sommergarten Königin Luise", "opening_hours": "Mo-Sa 15:00-18:00+, Su 14:00-18:00+", "wheelchair": "no"}}, {"type": "node", "id": 2121135269, "lat": 52.4471256, "lon": 13.3165307, "tags": {"addr:city": "Berlin", "addr:country": "DE", "addr:housenumber": "2", "addr:postcode": "12203", "addr:street": "Marschnerstraße", "addr:suburb": "Lichterfelde", "amenity": "biergarten", "name": "Gulliver", "opening_hours": "We-Mo 15:00-22:00; Tu off"}}, {"type": "node", "id": 2293407394, "lat": 52.6064316, "lon": 13.5623373, "tags": {"addr:city": "Ahrensfelde", "addr:country": "DE", "addr:housenumber": "49", "addr:postcode": "16356", "addr:street": "Gudrunstraße", "addr:suburb": "Neu-Lindenberg", "amenity": "biergarten", "name": "Gaststätte Lindenstübchen", "phone": "+49 30 9418770", "toilets:wheelchair": "no", "tourism": "guest_house", "wheelchair": "limited"}}, {"type": "node", "id": 2572205659, "lat": 52.4847401, "lon": 13.3929184, "tags": {"amenity": "biergarten", "wheelchair": "no"}}, {"type": "node", "id": 2713948988, "lat": 52.4284094, "lon": 13.1224528, "tags": {"amenity": "biergarten", "name": "Zur Pfaueninsel", "wheelchair": "limited"}}, {"type": "node", "id": 2820136908, "lat": 52.4699958, "lon": 13.483844, "tags": {"addr:city": "Berlin", "addr:country": "DE", "addr:housenumber": "281", "addr:postcode": "12437", "addr:street": "Kiefholzstraße", "addr:suburb": "Baumschulenweg", "amenity": "biergarten", "contact:email": "gartenlokal@littlepopo.de", "contact:phone": "+49 157 37475083", "name": "Little Popo in der KGA zur Linde", "opening_hours": "Sa-Th 15:00-24:00;Fr-Su 12:00-24:00", "operator": "Ralph Benes", "source": "Geoportal Berlin / Hauskoordinaten"}}, {"type": "node", "id": 2997206233, "lat": 52.5013953, "lon": 13.2085304, "tags": {"amenity": "biergarten", "name": "Alte Liebe", "opening_hours": "We-Su 13:00-21:00", "wheelchair": "no"}}, {"type": "node", "id": 3695148772, "lat": 52.6195227, "lon": 13.3048615, "tags": {"amenity": "biergarten", "cuisine": "german", "name": "Arnos Biergarten", "opening_hours": "Mo-Fr 16:00-24:00+; Sa 12:00-24:00+; Su off"}}, {"type": "node", "id": 4926338321, "lat": 52.4885223, "lon": 13.277003, "tags": {"amenity": "biergarten", "contact:mobile": "+49 176 32605789", "contact:phone": "+49 30 6251014", "contact:website": "https://biergarten-am-herthasee.com", "name": "Biergarten am Herthasee", "opening_hours": "Mo-Fr 15:00-22:00, Sa-Su 12:00-22:00"}}, {"type": "node", "id": 4946021958, "lat": 52.4389002, "lon": 13.3004552, "tags": {"amenity": "biergarten"}}, {"type": "node", "id": 4969998321, "lat": 52.509477, "lon": 13.4300877, "tags": {"amenity": "biergarten", "image": "https://photos.app.goo.gl/4miQqKJ5ZEFDG8H98", "name": "Yaam", "wheelchair": "limited", "wheelchair:description": "Sandiger fester Boden"}}, {"type": "node", "id": 5107182643, "lat": 52.4778088, "lon": 13.448756, "tags": {"addr:housenumber": "165", "addr:postcode": "12059", "addr:street": "Sonnenallee", "amenity": "biergarten", "email": "info@hertzberg-golf.de", "name": "Hertzberg Golf", "opening_hours": "Tu-Fr 14:00-21:00; Sa-Su 11:00-21:00", "phone": "+49 176 93698551", "website": "https://www.hertzberg-golf.de/"}}, {"type": "node", "id": 5526313920, "lat": 52.3728059, "lon": 13.3946901, "tags": {"addr:housenumber": "45", "addr:street": "Arcostraße", "amenity": "biergarten", "cuisine": "bavarian", "name": "Waldstübchen", "outdoor_seating": "yes", "website": "https://www.waldstuebchen-mahlow.de/"}}, {"type": "node", "id": 6058229925, "lat": 52.5059319, "lon": 13.4423637, "tags": {"amenity": "biergarten", "check_date:opening_hours": "2022-12-11", "name": "Lorettas Biergarten", "opening_hours:signed": "no", "outdoor_seating": "yes", "wheelchair": "yes"}}, {"type": "node", "id": 6777268885, "lat": 52.6386606, "lon": 13.4902868, "tags": {"addr:street": "Wiltbergstraße", "amenity": "biergarten", "name:signed": "no", "opening_hours:signed": "no"}}, {"type": "node", "id": 7470855979, "lat": 52.394785, "lon": 13.2381646, "tags": {"amenity": "biergarten", "operator": "McDonalds"}}, {"type": "node", "id": 7946130647, "lat": 52.4778716, "lon": 13.1962051, "tags": {"amenity": "biergarten", "name": "Kaisergarten"}}, {"type": "node", "id": 7946203034, "lat": 52.5752451, "lon": 13.6693041, "tags": {"amenity": "biergarten"}}, {"type": "node", "id": 7968208886, "lat": 52.4214548, "lon": 13.1761353, "tags": {"amenity": "biergarten"}}, {"type": "node", "id": 8319379070, "lat": 52.5924352, "lon": 13.32604, "tags": {"addr:city": "Berlin", "addr:housenumber": "36a", "addr:postcode": "13437", "addr:street": "Alt-Wittenau", "amenity": "biergarten", "brewery": "yes", "food": "yes", "name": "Zur Dorf-Quelle", "opening_hours": "Tu-Sa 14:00-22:00; Mo off; Su 14:00-22:00", "website": "https://dorf-quelle.de/", "wheelchair": "limited"}}, {"type": "node", "id": 8330198887, "lat": 52.6069179, "lon": 13.3640831, "tags": {"addr:city": "Berlin", "addr:housenumber": "102", "addr:postcode": "13439", "addr:street": "Quickborner Straße", "amenity": "biergarten", "contact:facebook": "https://facebook.com/tinisinn/", "email": "tinibini11@hotmail.de", "name": "Tinis Inn", "phone": "+49 163 8766728"}}, {"type": "node", "id": 8544292187, "lat": 52.6195607, "lon": 13.3048613, "tags": {"amenity": "biergarten", "name": "Arnos Biergarten", "opening_hours": "Mo-Fr 16:00-24:00+; Sa 12:00-24:00+; Su off"}}, {"type": "node", "id": 9014983201, "lat": 52.4830643, "lon": 13.5237671, "tags": {"addr:housenumber": "52", "addr:street": "Gundelfinger Straße", "amenity": "biergarten", "name": "Gundelfinger", "opening_hours": "Mo-Fr 11:00-23:00; Sa 16:00-23:00", "smoking": "yes", "wheelchair": "yes"}}, {"type": "node", "id": 9038024709, "lat": 52.6289656, "lon": 13.3646149, "tags": {"amenity": "biergarten", "opening_hours": "Fr 14:00-20:00; Sa-Su 12:00-20:00"}}, {"type": "node", "id": 9448539845, "lat": 52.4844806, "lon": 13.4581169, "tags": {"amenity": "biergarten", "operator": "Berliner Berg GmbH", "smoking": "separated", "start_date": "2021-06"}}, {"type": "node", "id": 9552043698, "lat": 52.5996962, "lon": 13.5556405, "tags": {"addr:city": "Ahrensfelde", "addr:country": "DE", "addr:housenumber": "90", "addr:postcode": "16356", "addr:street": "Birkholzer Allee", "addr:suburb": "Neu-Lindenberg", "amenity": "biergarten", "name": "Karins Bierstube", "opening_hours": "Mo-Fr 16:00-22:00; Sa,Su 08:00-22:00; We off", "operator": "Anita Woite", "phone": "+49 177 4825863; +49 30 94396818", "toilets:wheelchair": "no", "tourism": "guest_house", "wheelchair": "no"}}, {"type": "node", "id": 9741742487, "lat": 52.6072897, "lon": 13.3194398, "tags": {"amenity": "biergarten", "name": "Kindl Stübl", "opening_hours": "Fr,Sa 13:00-18:00+; Su 13:00-20:00; Mo,We,Th 13:00-22:00; Tu off"}}, {"type": "node", "id": 9813921660, "lat": 52.5301176, "lon": 13.3828824, "tags": {"addr:city": "Berlin", "addr:housenumber": "116", "addr:postcode": "10115", "addr:street": "Chausseestraße", "amenity": "biergarten", "name": "Biergarten Speisekombinat", "opening_hours": "Mo-Fr 11:30-23:00; Sa-Su 16:00-23:00", "outdoor_seating": "yes", "phone": "+493028406949", "smoking": "yes", "website": "https://www.speise-kombinat.de/biergarten"}}, {"type": "node", "id": 9912640154, "lat": 52.5251183, "lon": 13.3488206, "tags": {"addr:city": "Berlin", "addr:country": "DE", "addr:housenumber": "25", "addr:postcode": "10559", "addr:street": "Alt-Moabit", "addr:suburb": "Moabit", "amenity": "biergarten", "brewery": "berliner_kindl", "name": "Biergarten am Kleinen Tiergarten", "opening_hours": "We-Su 15:00-23:00", "outdoor_seating": "only", "wheelchair": "limited", "wheelchair:description": "Boden zum Teil gepflastert, aber größtenteils Rindenmulch."}}]}