{"version": 0.6, "generator": "Overpass API 0.7.61.5 4133829e", "osm3s": {"timestamp_osm_base": "2024-01-02T22:21:00Z", "copyright": "The data included in this document is from www.openstreetmap.org. The data is made available under ODbL."}, "elements": [{"type": "node", "id": 262991419, "lat": 52.4262221, "lon": 13.7420676, "tags": {"amenity": "community_centre", "name": "Jugendclub Erkner \"Haus am See\"", "operator": "Future e.V.", "website": "http://www.jugendclub-erkner.de"}}, {"type": "node", "id": 266630320, "lat": 52.51314, "lon": 13.6120626, "tags": {"addr:city": "Berlin", "addr:country": "DE", "addr:housenumber": "91", "addr:postcode": "12623", "addr:street": "Hönower Straße", "addr:suburb": "Mahlsdorf", "amenity": "community_centre", "name": "Buergeramt Mahlsdorf", "wheelchair": "yes"}}, {"type": "node", "id": 268915262, "lat": 52.5310025, "lon": 13.3415438, "tags": {"addr:city": "Berlin", "addr:country": "DE", "addr:housenumber": "22", "addr:postcode": "10551", "addr:street": "Wilhelmshavener Straße", "addr:suburb": "Moabit", "amenity": "community_centre", "check_date:opening_hours": "2023-10-01", "community_centre": "youth_centre", "community_centre:for": "juvenile", "contact:phone": "+49 30 39035516", "contact:website": "http://karame.de/", "description": "Arabische Jugendeinrichtung", "name": "Karame e.V.", "opening_hours": "Mo-Fr 13:00-18:00; Sa-Su,PH off", "wheelchair": "no"}}, {"type": "node", "id": 268915306, "lat": 52.4888821, "lon": 13.4193079, "tags": {"addr:city": "Berlin", "addr:country": "DE", "addr:housenumber": "5", "addr:postcode": "10967", "addr:street": "Jahnstraße", "addr:suburb": "Kreuzberg", "amenity": "community_centre", "community_centre:for": "child", "contact:website": "https://www.koop-verbund.de/koop-schülerläden/biberzahn/", "name": "Biberzahn", "operator": "Kooperationsverbund Reinhardswald Grundschule e.V.", "wheelchair": "no"}}, {"type": "node", "id": 268915454, "lat": 52.5238851, "lon": 13.3489832, "tags": {"addr:city": "Berlin", "addr:country": "DE", "addr:housenumber": "4", "addr:postcode": "10557", "addr:street": "Kirchstraße", "addr:suburb": "Moabit", "amenity": "community_centre", "community_centre": "youth_centre", "name": "K3 Kiez-Kids-Klub", "operator": "Frecher Spatz e. V.", "website": "http://www.frecherspatz.de/index.php/home", "wheelchair": "no"}}, {"type": "node", "id": 268917395, "lat": 52.504397, "lon": 13.3096797, "tags": {"addr:city": "Berlin", "addr:housenumber": "59/60", "addr:postcode": "10629", "addr:street": "Niebuhrstraße", "amenity": "community_centre", "community_centre:for": "lgbtq", "fax": "+49 233 690 98", "health_facility:type": "counselling_centre", "lgbtq": "primary", "name": "Schwulenberatung Berlin", "opening_hours": "Mo-Fr 09:00-20:00", "phone": "+49 233 690 70", "provided_for:homosexual": "yes", "website": "https://schwulenberatungberlin.de/", "wheelchair": "yes"}}, {"type": "node", "id": 270742541, "lat": 52.5426247, "lon": 13.3760831, "tags": {"addr:city": "Berlin", "addr:housenumber": "24", "addr:postcode": "13347", "addr:street": "Neue Hochstraße", "amenity": "community_centre", "check_date": "2023-04-07", "community_centre": "social_centre", "name": "Max und Marek", "opening_hours:signed": "no", "operator": "Clubberer 04 Berlin und Brandenburg e.V.", "operator:type": "community", "website": "https://clubberer04.de/max-und-marek/", "wheelchair": "no"}}, {"type": "node", "id": 270919303, "lat": 52.436796, "lon": 13.2133169, "tags": {"addr:city": "Berlin", "addr:country": "DE", "addr:housenumber": "25", "addr:postcode": "14129", "addr:street": "Kaiserstuhlstraße", "addr:suburb": "Schlachtensee", "amenity": "community_centre", "club": "scout", "community_centre": "club_home", "community_centre:for": "juvenile", "contact:website": "https://www.stamm-kimbern.com/", "name": "Stamm Kimbern", "operator": "BdP Landesverband Berlin-Brandenburg e.V."}}, {"type": "node", "id": 302942536, "lat": 52.5565128, "lon": 13.2192364, "tags": {"addr:city": "Berlin", "addr:country": "DE", "addr:housenumber": "4", "addr:postcode": "13587", "addr:street": "Hugo-Cassirer-Straße", "addr:suburb": "Hakenfelde", "amenity": "community_centre", "name": "Medienpoint Spandau", "opening_hours": "Mo-Fr 09:00-16:00; PH,Sa,Su off", "wheelchair": "yes"}}, {"type": "node", "id": 313200688, "lat": 52.392421, "lon": 13.0913974, "tags": {"access": "yes", "amenity": "community_centre", "community_centre": "cultural_centre", "community_centre:for": "multigeneration", "contact:email": "kulturhaus@awo-potsdam.de", "contact:fax": "+49 331 704 9263", "contact:phone": "+49 331 704 9262", "contact:website": "https://www.kulturhausbabelsberg.de/", "entrance": "main", "name": "AWO Kulturhaus Babelsberg", "operator": "Arbeiterwohlfahrt Bezirksverband Potsdam e.V.", "operator:short": "AWO Bezirksverband Potsdam e.V.", "operator:type": "cooperative", "ref": "135", "wikidata": "Q105103639"}}, {"type": "node", "id": 323241391, "lat": 52.518601, "lon": 13.4217379, "tags": {"amenity": "community_centre", "name": "WG Solidarität Mitgliedertreff", "opening_hours:signed": "no", "operator": "WG Solidarität e.G.", "wheelchair": "no"}}, {"type": "node", "id": 352783755, "lat": 52.5401363, "lon": 13.4788778, "tags": {"addr:city": "Berlin", "addr:country": "DE", "addr:postcode": "13053", "addr:street": "Steffenstraße", "addr:suburb": "Alt-Hohenschönhausen", "amenity": "community_centre", "club": "sport", "community_centre": "club_home", "name": "BFC Dynamo Vereinsheim", "sport": "soccer", "wheelchair": "yes"}}, {"type": "node", "id": 401864244, "lat": 52.4015333, "lon": 13.5704821, "tags": {"amenity": "community_centre", "community_centre": "cultural_centre", "community_centre:for": "multigeneration", "name": "Kulturküche Bohnsdorf", "operator": "Kulturrings in Berlin e.V", "phone": "+49 30 67896191", "website": "https://www.berlin.de/ba-treptow-koepenick/politik-und-verwaltung/aemter/amt-fuer-weiterbildung-und-kultur/kultur/artikel.90675.php", "wheelchair": "yes"}}, {"type": "node", "id": 411724432, "lat": 52.487144, "lon": 13.3896483, "tags": {"amenity": "community_centre", "description": "Jugendzentrum", "disused": "yes", "name": "DTK-Wasserturm", "operator": "DTK", "website": "https://dtk-wasserturm.de"}}, {"type": "node", "id": 573381068, "lat": 52.5122632, "lon": 13.4701477, "tags": {"addr:city": "Berlin", "addr:country": "DE", "addr:housenumber": "29", "addr:postcode": "10247", "addr:street": "Weichselstraße", "addr:suburb": "Friedrichshain", "amenity": "community_centre", "name": "einLaden", "opening_hours": "Mo,Th 16:00-18:00", "operator": "Berliner Stadtmission", "wheelchair": "no"}}, {"type": "node", "id": 615607326, "lat": 52.4798006, "lon": 13.4501349, "tags": {"amenity": "community_centre", "description": "A space for noncommerical meetings", "name": "Open Tiny", "operator": "Open Tiny e.V.", "operator:type": "private_non_profit", "website": "https://opentiny.de/"}}, {"type": "node", "id": 638750039, "lat": 52.5009791, "lon": 13.4657857, "tags": {"addr:city": "Berlin", "addr:country": "DE", "addr:housenumber": "6-8", "addr:postcode": "10245", "addr:street": "Laskerstraße", "addr:suburb": "Friedrichshain", "amenity": "community_centre", "check_date:opening_hours": "2021-06-25", "community_centre": "youth_centre", "community_centre:for": "juvenile", "contact:website": "http://zope2.in-berlin.de:8100/wsb/elok/", "name": "Jugendclub E-Lok", "opening_hours": "Tu-We 13:00-19:00; Th 15:00-24:00; Fr 14:00-21:00; Sa 14:00-20:00", "wheelchair": "limited"}}, {"type": "node", "id": 653797109, "lat": 52.4477346, "lon": 13.4496581, "tags": {"amenity": "community_centre", "check_date:opening_hours": "2023-05-16", "name": "Seniorenfreizeitstätte Bruno-Taut", "opening_hours:signed": "no", "wheelchair": "no"}}, {"type": "node", "id": 660820001, "lat": 52.5443562, "lon": 13.3273403, "tags": {"amenity": "community_centre", "club": "sport", "community_centre": "club_home", "contact:website": "http://www.scwedding-berlin.de/", "name": "Schwimm-Club Wedding", "short_name": "SC Wedding", "sport": "swimming", "wikidata": "Q2205597", "wikipedia": "de:SC Wedding Berlin"}}, {"type": "node", "id": 665072785, "lat": 52.4936415, "lon": 13.4397016, "tags": {"access": "yes", "addr:city": "Berlin", "addr:country": "DE", "addr:housenumber": "4", "addr:postcode": "10999", "addr:street": "Ratiborstraße", "addr:suburb": "Kreuzberg", "alt_name": "Weltraum - Nachbarschaftsladen", "amenity": "community_centre", "contact:email": "andreas@kiezwandler.de", "contact:email_1": "kiezwandler@transition-berlin-brandenburg.de", "contact:name": "Andreas Teuchert", "contact:phone": "+49 30 61652466", "contact:website": "http://www.kiezweltraum.de", "description": "offener Raum für die Nachbarschaft - durch Spenden und selbstgewählte Beiträge finanziert - für Treffen, Workshops, Angebote etc. im Sinne einer nachhaltigen, solidarischen Alltagskultur", "fee": "no", "identity": "solidarity_economy;transition_initiative;demonetized_economy;commons;p2p_economy", "indoor": "yes", "interaction": "bartering;lending;gifting;cousing;diy_and_dit", "internet_access": "wlan", "internet_access:fee": "no", "mode_of_organisation:decision_making": "wer Verantwortung übernimmt, entscheidet, regelmäßige Unterstützer*innen haben Veto", "mode_of_organisation:hierarchy_chef": "wer Verantwortung übernimmt, entscheidet, regelmäßige Unterstützer*innen haben Veto", "mode_of_organisation:members": "users", "mode_of_organisation:ownership_structure": "Miete; wer Verantwortung übernimmt, entscheidet", "mode_of_organisation:purpose": "non_profit", "mode_of_organisation:scale_of_activity": "regional", "mode_of_organisation:self_managed": "yes", "name": "Weltraum Kiezladen für nachhaltige Alltagskultur", "operator": "Kiezwandler in Kreuzberg (Transition Town Ini.)", "owner": "Kiezwandler in Kreuzberg", "payment:cash": "yes", "payment:donations": "yes", "production_input:knowledge:free_licence": "yes", "production_input:knowledge:p2p_licence": "yes", "production_input:knowledge:public_domain": "yes", "production_input:money:crowdfunding": "yes", "production_input:money:gift": "yes", "production_input:natural_recources:democratic": "yes", "production_input:natural_recources:fair": "yes", "production_input:natural_recources:regional": "partially", "production_input:natural_resources:sustainable": "yes", "production_input:supply_chain:fair": "partially", "production_input:work:ilo_standards": "no", "provides": "culture;safety;spaces;objects_of_utility;learning_opportunities;community;participation", "smoking": "no", "smoking:outside": "yes", "source": "Solikon 2015", "start_date": "2009", "wheelchair": "limited", "wheelchair:description": "Straßenniveau, aber 1 Stufe"}}, {"type": "node", "id": 687038533, "lat": 52.5148305, "lon": 13.4907784, "tags": {"addr:city": "Berlin", "addr:country": "DE", "addr:housenumber": "2", "addr:postcode": "10365", "addr:street": "Schottstraße", "addr:suburb": "Lichtenberg", "amenity": "community_centre", "check_date": "2023-06-03", "community_centre": "cultural_centre", "community_centre:for": "child;family", "contact:website": "https://www.aufatmen-lichtenberg.de", "description": "Interkulturelles Begegnunszentrum", "drink:coffee": "yes", "name": "aufatmen", "opening_hours": "Mo-Fr 14:00-18:00", "operator": "ora Kinderhilfe international e.V.", "second_hand": "yes", "wheelchair": "yes"}}, {"type": "node", "id": 775814877, "lat": 52.5049903, "lon": 13.407098, "tags": {"addr:city": "Berlin", "addr:country": "DE", "addr:housenumber": "72", "addr:postcode": "10969", "addr:street": "Oranienstraße", "addr:suburb": "Kreuzberg", "amenity": "community_centre", "check_date:opening_hours": "2022-07-29", "community_centre": "events_venue", "contact:website": "http://www.bona-peiser.de/", "name": "Bona Peiser", "opening_hours:signed": "no", "wheelchair": "yes"}}, {"type": "node", "id": 791236061, "lat": 52.5139341, "lon": 13.449925, "tags": {"amenity": "community_centre", "name": "Regenbogenhaus", "note": "Freizeit- und Kulturhaus für Kinder, Jugendliche und Familien", "opening_hours": "Mo-Fr 12:30-18:30"}}, {"type": "node", "id": 799000082, "lat": 52.4986179, "lon": 13.4165594, "tags": {"addr:city": "Berlin", "addr:country": "DE", "addr:housenumber": "6", "addr:postcode": "10999", "addr:street": "Skalitzer Straße", "addr:suburb": "Kreuzberg", "amenity": "community_centre", "check_date": "2022-11-16", "community_centre": "cultural_centre", "level": "0", "name": "Aquarium", "toilets:wheelchair": "yes", "wheelchair": "yes"}}, {"type": "node", "id": 803941786, "lat": 52.5127904, "lon": 13.4497773, "tags": {"addr:city": "Berlin", "addr:country": "DE", "addr:housenumber": "16", "addr:postcode": "10243", "addr:street": "Grünberger Straße", "addr:suburb": "Friedrichshain", "amenity": "community_centre", "check_date:opening_hours": "2023-11-30", "contact:email": "info@x-hain.de", "contact:twitter": "@xHain_hackspace", "contact:website": "https://x-hain.de/", "internet_access": "wlan", "leisure": "hackerspace", "name": "xHain", "opening_hours": "Mo 18:00-24:00", "toilets:wheelchair": "no", "wheelchair": "limited", "wikidata": "Q42721163"}}, {"type": "node", "id": 831742345, "lat": 52.5644125, "lon": 13.0943579, "tags": {"amenity": "community_centre", "community_centre:for": "juvenile", "name": "Saftladen", "website": "http://www.saftladen-falkensee.wg.am/"}}, {"type": "node", "id": 874307702, "lat": 52.5019625, "lon": 13.4185606, "tags": {"addr:city": "Berlin", "addr:country": "DE", "addr:housenumber": "34", "addr:postcode": "10999", "addr:street": "Oranienstraße", "addr:suburb": "Kreuzberg", "amenity": "community_centre", "community_centre": "cultural_centre", "contact:website": "https://ora34.de/", "name": "Ora 34", "operator": "ORA34 e.V."}}, {"type": "node", "id": 876244330, "lat": 52.5016984, "lon": 13.4214087, "tags": {"amenity": "community_centre", "community_centre": "community_hall", "name": "Naunyn 65"}}, {"type": "node", "id": 876249655, "lat": 52.5010192, "lon": 13.4227444, "tags": {"addr:city": "Berlin", "addr:country": "DE", "addr:housenumber": "72", "addr:postcode": "10997", "addr:street": "Naunynstraße", "addr:suburb": "Kreuzberg", "amenity": "community_centre", "community_centre": "cultural_centre", "community_centre:for": "women", "contact:website": "http://www.frauenzentrum-schokofabrik.de/", "name": "Schokofabrik", "operator": "Frauenzentrum Schokoladenfabrik e.V."}}, {"type": "node", "id": 930202350, "lat": 52.4625692, "lon": 13.4707961, "tags": {"addr:city": "Berlin", "addr:country": "DE", "addr:housenumber": "129", "addr:postcode": "12057", "addr:street": "Neuköllnische Allee", "addr:suburb": "Neukölln", "amenity": "community_centre", "community_centre": "youth_centre", "community_centre:for": "juvenile", "contact:email": "team@the-corner.de", "contact:fax": "+49 30 68054937", "contact:phone": "+49 30 68054936", "contact:website": "http://www.the-corner.de", "name": "Jugendtreff TheCorner", "operator": "Evangelischer Kirchenkreis Neukölln", "wheelchair": "yes"}}, {"type": "node", "id": 990218933, "lat": 52.4776993, "lon": 13.4240706, "tags": {"addr:housenumber": "53", "addr:street": "Weisestraße", "amenity": "community_centre", "email": "funke@dielunte.de", "name": "Stadtteil- & Infoladen Lunte", "phone": "+49 30 622 32 34", "toilets:wheelchair": "no", "website": "https://www.dielunte.de/", "wheelchair": "limited"}}, {"type": "node", "id": 1092142199, "lat": 52.496875, "lon": 13.4078199, "tags": {"addr:city": "Berlin", "addr:country": "DE", "addr:housenumber": "1", "addr:postcode": "10969", "addr:street": "Prinzenstraße", "addr:suburb": "Kreuzberg", "amenity": "community_centre", "community_centre:for": "juvenile", "description": "Jugendfreizeit- und Kulturzentrum", "name": "Statthaus-Böcklerpark", "website": "https://kma-ev.de/index.php?id=13", "wheelchair": "limited"}}, {"type": "node", "id": 1172686632, "lat": 52.5199801, "lon": 13.450862, "tags": {"addr:city": "Berlin", "addr:country": "DE", "addr:housenumber": "48", "addr:postcode": "10249", "addr:street": "Mühsamstraße", "addr:suburb": "Friedrichshain", "amenity": "community_centre", "check_date": "2021-06-21", "check_date:opening_hours": "2022-10-05", "community_centre": "youth_centre", "community_centre:for": "juvenile", "name": "Beatbox", "opening_hours:signed": "no", "wheelchair": "limited"}}, {"type": "node", "id": 1252447304, "lat": 52.542353, "lon": 13.3593081, "tags": {"addr:housenumber": "19", "addr:street": "Sparrstraße", "amenity": "community_centre", "check_date": "2022-12-12", "email": "kontakt@konfliktagentur.de", "level": "0", "name": "Konfliktagentur im Sprengelkiez", "opening_hours": "Tu-We 15:00-18:00; Th 18:00-20:00", "phone": "+49 30 347 174 48", "website": "https://www.konfliktagentur.de/", "wheelchair": "limited"}}, {"type": "node", "id": 1254190259, "lat": 52.5874353, "lon": 13.2766078, "tags": {"amenity": "community_centre", "community_centre": "community_hall", "community_centre:for": "senior", "internet_access": "wlan", "internet_access:fee": "no", "name": "Seniorentreffpunkt Tegel", "wheelchair": "yes"}}, {"type": "node", "id": 1256403115, "lat": 52.5147567, "lon": 13.444885, "tags": {"amenity": "community_centre", "name": "Begegnungszentrum INTEGRAL e.V.", "opening_hours": "Mo-Su 14:00-19:00", "website": "http://www.integral-berlin.de/integral/begegnungszentrum/", "wheelchair": "yes"}}, {"type": "node", "id": 1293994860, "lat": 52.5062673, "lon": 13.3922587, "tags": {"addr:city": "Berlin", "addr:country": "DE", "addr:housenumber": "85", "addr:postcode": "10969", "addr:street": "Charlottenstraße", "addr:suburb": "Kreuzberg", "amenity": "community_centre", "community_centre:for": "senior", "name": "Seniorenfreizeitstätte Charlottenstraße 85", "opening_hours": "10:00-18:00", "operator": "Bezirksamt Kreuzberg von Berlin - Abt. Sozialwesen", "wheelchair": "yes"}}, {"type": "node", "id": 1425304968, "lat": 52.5015972, "lon": 13.3605167, "tags": {"amenity": "community_centre", "name": "Nachbarschaftshaus"}}, {"type": "node", "id": 1445349887, "lat": 52.425368, "lon": 13.4621999, "tags": {"addr:city": "Berlin", "addr:country": "DE", "addr:housenumber": "1", "addr:postcode": "12353", "addr:street": "Bat-Yam-Platz", "addr:suburb": "Gropiusstadt", "amenity": "community_centre", "email": "gemeinschaftshaus.gropiusstadt@bezirksamt-neukoelln.de", "fax": "+49 30 902 39 14 20", "name": "Gemeinschaftshaus Gropiusstadt", "opening_hours": "Tu-Sa 10:00-21:00", "phone": "+49 30 902 39 14 13", "toilets:wheelchair": "yes", "wheelchair": "limited", "wikidata": "Q108651018"}}, {"type": "node", "id": 1471943097, "lat": 52.5443776, "lon": 13.4249634, "tags": {"addr:city": "Berlin", "addr:country": "DE", "addr:housenumber": "17", "addr:postcode": "10437", "addr:street": "Ahlbecker Straße", "addr:suburb": "Prenzlauer Berg", "amenity": "community_centre", "community_centre": "meeting_room", "contact:website": "https://www.bgff.de/", "name": "BGFF", "operator": "BGFF e.V. – Berliner Gesellschaft für Förderung interkultureller Bildung und Erziehung", "operator:type": "ngo"}}, {"type": "node", "id": 1505584114, "lat": 52.5841064, "lon": 13.2770771, "tags": {"addr:city": "Berlin", "addr:country": "DE", "addr:housenumber": "22-24", "addr:postcode": "13507", "addr:street": "Eisenhammerweg", "addr:suburb": "Tegel", "amenity": "community_centre", "club": "sport", "community_centre": "club_home", "contact:email": "Ruder-Riege.TVW@Hotmail.de", "contact:phone": "+49 30 4334320", "contact:website": "http://ruder-riege-tvw.de", "name": "Ruder-Riege Turnverein Waidmannslust", "operator": "TV Waidmannslust e.V.", "sport": "rowing", "wheelchair": "no"}}, {"type": "node", "id": 1507901344, "lat": 52.4613814, "lon": 13.429655, "tags": {"addr:city": "Berlin", "addr:country": "DE", "addr:postcode": "12347", "addr:street": "Friedrichsbrunner Straße", "amenity": "community_centre", "description": "Cocas e.V. Berlin - Club für Behinderte und Nichtbehinderte", "name": "COCAS e.V."}}, {"type": "node", "id": 1555601455, "lat": 52.5265613, "lon": 13.4274014, "tags": {"addr:city": "Berlin", "addr:country": "DE", "addr:housenumber": "11", "addr:postcode": "10249", "addr:street": "Weinstraße", "addr:suburb": "Friedrichshain", "amenity": "community_centre", "name": "Satellit"}}, {"type": "node", "id": 1647185508, "lat": 52.4823741, "lon": 13.4368178, "tags": {"addr:city": "Berlin", "addr:housenumber": "7", "addr:postcode": "12043", "addr:street": "Schönstedtstraße", "amenity": "community_centre", "culture": "kleinkunst", "name": "Altes Finanzamt", "website": "https://altesfinanzamtcollective.net"}}, {"type": "node", "id": 1650642850, "lat": 52.5392346, "lon": 13.3881073, "tags": {"addr:city": "Berlin", "addr:country": "DE", "addr:housenumber": "16", "addr:postcode": "13355", "addr:street": "Jasmunder Straße", "addr:suburb": "Gesundbrunnen", "amenity": "community_centre", "name": "Quartiersmanagement Brunnenviertel - Ackerstraße", "opening_hours": "Mo-Fr 08:30-20:00;Sa,Su,PH off", "website": "https://www.stm-ackerstrasse.de/"}}, {"type": "node", "id": 1654365784, "lat": 52.538242, "lon": 13.2058211, "tags": {"amenity": "community_centre", "community_centre": "parish_hall", "name": "Gemeindesaal Ev. Kirchengemeinde St. Nikolai", "wheelchair": "limited", "wheelchair:description": "nach Rampe fragen"}}, {"type": "node", "id": 1681600329, "lat": 52.5260831, "lon": 13.3057531, "tags": {"addr:city": "Berlin", "addr:country": "DE", "addr:housenumber": "19", "addr:postcode": "10589", "addr:street": "Mierendorffplatz", "addr:suburb": "Charlottenburg", "amenity": "community_centre", "name": "Nachbarschaftsladen Mierendorffplatz", "wheelchair": "yes", "wheelchair:description": "auf der Rückseite rollstuhlgerechter Eingang"}}, {"type": "node", "id": 1703460022, "lat": 52.5720492, "lon": 13.5024287, "tags": {"addr:city": "Berlin", "addr:country": "DE", "addr:housenumber": "1b", "addr:postcode": "13051", "addr:street": "Ribnitzer Straße", "addr:suburb": "Neu-Hohenschönhausen", "amenity": "community_centre", "contact:facebook": "http://de-de.facebook.com/pages/Nachbarschaftshaus-im-Ostseeviertel/120396648060184", "image": "http://i.imgur.com/F2UPil.jpg", "name": "Nachbarschaftshaus im Ostseeviertel", "toilets:wheelchair": "yes", "wheelchair": "yes"}}, {"type": "node", "id": 1745568158, "lat": 52.470975, "lon": 13.4309683, "tags": {"addr:city": "Berlin", "addr:country": "DE", "addr:housenumber": "40", "addr:postcode": "12053", "addr:street": "Jonasstraße", "addr:suburb": "Neukölln", "amenity": "community_centre", "name": "FAQ Infoladen", "name:de": "FAQ Infoladen", "name:en": "FAQ Infoladen", "website": "https://faq-infoladen.org/", "wheelchair": "limited", "wheelchair:description": "EG, ca 7cm Stufe am Eingang, mobile Eigenbau-Rampe verfügbar, Türschwellen teils angeschrägt, WC mit breiter Falttür und Haltegriffen"}}, {"type": "node", "id": 1762943006, "lat": 52.5057583, "lon": 13.3936764, "tags": {"addr:city": "Berlin", "addr:country": "DE", "addr:housename": "Festsaal", "addr:housenumber": "67", "addr:postcode": "10969", "addr:street": "Markgrafenstraße", "addr:suburb": "Kreuzberg", "amenity": "community_centre", "name": "Gloria Event Center", "operator": "Gloria Festsaal GmbH & Co. KG"}}, {"type": "node", "id": 1791368627, "lat": 52.4785137, "lon": 13.4212269, "tags": {"addr:city": "Berlin", "addr:country": "DE", "addr:housenumber": "1", "addr:postcode": "12049", "addr:street": "Schillerpromenade", "addr:suburb": "Neukölln", "amenity": "community_centre", "community_centre": "meeting_room", "community_centre:for": "homosexual", "contact:phone": "+49 30 6214753", "contact:website": "http://rut-berlin.de/", "gay:women": "only", "name": "Rad und Tat", "opening_hours": "Tu,We,Fr 10:00-14:00; Th 15:00-19:00", "operator": "Ru T- Rad und Tat - Offene Initiative Lesbischer Frauen e.V.", "short_name": "RuT", "toilets:wheelchair": "yes", "wheelchair": "limited", "wheelchair:description": "Rampe, Hintereingang gut für E-Rolli, rollstuhlgerechte Toilette, barrierearm"}}, {"type": "node", "id": 1874472286, "lat": 52.5840475, "lon": 13.2771995, "tags": {"addr:city": "Berlin", "addr:country": "DE", "addr:housenumber": "22", "addr:postcode": "13507", "addr:street": "Eisenhammerweg", "addr:suburb": "Tegel", "amenity": "community_centre", "club": "sport", "community_centre": "club_home", "contact:email": "info@ntvev.de", "contact:website": "https://www.ntvev.de/", "name": "Nordberliner Tauchverein", "operator": "Nordberliner Tauchverein e.V.", "sport": "scuba_diving"}}, {"type": "node", "id": 1891361728, "lat": 52.4732169, "lon": 13.3072159, "tags": {"addr:city": "Berlin", "addr:housenumber": "25", "addr:postcode": "14197", "addr:street": "Schlangenbader Straße", "amenity": "community_centre", "name": "InternetTreff Schlange", "opening_hours": "Mo-Th 09:00-16:00; Fr 09:00-12:30,13:30-16:00", "operator": "AKolleg e.V.", "phone": "+49 30 89749180", "website": "https://www.internettreff-schlange.de/", "wheelchair": "limited", "wheelchair:description": "Rollstuhlgerechtes WC fehlt"}}, {"type": "node", "id": 1915697585, "lat": 52.4998069, "lon": 13.3550034, "tags": {"addr:city": "Berlin", "addr:country": "DE", "addr:housenumber": "106", "addr:postcode": "10783", "addr:street": "Bülowstraße", "addr:suburb": "Schöneberg", "amenity": "community_centre", "community_centre:for": "homosexual", "contact:email": "info@mann-o-meter.de", "contact:fax": "+49 30 2157078", "contact:phone": "+49 30 2168008", "email": "info@mann-o-meter.de", "fax": "+49 30 2157078", "gay": "yes", "lgbtq": "primary", "lgbtq:men": "primary", "name": "Mann-O-Meter e.V.", "opening_hours": "Tu-Fr 17:00-22:00; Sa 16:00-20:00", "phone": "+49 30 2168008", "website": "https://www.mann-o-meter.de/", "wheelchair": "yes", "wikidata": "Q1890555", "wikipedia": "de:Mann-O-Meter"}}, {"type": "node", "id": 1923424966, "lat": 52.5289007, "lon": 13.4250691, "tags": {"addr:city": "Berlin", "addr:housenumber": "4", "addr:postcode": "10405", "addr:street": "Greifswalder Straße", "amenity": "community_centre", "community_centre": "cultural_centre", "contact:email": "kontakt@hausderdemokratie.de", "contact:fax": "+49 30 2041263", "contact:mastodon": "@hausderdemokratie@climatejustice.rocks", "contact:phone": "+49 30 2043506", "contact:website": "https://www.hausderdemokratie.de/", "image": "File:Haus der Demokratie und Menschenrechte.jpg", "name": "Haus der Demokratie und Menschenrechte", "office": "ngo", "opening_hours": "Mo-Fr 12:00-15:00", "operator": "Stiftung Haus der Demokratie und Menschenrechte", "toilets:wheelchair": "yes", "wheelchair": "limited", "wikidata": "Q1590740", "wikimedia_commons": "Category:Haus der Demokratie und Menschenrechte", "wikipedia": "de:Haus der Demokratie und Menschenrechte"}}, {"type": "node", "id": 1929519705, "lat": 52.4374457, "lon": 13.3754837, "tags": {"addr:city": "Berlin", "addr:country": "DE", "addr:housenumber": "42/43", "addr:postcode": "12107", "addr:street": "Lankwitzer Straße", "amenity": "community_centre", "community_centre": "events_venue", "contact:email": "info@quaelgeist.sm", "contact:phone": "+49 30 69519650", "contact:website": "https://www.quaelgeist-berlin.de/", "fetish:bdsm": "yes", "fetish:bears": "yes", "fetish:leather": "yes", "fetish:rubber": "yes", "fetish:sneakers": "yes", "fetish:uniform": "yes", "gay": "yes", "lgbtq": "primary", "name": "Quälgeist", "note": "Bitte NICHT mit amenity=nightclub taggen! Danke!", "operator": "Quälgeist Berlin e.V."}}, {"type": "node", "id": 1979393516, "lat": 52.4784535, "lon": 13.4246389, "tags": {"addr:city": "Berlin", "addr:country": "DE", "addr:housename": "H48", "addr:housenumber": "48", "addr:postcode": "12049", "addr:street": "Hermannstraße", "addr:suburb": "Neukölln", "alt_name": "H48-Projektraum", "amenity": "community_centre", "name": "H48", "operator": "Verein zur Förderung nachbarschaftlicher Vernetzung e.V.", "toilets:wheelchair": "yes", "website": "https://projektraum.h48.de/", "wheelchair": "yes"}}, {"type": "node", "id": 1984032061, "lat": 52.4948934, "lon": 13.5073396, "tags": {"amenity": "community_centre", "check_date": "2023-04-09", "community_centre": "youth_centre", "community_centre:for": "juvenile", "name": "Jugendclub Betonoase", "opening_hours": "\"Je nach Programm\"", "wheelchair": "yes"}}, {"type": "node", "id": 2058457544, "lat": 52.5323202, "lon": 13.4243514, "tags": {"addr:city": "Berlin", "addr:country": "DE", "addr:housenumber": "8/I", "addr:postcode": "10405", "addr:street": "Immanuelkirchstraße", "addr:suburb": "Prenzlauer Berg", "amenity": "community_centre", "community_centre": "cultural_centre", "contact:phone": "+49 30 44024336", "contact:website": "http://www.gfajev.de/", "internet_access": "terminal", "name": "Kaffee Immanet", "opening_hours": "Mo-Fr 08:00-21:00", "operator": "GFAJ e.V.", "wheelchair": "yes"}}, {"type": "node", "id": 2061641253, "lat": 52.533516, "lon": 13.3598282, "tags": {"addr:city": "Berlin", "addr:country": "DE", "addr:housenumber": "30", "addr:postcode": "10557", "addr:street": "Lehrter Straße", "addr:suburb": "Moabit", "amenity": "community_centre", "check_date": "2023-04-19", "name": "B-Laden", "opening_hours": "Mo,Th 15:00-18:00", "operator": "Für eine Billige Prachtstraße – Lehrter Straße e.V.", "website": "https://lehrter-strasse-berlin.net/b-laden/", "wheelchair": "limited", "wheelchair:description": "Rampe auf Anfrage"}}, {"type": "node", "id": 2125027803, "lat": 52.5468526, "lon": 13.3666534, "tags": {"addr:city": "Berlin", "addr:country": "DE", "addr:housenumber": "1", "addr:postcode": "13347", "addr:street": "Prinz-Eugen-Straße", "addr:suburb": "Wedding", "amenity": "community_centre", "check_date": "2023-07-21", "contact:phone": "+49 30 74746347", "name": "Quartiersmanagement Pankstraße", "opening_hours": "Mo-Fr 09:00-16:00", "toilets:wheelchair": "no", "website": "https://www.pankstrasse-quartier.de/", "wheelchair": "yes", "wheelchair:description": "Rampe vorhanden, aber steil. WCs ebenerdig/bei Restgefaehigkeit erreichbar"}}, {"type": "node", "id": 2135948949, "lat": 52.6063239, "lon": 13.4211171, "tags": {"addr:city": "Berlin", "addr:country": "DE", "addr:housenumber": "32", "addr:postcode": "13127", "addr:street": "Rosenthaler Weg", "addr:suburb": "Französisch Buchholz", "amenity": "community_centre", "community_centre": "community_hall", "community_centre:for": "neighbourhood", "contact:website": "https://www.amtshaus-buchholz.de/", "name": "Nachbarschaftszentrum Amtshaus Buchholz", "opening_hours": "Tu 11:00-13:00, 14:00-16:00; Th 14:00-18:00", "operator": "Bürgerhaus BüHa gGmbH"}}, {"type": "node", "id": 2285840288, "lat": 52.5594987, "lon": 13.3826265, "tags": {"addr:city": "Berlin", "addr:country": "DE", "addr:housenumber": "76", "addr:postcode": "13359", "addr:street": "Soldiner Straße", "addr:suburb": "Gesundbrunnen", "amenity": "community_centre", "check_date": "2023-07-17", "community_centre:for": "family", "description": "Familienförderzentrum im Soldiner Kiez", "name": "Panke-Haus", "toilets:wheelchair": "yes", "website": "https://www.panke-haus.de/", "wheelchair": "yes", "wheelchair:description": "Hat eine Rampe durch die Aktion www.tausendundeinerampe.de - Einfach danach fragen."}}, {"type": "node", "id": 2301610385, "lat": 52.551674, "lon": 13.3656044, "tags": {"alt_name": "A.J.A.S.A e.V.", "amenity": "community_centre", "check_date": "2023-08-06", "community_centre:for": "migrant", "name": "Association des Jeunes Africains et Sympathisants en Allemagne e.V."}}, {"type": "node", "id": 2302170223, "lat": 52.5239299, "lon": 13.3495626, "tags": {"addr:city": "Berlin", "addr:country": "DE", "addr:housenumber": "24", "addr:postcode": "10557", "addr:street": "Kirchstraße", "addr:suburb": "Moabit", "amenity": "community_centre", "check_date": "2023-11-09", "community_centre": "club_home", "community_centre:for": "athlete", "contact:website": "http://psv-delphin.de", "description": "Vereinsheim Schwimmverein", "name": "Polizeisportverein Delphin 1889", "wheelchair": "limited"}}, {"type": "node", "id": 2349327403, "lat": 52.5194238, "lon": 13.3944978, "tags": {"addr:city": "Berlin", "addr:country": "DE", "addr:housenumber": "12", "addr:postcode": "10117", "addr:street": "Dorotheenstraße", "addr:suburb": "Mitte", "amenity": "community_centre", "community_centre": "cultural_centre", "contact:website": "https://culture.hu/de/berlin", "name": "Collegium Hungaricum Berlin", "short_name": "CHB", "wheelchair": "no", "wheelchair:description": "keine einzige Stufe, saubere rollstuhlegrechte Toilette", "wikidata": "Q20438765", "wikimedia_commons": "Category:Collegium Hungaricum Berlin"}}, {"type": "node", "id": 2424240176, "lat": 52.4929721, "lon": 13.4075946, "tags": {"addr:city": "Berlin", "addr:country": "DE", "addr:housenumber": "21", "addr:postcode": "10961", "addr:street": "Urbanstraße", "addr:suburb": "Kreuzberg", "amenity": "community_centre", "community_centre": "community_hall", "contact:email": "gekko@nachbarschaftshaus.de", "contact:phone": "+49 30 6904970", "contact:website": "http://www.nachbarschaftshaus.de", "name": "Nachbarschaftshaus Urbanstraße", "note": "Wir bieten einen Mittagstisch von Mo-Sa in der Zeit von 12:30 - 13:30 Uhr. Anmeldung muss spätestens einen Tag vorher erfolgen. Anmeldung: 030/690 497 18", "toilets:wheelchair": "yes", "wheelchair": "yes", "wheelchair:description": "Hat einen Aufzug und eine rollstuhlgerechte Toilette"}}, {"type": "node", "id": 2453941446, "lat": 52.5036993, "lon": 13.4566784, "tags": {"addr:city": "Berlin", "addr:country": "DE", "addr:housenumber": "14a", "addr:postcode": "10245", "addr:street": "Rudolfstraße", "addr:suburb": "Friedrichshain", "amenity": "community_centre", "check_date:opening_hours": "2022-12-04", "community_centre:for": "child", "max_age": "14", "min_age": "6", "name": "Kinderfreizeiteinrichtung \"Die Nische\"", "opening_hours": "Tu-Fr 13:00-19:00; Sa 10:00-16:00", "phone": "+49 30 29666902", "website": "https://www.berliner-stadtmission.de/nische"}}, {"type": "node", "id": 2466026757, "lat": 52.5140118, "lon": 13.4498748, "tags": {"addr:city": "Berlin", "addr:country": "DE", "addr:housenumber": "9", "addr:postcode": "10243", "addr:street": "Kadiner Straße", "addr:suburb": "Friedrichshain", "amenity": "community_centre", "name": "Phantalisa Mädchentreff"}}, {"type": "node", "id": 2477831959, "lat": 52.5314112, "lon": 13.4080249, "tags": {"addr:city": "Berlin", "addr:country": "DE", "addr:housenumber": "92", "addr:postcode": "10119", "addr:street": "Fehrbelliner Straße", "addr:suburb": "Prenzlauer Berg", "amenity": "community_centre", "community_centre": "village_hall", "contact:website": "https://stz-prenzlauerberg.de", "name": "Stadtteilzentrum Prenzlauer Berg", "operator": "Pfefferwerk Stadtkultur gGmbH"}}, {"type": "node", "id": 2510436108, "lat": 52.572545, "lon": 13.499949, "tags": {"addr:city": "Berlin", "addr:country": "DE", "addr:housenumber": "8", "addr:postcode": "13051", "addr:street": "Am Berl", "addr:suburb": "Neu-Hohenschönhausen", "amenity": "community_centre", "description": "Kinder- und Familienzentrum", "name": "KiFaZ \"Leuchtturm\"", "operator": "Verein für aktive Vielfalt e.V."}}, {"type": "node", "id": 2545211461, "lat": 52.4919408, "lon": 13.3527071, "tags": {"addr:city": "Berlin", "addr:housenumber": "65", "addr:postcode": "10781", "addr:street": "Barbarossastraße", "amenity": "community_centre", "community_centre": "community_hall", "contact:email": "kiezoase@pfh-berlin.de", "contact:phone": "+49 30 21730202", "contact:website": "https://www.kiezoase.de/", "name": "Nachbarschafts- und Familienzentrum Kiezoase", "opening_hours": "Mo-Th 10:00-13:00, 14:00-18:00 open \"Kiezcafé\"; Fr 10:00-13:00 open \"Kiezcafé\"; Mo-We 16:00-18:00 open \"Offene Familiennachmittage mit Waffeln im Kiezcafé\"", "website": "https://www.kiezoase.de/", "wheelchair": "limited", "wheelchair:description": "Hintereingang"}}, {"type": "node", "id": 2669875657, "lat": 52.5095544, "lon": 13.2993257, "tags": {"addr:city": "Berlin", "addr:country": "DE", "addr:housenumber": "61-62", "addr:postcode": "10627", "addr:street": "Schillerstraße", "addr:suburb": "Charlottenburg", "amenity": "community_centre", "community_centre": "community_hall", "name": "Kinder- und Familienzentrum Schillerstraße", "website": "https://www.pfh-berlin.de/kinder-und-jugendhilfe/kitas/schillerstrasse", "wheelchair": "no"}}, {"type": "node", "id": 2683167189, "lat": 52.5481641, "lon": 13.3670511, "tags": {"addr:city": "Berlin", "addr:country": "DE", "addr:housenumber": "8", "addr:postcode": "13347", "addr:street": "Schererstraße", "addr:suburb": "Wedding", "amenity": "community_centre", "community_centre": "meeting_room", "contact:website": "https://hausprojektsch8.noblogs.org", "name": "Scherer 8 Infoladen"}}, {"type": "node", "id": 2725091329, "lat": 52.5230987, "lon": 13.3171584, "tags": {"addr:city": "Berlin", "addr:country": "DE", "addr:housenumber": "2", "addr:postcode": "10553", "addr:street": "Neues Ufer", "addr:suburb": "Moabit", "amenity": "community_centre", "community_centre": "club_home", "contact:website": "http://www.spvgg-tiergarten.de/", "name": "SpVgg Tiergarten 58", "operator": "SpVgg Tiergarten 58 e.V."}}, {"type": "node", "id": 2733888750, "lat": 52.516288, "lon": 13.4421638, "tags": {"amenity": "community_centre", "community_centre:for": "juvenile", "name": "Alte Feuerwache Kulturhaus Friedrichshain"}}, {"type": "node", "id": 2742447826, "lat": 52.5274809, "lon": 13.334913, "tags": {"addr:city": "Berlin", "addr:country": "DE", "addr:housenumber": "47", "addr:postcode": "10551", "addr:street": "Oldenburger Straße", "addr:suburb": "Moabit", "amenity": "community_centre", "club": "scout", "community_centre": "club_home", "name": "DPSG Stamm St. Paulus", "website": "http://www.dpsg-st-paulus.de", "wheelchair": "no"}}, {"type": "node", "id": 2746781111, "lat": 52.4495046, "lon": 13.3384643, "tags": {"addr:city": "Berlin", "addr:country": "DE", "addr:housenumber": "81a", "addr:postcode": "12167", "addr:street": "Albrechtstraße", "addr:suburb": "Steglitz", "amenity": "community_centre", "community_centre": "parish_hall", "name": "Evangelische Markusgemeinde", "operator": "Evangelische Markus-Kirchengemeinde Berlin-Steglitz", "website": "https://www.markus-gemeinde.de/"}}, {"type": "node", "id": 2752211174, "lat": 52.5560608, "lon": 13.392065, "tags": {"addr:city": "Berlin", "addr:country": "DE", "addr:housenumber": "72", "addr:postcode": "13359", "addr:street": "Grüntaler Straße", "addr:suburb": "Gesundbrunnen", "amenity": "community_centre", "check_date:opening_hours": "2023-04-18", "community_centre": "youth_centre", "name": "Lecker Wissen", "opening_hours:signed": "no", "operator": "Gourmello e.V.", "wheelchair": "no"}}, {"type": "node", "id": 2820325612, "lat": 52.4772767, "lon": 13.4328767, "tags": {"addr:city": "Berlin", "addr:country": "DE", "addr:housenumber": "18A", "addr:postcode": "12053", "addr:street": "Morusstraße", "amenity": "community_centre", "name": "Haus der Begegnung"}}, {"type": "node", "id": 2820325661, "lat": 52.4771862, "lon": 13.4292067, "tags": {"addr:city": "Berlin", "addr:country": "DE", "addr:housenumber": "26", "addr:postcode": "12053", "addr:street": "Falkstraße", "addr:suburb": "Neukölln", "amenity": "community_centre", "community_centre": "youth_centre", "community_centre:for": "girl", "contact:email": "madonnamaedchenpower@web.de", "contact:fax": "+49 30 6212048", "contact:phone": "+49 30 6212043", "contact:website": "http://www.madonnamaedchenpower.de/", "name": "MaDonna Mädchentreff", "opening_hours": "Mo-Fr 13:30-19:30; Sa 15:00-19:00"}}, {"type": "node", "id": 2820325689, "lat": 52.4747529, "lon": 13.4351913, "tags": {"addr:city": "Berlin", "addr:country": "DE", "addr:housenumber": "30", "addr:postcode": "12053", "addr:street": "Mittelweg", "addr:suburb": "Neukölln", "amenity": "community_centre", "community_centre": "youth_centre", "community_centre:for": "child;juvenile", "contact:phone": "+49 30 6873173", "contact:website": "http://www.lessinghoehe.net/", "max_age": "18", "min_age": "6", "name": "Kinder- und Jugendzentrum Lessinghöhe", "opening_hours": "Mo-Fr 14:00-19:00 \"für Kinder\", Sa 14:00-18:00 \"für Kinder\"; Mo,Th,Sa 14:00-20:00 \"für Jugendliche\", Tu,We 14:00-21:00 \"für Jugendliche\", Fr 14:00-22:00 \"für Jugendliche\"", "source": "Geoportal Berlin / Hauskoordinaten"}}, {"type": "node", "id": 2849544101, "lat": 52.5987793, "lon": 13.3440049, "tags": {"addr:city": "Berlin", "addr:country": "DE", "addr:suburb": "Märkisches Viertel", "amenity": "community_centre", "fax": "+49 30 41745753", "name": "Selbsthilfe-Stadtteilzentrum Reinickendorf", "opening_hours": "Tu 14:00-17:00; Th 14:00-18:00; Fr 11:00-14:00", "operator": "Unionhilfswerk", "phone": "+49 30 4164842", "website": "https://www.unionhilfswerk.de/angebote/beratung-unterstuetzung/selbsthilfe-und-stadtteilzentren.html"}}, {"type": "node", "id": 2853431184, "lat": 52.5388603, "lon": 13.205852, "tags": {"amenity": "community_centre", "check_date": "2023-05-27", "name": "Gemeindebüro Ev. Kirchengemeinde St. Nikolai"}}, {"type": "node", "id": 2867830669, "lat": 52.5713041, "lon": 13.2135616, "tags": {"addr:city": "Berlin", "addr:country": "DE", "addr:housename": "Freizeitstätte Aalemannufer", "addr:housenumber": "30", "addr:postcode": "13587", "addr:street": "Niederneuendorfer Allee", "addr:suburb": "Hakenfelde", "amenity": "community_centre", "community_centre": "youth_centre", "community_centre:for": "child;juvenile", "phone": "+49 30 35599070", "source": "Geoportal Berlin / Hauskoordinaten", "website": "http://www.jfe-aalemannufer.de"}}, {"type": "node", "id": 2872719794, "lat": 52.51791, "lon": 13.1689045, "tags": {"addr:city": "Berlin", "addr:country": "DE", "addr:housenumber": "41", "addr:postcode": "13593", "addr:street": "Sandstraße", "addr:suburb": "Staaken", "amenity": "community_centre", "community_centre": "cultural_centre", "contact:email": "info@kulturzentrum-staaken.de", "contact:fax": "+49 30 36435127", "contact:phone": "+49 30 36435143", "contact:website": "https://www.kulturzentrum-staaken.de/", "name": "Kulturzentrum Staaken", "opening_hours": "Mo-Fr 09:00 - 19:00 || \"Veranstaltungen\"", "opening_hours:signed": "no", "operator": "Chance - Bildung, Jugend und Sport BJS gGmbH"}}, {"type": "node", "id": 2874686039, "lat": 52.4968743, "lon": 13.3639711, "tags": {"addr:city": "Berlin", "addr:country": "DE", "addr:housenumber": "68", "addr:postcode": "10783", "addr:street": "Steinmetzstraße", "addr:suburb": "Schöneberg", "amenity": "community_centre", "check_date": "2020-12-24", "contact:email": "steinmetz@pfh-berlin.de", "contact:fax": "+49 30 21993543", "contact:phone": "+49 30 23608688", "contact:website": "https://www.pfh-berlin.de/de/steinmetz", "name": "Nachbarschaftszentrum Steinmetzstraße", "opening_hours": "Mo 09:00-16:00; Tu-Th 09:00-18:00; Fr 09:00-19:00; Sa 11:00-17:00"}}, {"type": "node", "id": 2886088366, "lat": 52.4781898, "lon": 13.5231008, "tags": {"addr:city": "Berlin", "addr:country": "DE", "addr:housenumber": "9", "addr:postcode": "10318", "addr:street": "Eginhardstraße", "addr:suburb": "Karlshorst", "amenity": "community_centre", "community_centre": "family_centre", "email": "post@potpourri-karlshorst.de", "name": "Potpourri", "opening_hours": "Mo-Fr 09:00-18:00; Sa,Su \"individuell nach Veranstaltung\"", "operator": "EJF gAG", "phone": "+49 30 501 59 328", "source": "Geoportal Berlin / Hauskoordinaten", "website": "https://www.potpourri-karlshorst.de/", "wheelchair": "yes"}}, {"type": "node", "id": 2894923665, "lat": 52.4829447, "lon": 13.3534482, "tags": {"addr:city": "Berlin", "addr:country": "DE", "addr:housenumber": "10", "addr:postcode": "10827", "addr:street": "Prinz-Georg-Straße", "addr:suburb": "Schöneberg", "amenity": "community_centre", "name": "Book Connections", "opening_hours": "Tu-Fr 11:00-17:00; Sa 11:00-15:00; Su,Mo off", "website": "http://www.book-connections.de"}}, {"type": "node", "id": 2925991302, "lat": 52.4934454, "lon": 13.3951363, "tags": {"amenity": "community_centre", "name": "Die Epilog e. V.", "website": "https://die-epilog.de"}}, {"type": "node", "id": 2935650706, "lat": 52.642074, "lon": 13.2888431, "tags": {"addr:city": "Berlin", "addr:country": "DE", "addr:housenumber": "11B", "addr:postcode": "13465", "addr:street": "Schönfließer Straße", "addr:suburb": "Frohnau", "amenity": "community_centre", "club": "scout", "community_centre": "club_home", "contact:facebook": "https://www.facebook.com/PfadfinderFrohnau/", "contact:website": "https://www.pfadfinder-frohnau.de/", "description": "Jungenschaft Gawan und Mädelschaft Ginover", "name": "Pfadfinder Frohnau", "network": "Deutscher Pfadfinderbund"}}, {"type": "node", "id": 2953839038, "lat": 52.5713501, "lon": 13.3494052, "tags": {"addr:city": "Berlin", "addr:country": "DE", "addr:housenumber": "113", "addr:postcode": "13407", "addr:street": "Romanshorner Weg", "addr:suburb": "Reinickendorf", "amenity": "community_centre", "description": "Angebote für Kinder aus sozialschwachen Familien: warmes Essen, Hausaufgabenbetreuung, Freizeitgestaltung, Feiern usw.", "email": "reinickendorf@kinderprojekt-arche.de", "fax": "+49 30 49872105", "name": "Die Arche", "phone": "+49 30 49872104", "source": "Geoportal Berlin / Hauskoordinaten", "website": "https://kinderprojekt-arche.eu/standorte/berlin-reinickendorf"}}, {"type": "node", "id": 2960443362, "lat": 52.4261793, "lon": 13.7427225, "tags": {"addr:city": "Erkner", "addr:country": "DE", "addr:housenumber": "2", "addr:street": "Zum Freibad", "amenity": "community_centre", "name": "Future e.V.", "website": "www.future-ev.com"}}, {"type": "node", "id": 2967364834, "lat": 52.5377219, "lon": 13.2870543, "tags": {"addr:city": "Berlin", "addr:country": "DE", "addr:housenumber": "18", "addr:postcode": "13627", "addr:street": "Halemweg", "addr:suburb": "Charlottenburg-Nord", "amenity": "community_centre", "community_centre:for": "juvenile", "contact:phone": "+49 30 902925268", "contact:phone:booking": "+49 30 902925260", "contact:website": "http://www.stadtteilverein.eu/jugendclub-halemweg.html", "name": "Jugendclub Halemweg", "opening_hours": "Su,Mo off;Tu-Fr 14:00-21:00;Sa 11:00-19:00", "operator": "Stadtteilverein Tiergarten e.V.", "wheelchair": "yes"}}, {"type": "node", "id": 2967436533, "lat": 52.5186446, "lon": 13.2879049, "tags": {"addr:city": "Berlin", "addr:country": "DE", "addr:housenumber": "65", "addr:postcode": "14059", "addr:street": "Spandauer Damm", "addr:suburb": "Charlottenburg", "amenity": "community_centre", "community_centre:for": "girl", "description": "LiSA e.V. - Mädchen- und Frauenladen für interkulturelle Sozialarbeit", "name": "LiSA Interkultureller Mädchentreff", "phone": "+49 30 322 66 09", "wheelchair": "no"}}, {"type": "node", "id": 2968390833, "lat": 52.4959594, "lon": 13.3254953, "tags": {"addr:city": "Berlin", "addr:country": "DE", "addr:housenumber": "3", "addr:postcode": "10719", "addr:street": "Düsseldorfer Straße", "amenity": "community_centre", "community_centre:for": "girl", "contact:website": "https://www.pfh-berlin.de/de/D3-Maedchentreff", "name": "D3 Mädchentreff", "operator": "Pestalozzi-Fröbel-Haus Stiftung des öffentlichen Rechts", "wheelchair": "limited"}}, {"type": "node", "id": 2968409133, "lat": 52.4934792, "lon": 13.3069398, "tags": {"addr:city": "Berlin", "addr:country": "DE", "addr:housenumber": "16 A", "addr:postcode": "10709", "addr:street": "Westfälische Straße", "addr:suburb": "Wilmersdorf", "amenity": "community_centre", "community_centre": "youth_centre", "community_centre:for": "juvenile", "contact:website": "http://nusz.de/start/kinder-und-jugend-freizeitstaetten/jugend-und-kulturzentrum-spirale/", "name": "Jugend- und Kulturzentrum \"Spirale\"", "wheelchair": "limited"}}, {"type": "node", "id": 2968412433, "lat": 52.4948825, "lon": 13.3195254, "tags": {"addr:city": "Berlin", "addr:country": "DE", "addr:housenumber": "52", "addr:postcode": "10719", "addr:street": "Emser Straße", "amenity": "community_centre", "community_centre": "youth_centre", "community_centre:for": "juvenile", "name": "JugendTechnikSchule City - West - Motorwerkstatt", "operator": "Technische Jugendfreizeit- und Bildungsgesellschaft (tjfbg) gGmbH", "website": "https://www.jugendtechnikschule.de/", "wheelchair": "limited"}}, {"type": "node", "id": 2968414034, "lat": 52.4746176, "lon": 13.303721, "tags": {"addr:city": "Berlin", "addr:country": "DE", "addr:housenumber": "11", "addr:postcode": "14197", "addr:street": "Rudolf-Mosse-Straße", "addr:suburb": "Wilmersdorf", "amenity": "community_centre", "community_centre:for": "child;juvenile", "contact:website": "http://www.schreberjugend.berlin/de/einrichtungen/mosse/insideout", "name": "In Side Out Kinder- und Jugendzentrum", "operator": "Deutsche Schreberjugend Landesverband Berlin e.V.", "toilets:wheelchair": "no", "wheelchair": "no"}}, {"type": "node", "id": 2968518334, "lat": 52.4863509, "lon": 13.2831037, "tags": {"addr:city": "Berlin", "addr:country": "DE", "addr:housenumber": "25A", "addr:postcode": "14193", "addr:street": "Herthastraße", "addr:suburb": "Grunewald", "amenity": "community_centre", "community_centre": "community_hall", "community_centre:for": "senior", "name": "Seniorenclub", "opening_hours": "Mo-Fr 09:00-17:00; Sa,Su,PH off", "smoking": "no", "website": "https://wilmersdorfer-seniorenstiftung.de/seniorenclubs/", "wheelchair": "yes"}}, {"type": "node", "id": 3021117606, "lat": 52.5372245, "lon": 13.6188701, "tags": {"addr:city": "Berlin", "addr:country": "DE", "addr:housenumber": "42", "addr:postcode": "12627", "addr:street": "Albert-Kuntz-Straße", "addr:suburb": "Hellersdorf", "amenity": "community_centre", "community_centre:for": "multigeneration", "email": "stz-hellersdorf-ost@ev-mittendrin.de", "fax": "+49 30 9988160", "name": "Stadtteilzentrum Hellersdorf-Ost", "opening_hours": "Mo,Tu 09:00-17:00, We,Th 09:00-19:00, Fr 09:00-16:00; PH off", "operator": "MITTENDRIN leben e.V.", "phone": "+49 30 99498691", "source": "Geoportal Berlin / Hauskoordinaten", "website": "https://www.ev-mittendrin.de/stadtteilzentrum-hellersdorf-ost/"}}, {"type": "node", "id": 3039474305, "lat": 52.5678655, "lon": 13.7274595, "tags": {"addr:city": "Altlandsberg", "addr:housenumber": "1", "addr:postcode": "15345", "addr:street": "Krummenseestraße", "amenity": "community_centre", "entrance": "main", "image": "http://commons.wikimedia.org/wiki/File:Altlandsberg_manor.jpg", "name": "Gutshaus Altlandsberg", "operator": "Stadt Altlandsberg", "phone": "+49 33438 15622", "toilets:wheelchair": "yes", "website": "https://www.altlandsberg.de/index.php?page=gutshaus", "wheelchair": "yes"}}, {"type": "node", "id": 3043349524, "lat": 52.4779147, "lon": 13.4214261, "tags": {"addr:city": "Berlin", "addr:country": "DE", "addr:housenumber": "4", "addr:postcode": "12049", "addr:street": "Schillerpromenade", "addr:suburb": "Neukölln", "amenity": "community_centre", "check_date:opening_hours": "2022-07-04", "community_centre": "cultural_centre", "contact:email": "top@top-ev.de", "contact:facebook": "https://www.facebook.com/toplabs/", "contact:website": "http://www.top-ev.de/", "name": ">top", "opening_hours:signed": "no", "operator": ">top e.V.", "wheelchair": "yes"}}, {"type": "node", "id": 3073274852, "lat": 52.4986184, "lon": 13.4439494, "tags": {"addr:city": "Berlin", "addr:country": "DE", "addr:housenumber": "13-14", "addr:postcode": "10997", "addr:street": "Cuvrystraße", "addr:suburb": "Kreuzberg", "alt_name": "Familienzentrum Wrangelkiez", "amenity": "community_centre", "community_centre": "family_centre", "community_centre:for": "family", "contact:email": "familienzentrum-wrangelkiez@pfh-berlin.de", "contact:website": "http://familienzentrum-wrangelkiez.de/", "name": "Kiezanker 36", "operator": "Pestalozzi-Fröbel-Haus", "wheelchair": "limited"}}, {"type": "node", "id": 3149431449, "lat": 52.5419063, "lon": 13.3548544, "tags": {"addr:city": "Berlin", "addr:country": "DE", "addr:housenumber": "15", "addr:postcode": "13353", "addr:street": "Sprengelstraße", "addr:suburb": "Wedding", "amenity": "community_centre", "name": "Sprengelhaus", "opening_hours": "Mo,Tu 09:00-12:00,13:00-16:00; Th 13:00-16:00; Fr 09:00-12:00,13:00-15:00", "website": "https://sprengelhaus-wedding.de/"}}, {"type": "node", "id": 3151470261, "lat": 52.5130913, "lon": 13.4647705, "tags": {"addr:city": "Berlin", "addr:country": "DE", "addr:housenumber": "25", "addr:postcode": "10247", "addr:street": "Scharnweberstraße", "addr:suburb": "Friedrichshain", "amenity": "community_centre", "name": "FamoX Familien- und Bildungszentrum", "wheelchair": "yes"}}, {"type": "node", "id": 3222398571, "lat": 52.5564102, "lon": 13.2195233, "tags": {"amenity": "community_centre", "community_centre:for": "juvenile", "name": "Jugendtreff Havelspitze", "website": "http://www.jugendtreff-havelspitze.de/", "wheelchair": "yes"}}, {"type": "node", "id": 3222407468, "lat": 52.5617249, "lon": 13.2093052, "tags": {"amenity": "community_centre", "community_centre": "family_centre", "contact:email": "villanova@kompaxx.de", "contact:phone": "+49 30 33776116", "contact:website": "https://kompaxx.de/familienfoerderung/famz-villa-nova/", "name": "Familienzentrum VillaNova", "wheelchair": "limited"}}, {"type": "node", "id": 3240152763, "lat": 52.5119999, "lon": 13.4040307, "tags": {"addr:city": "Berlin", "addr:country": "DE", "addr:housenumber": "10", "addr:postcode": "10179", "addr:street": "Fischerinsel", "addr:suburb": "Mitte", "amenity": "community_centre", "community_centre": "club_home", "community_centre:for": "senior", "description": "Seniorinnen und Senioren gestalten das Clubleben, Workshops und Vorträge in eigener Regie.\nSoziokultureller Treffpunkt im Kiez", "name": "SeniorenComputerClub Berlin-Mitte", "opening_hours": "\"Bitte unter 030 27 57 91 10 erfragen\"", "opening_hours:covid19": "restricted", "operator": "Kreativhaus e.V.", "operator:type": "ngo", "phone": "+49 30 27579110", "short_name": "SCC Berlin-Mitte", "start_date": "2008-12", "website": "https://www.scc-berlin-mitte.de/", "wheelchair": "limited"}}, {"type": "node", "id": 3269393584, "lat": 52.5443534, "lon": 13.5583113, "tags": {"addr:city": "Berlin", "addr:housenumber": "23", "addr:postcode": "12685", "addr:street": "Alt-Marzahn", "addr:suburb": "Marzahn", "amenity": "community_centre", "name": "KulturGut Alt-Marzahn", "operator": "Agrarbörse Deutschland Ost e.V.", "toilets:wheelchair": "yes", "website": "https://www.agrar-boerse-ev.de/kulturgut.html", "wheelchair": "limited"}}, {"type": "node", "id": 3275537568, "lat": 52.518857, "lon": 13.4581654, "tags": {"amenity": "community_centre", "community_centre:for": "juvenile", "name": "Jugendclub Liebig 19", "opening_hours": "Mo-Fr 15:00-21:00", "wheelchair": "no"}}, {"type": "node", "id": 3426756293, "lat": 52.4418936, "lon": 13.5823443, "tags": {"addr:city": "Berlin", "addr:housenumber": "103-105", "addr:postcode": "12557", "addr:street": "Wendenschloßstraße", "addr:suburb": "Köpenick", "amenity": "community_centre", "community_centre": "events_venue", "name": "Hauptmanns-Klub 103,5", "phone": "+49 30 650 75 483", "toilets:wheelchair": "yes", "website": "http://www.klub103-5.de", "wheelchair": "yes", "wheelchair:description": "Selbstdarstellung: Behindertengerecht"}}, {"type": "node", "id": 3494395181, "lat": 52.5030829, "lon": 13.4105768, "tags": {"amenity": "community_centre", "name": "Nachbarschaftsakademie Prinzessinnengarten", "wheelchair": "limited"}}, {"type": "node", "id": 3570845410, "lat": 52.4688058, "lon": 13.3278031, "tags": {"addr:city": "Berlin", "addr:country": "DE", "addr:housenumber": "73", "addr:postcode": "12161", "addr:street": "Stubenrauchstraße", "addr:suburb": "Friedenau", "amenity": "community_centre", "check_date": "2023-08-12", "community_centre:for": "child", "description": "Workshops und Kurse für holz- und werkzeuginteressierte Kinder ab 5 Jahren", "name": "Holzklasse", "operator:type": "private_for_profit", "toilets:wheelchair": "no", "website": "https://www.holzklasse.berlin/", "wheelchair": "no"}}, {"type": "node", "id": 3576749846, "lat": 52.4440035, "lon": 13.5658705, "tags": {"amenity": "community_centre", "check_date": "2023-05-30", "name": "Werner-Sylten-Saal", "operator": "Evangelische Sankt-Laurentius-Kirchengemeinde Köpenick", "wheelchair": "no"}}, {"type": "node", "id": 3576905957, "lat": 52.443833, "lon": 13.5645953, "tags": {"amenity": "community_centre", "community_centre:for": "family", "name": "Familienzentrum Rudower Straße", "website": "http://www.berliner-familienzentren.de", "wheelchair": "yes"}}, {"type": "node", "id": 3576905958, "lat": 52.443802, "lon": 13.5644695, "tags": {"amenity": "community_centre", "community_centre:for": "multigeneration", "name": "Mehrgenerationenhaus Köpenick", "website": "https://www.mehrgenerationenhaeuser.de/kiez-und-familienzentrum-spindlersfeld-kollnische-vorstadt", "wheelchair": "yes"}}, {"type": "node", "id": 3633912243, "lat": 52.4376309, "lon": 13.3449306, "tags": {"addr:city": "Berlin", "addr:housenumber": "85", "addr:postcode": "12247", "addr:street": "Leonorenstraße", "addr:suburb": "Lankwitz", "amenity": "community_centre", "community_centre": "community_hall", "internet_access": "wlan", "name": "Nachbarschaftszentrum Lankwitz", "operator": "Mittelhof", "website": "http://stz-südost.de/"}}, {"type": "node", "id": 3689275512, "lat": 52.4914496, "lon": 13.4461868, "tags": {"addr:city": "Berlin", "addr:housenumber": "18", "addr:postcode": "12435", "addr:street": "Krüllsstraße", "addr:suburb": "Alt-Treptow", "amenity": "community_centre", "community_centre": "meeting_room", "contact:website": "https://www.christus-treff-berlin.de/projektladen/", "name": "Projekt: Laden", "operator": "Prego e.V.", "wheelchair": "no"}}, {"type": "node", "id": 3722082431, "lat": 52.4745685, "lon": 13.3037132, "tags": {"addr:city": "Berlin", "addr:country": "DE", "addr:housenumber": "11", "addr:postcode": "14197", "addr:street": "Rudolf-Mosse-Straße", "addr:suburb": "Wilmersdorf", "amenity": "community_centre", "community_centre:for": "family", "contact:website": "http://www.schreberjugend.berlin/de/einrichtungen/mosse/familiencafe", "name": "Familien-Café „Emilie & Rudolf“", "operator": "Deutsche Schreberjugend Landesverband Berlin e.V."}}, {"type": "node", "id": 3724606383, "lat": 52.3814764, "lon": 13.2111984, "tags": {"addr:city": "Stahnsdorf", "addr:country": "DE", "addr:housenumber": "53", "addr:postcode": "14532", "addr:street": "Güterfelder Damm", "amenity": "community_centre", "description": "Versammlung Berlin Zehlendorf - West", "name": "Königreichssaal Zeugen Jehovas"}}, {"type": "node", "id": 3754876556, "lat": 52.5077975, "lon": 13.3991863, "tags": {"amenity": "community_centre", "community_centre:for": "child;juvenile", "name": "KiJukuZ - Kinder- und Jugendkulturzentrum", "note": "in der Alten Feuerwache", "toilets:wheelchair": "yes", "wheelchair": "limited"}}, {"type": "node", "id": 3758833029, "lat": 52.5268476, "lon": 13.332332, "tags": {"addr:city": "Berlin", "addr:country": "DE", "addr:housenumber": "71", "addr:postcode": "10551", "addr:street": "Turmstraße", "addr:suburb": "Moabit", "amenity": "community_centre", "community_centre:for": "senior", "name": "Club Tiergarten", "note": "Erdgeschoß", "operator": "AWO Berlin-Mitte e.V.", "website": "https://awo-mitte.de/index.php/freizeitstaette-club-tiergarten", "wheelchair": "no"}}, {"type": "node", "id": 3795203173, "lat": 52.5278369, "lon": 13.4642808, "tags": {"addr:city": "Berlin", "addr:country": "DE", "addr:housenumber": "31B", "addr:postcode": "10369", "addr:street": "Erich-Kuttner-Straße", "addr:suburb": "Fennpfuhl", "amenity": "community_centre", "check_date": "2024-01-01", "community_centre": "community_hall", "name": "Nachbarschaftstreff „Quatschtrommel“", "wheelchair": "limited"}}, {"type": "node", "id": 3901335166, "lat": 52.5380506, "lon": 13.4053118, "tags": {"addr:city": "Berlin", "addr:country": "DE", "addr:housenumber": "234", "addr:postcode": "10435", "addr:street": "Schwedter Straße", "addr:suburb": "Mitte", "amenity": "community_centre", "check_date:opening_hours": "2023-01-13", "community_centre": "youth_centre", "description": "Kinder- und Jugendfreizeiteinrichtung", "name": "Freizeithaus am Mauerpark", "opening_hours": "Mo-Fr 12:00-18:00", "operator": "Bezirksamt Mitte von Berlin", "phone": "+49 30 4490741", "source": "Geoportal Berlin / Hauskoordinaten", "website": "http://freizeithaus-am-mauerpark.de/", "wheelchair": "no"}}, {"type": "node", "id": 3953895252, "lat": 52.5442128, "lon": 13.4120632, "tags": {"addr:city": "Berlin", "addr:housenumber": "134a", "addr:postcode": "10437", "addr:street": "Schönhauser Allee", "amenity": "community_centre", "description:de": "Begegnungs- und Nachbarschaftsprojekt", "name": "FreiRaum", "operator": "Gemeinschaftswerk Berlin-Brandenburg e.V.", "phone": "+49 30 67926489", "website": "https://www.freiraum134a.de/"}}, {"type": "node", "id": 3959782327, "lat": 52.4599232, "lon": 13.3644397, "tags": {"addr:city": "Berlin", "addr:country": "DE", "addr:housenumber": "32", "addr:postcode": "12105", "addr:street": "Eythstraße", "addr:suburb": "Schöneberg", "amenity": "community_centre", "community_centre": "events_venue", "contact:website": "https://cooperativ-werkraum.de", "name": "cooperativ Werkraum", "operator": "Genossenschaftsforum e.V.", "website": "https://cooperativ-werkraum.de/"}}, {"type": "node", "id": 4003391556, "lat": 52.3681875, "lon": 13.6183248, "tags": {"addr:housenumber": "34", "addr:street": "August-Bebel-Allee", "amenity": "community_centre", "community_centre:for": "juvenile", "name": "Club Eichwalde", "note": "Jugendclub", "opening_hours": "Mo,We,Fr 14:00-20:00", "website": "https://www.jugend-zews.de/jugendarbeit/jz-eichwalde/"}}, {"type": "node", "id": 4006983305, "lat": 52.5236474, "lon": 13.3854387, "tags": {"addr:city": "Berlin", "addr:country": "DE", "addr:housenumber": "14", "addr:postcode": "10117", "addr:street": "Reinhardtstraße", "amenity": "community_centre", "email": "office@rki-berlin.de", "is_in:city": "Berlin", "is_in:country": "Germany", "is_in:country_code": "DE", "name": "Institutul Cultural Român Berlin", "name:de": "Rumänisches Kulturinstitut Berlin", "name:en": "Romanian Cultural Institute Berlin", "name:fr": "Institut Culturel Roumain Berlin", "name:ro": "Institutul Cultural Român Berlin", "opening_hours": "Tu-Fr 14:00-18:00", "operator": "Institutul Cultural Român", "phone": "+49 30 8906 1987", "website": "https://www.icr.ro/berlin/"}}, {"type": "node", "id": 4061948096, "lat": 52.5587461, "lon": 13.3787518, "tags": {"addr:city": "Berlin", "addr:country": "DE", "addr:housenumber": "129", "addr:postcode": "13359", "addr:street": "Koloniestraße", "addr:suburb": "Gesundbrunnen", "amenity": "community_centre", "name": "Frisbee"}}, {"type": "node", "id": 4061948099, "lat": 52.5590419, "lon": 13.3789686, "tags": {"addr:city": "Berlin", "addr:country": "DE", "addr:housenumber": "129", "addr:postcode": "13359", "addr:street": "Koloniestraße", "addr:suburb": "Gesundbrunnen", "amenity": "community_centre", "community_centre": "village_hall", "name": "Bürgerladen"}}, {"type": "node", "id": 4061948100, "lat": 52.5591131, "lon": 13.3790089, "tags": {"addr:city": "Berlin", "addr:country": "DE", "addr:housenumber": "129", "addr:postcode": "13359", "addr:street": "Koloniestraße", "addr:suburb": "Gesundbrunnen", "amenity": "community_centre", "community_centre": "youth_centre", "name": "Jugend Bildungs- und Freizeitzentrum"}}, {"type": "node", "id": 4062921843, "lat": 52.4765857, "lon": 13.4204865, "tags": {"addr:city": "Berlin", "addr:country": "DE", "addr:housenumber": "49", "addr:postcode": "12049", "addr:street": "Lichtenrader Straße", "addr:suburb": "Neukölln", "amenity": "community_centre", "community_centre": "events_venue", "contact:website": "https://offline.place", "name": "offline"}}, {"type": "node", "id": 4066657693, "lat": 52.5120184, "lon": 13.5258372, "tags": {"amenity": "community_centre", "community_centre": "youth_centre", "community_centre:for": "child", "max_age": "14", "min_age": "6", "name": "Falkenburg Lichtenberg", "opening_hours": "Mo-Th 14:00-19:00; Fr 13:00-18:00", "operator": "Sozialistische Jugend Deutschlands - Die Falken", "phone": "+49 30 513 45 23", "website": "https://falken-berlin.de/mitmachen/kidscourage/_node/einrichtungen/lich_falkenburg.html"}}, {"type": "node", "id": 4066657694, "lat": 52.5120369, "lon": 13.5254988, "tags": {"amenity": "community_centre", "community_centre": "youth_club", "community_centre:for": "child;juvenile", "description": "Jugendclub der Jungen Humanist_innen im HVD", "max_age": "18", "min_age": "6", "name": "Orange Flip", "opening_hours": "Mo, We, Fr 12:00-20:00; Tu 12:00-21:00", "operator": "Junge Humanistinnen im HVD", "phone": "+49 30 97883791", "website": "http://www.orange-flip.de/"}}, {"type": "node", "id": 4118519689, "lat": 52.4961647, "lon": 13.3807856, "tags": {"addr:housenumber": "7", "addr:street": "Wartenburgstraße", "amenity": "community_centre", "name": "Gemeindehaus Ev. Kirchengemeinde", "website": "https://kght.de/"}}, {"type": "node", "id": 4123949690, "lat": 52.5007455, "lon": 13.4182474, "tags": {"addr:housenumber": "95a", "addr:street": "Adalbertstraße", "amenity": "community_centre", "community_centre": "youth_centre", "community_centre:for": "juvenile", "email": "kotti@berlin.de", "name": "Mosaik JugendKulturEtage", "website": "https://kotti-berlin.de"}}, {"type": "node", "id": 4124084430, "lat": 52.4852882, "lon": 13.4345204, "tags": {"addr:city": "Berlin", "addr:country": "DE", "addr:housenumber": "13", "addr:postcode": "12045", "addr:street": "Weichselstraße", "amenity": "community_centre", "community_centre:for": "juvenile", "email": "info@naturfreundejugend-berlin.de", "name": "Forum Naturfreundejugend Berlin", "opening_hours": "Tu-We,Fr 12:00-16:00", "phone": "+49 30 32532770", "website": "https://naturfreundejugend-berlin.de", "wheelchair": "yes"}}, {"type": "node", "id": 4133751506, "lat": 52.5520104, "lon": 13.3786185, "tags": {"addr:city": "Berlin", "addr:country": "DE", "addr:housenumber": "16", "addr:postcode": "13357", "addr:street": "Buttmannstraße", "addr:suburb": "Gesundbrunnen", "amenity": "community_centre", "check_date:opening_hours": "2023-09-18", "community_centre": "meeting_room", "community_centre:for": "resident", "description": "Begegnungsstätte von Nachbarn für Nachbarn", "name": "Nachbarschaftsladen Initiative Buttmann 16", "opening_hours:signed": "no", "operator": "Gangway e.V."}}, {"type": "node", "id": 4139471189, "lat": 52.5532448, "lon": 13.3869215, "tags": {"addr:city": "Berlin", "addr:country": "DE", "addr:housenumber": "84", "addr:postcode": "13357", "addr:street": "Bellermannstraße", "addr:suburb": "Gesundbrunnen", "amenity": "community_centre", "check_date": "2023-07-18", "name": "Bereket Kulturgemeinschaft"}}, {"type": "node", "id": 4192128590, "lat": 52.4384747, "lon": 13.2787156, "tags": {"addr:city": "Berlin", "addr:housenumber": "49", "addr:postcode": "14169", "addr:street": "Mörchinger Straße", "amenity": "community_centre", "community_centre": "community_hall", "name": "Nachbarschaftshaus Wannseebahn", "opening_hours": "\"Kurs-/Eventbasiert\"", "toilets:wheelchair": "yes", "website": "http://www.nbh-wannseebahn.de", "wheelchair": "yes", "wheelchair:description": "Von Zwei Seiten über Terrasse begehbar. Weg zur Toilette Rollstuhlgerecht, jedoch eng."}}, {"type": "node", "id": 4192147089, "lat": 52.4132443, "lon": 13.2662272, "tags": {"addr:city": "Berlin", "addr:country": "DE", "addr:housenumber": "228", "addr:postcode": "14167", "addr:street": "Teltower Damm", "amenity": "community_centre", "name": "Mehrgenerationenhaus Phönix (Mittelhof)", "phone": "+49 30 84509247", "toilets:wheelchair": "no", "website": "https://www.mittelhof.org/mgh-phoenix.html", "wheelchair": "yes", "wheelchair:description": "Ein Ort zum Wohlfühlen und zum neue Leute kennenlernen. Ein Ort für jung und Alt"}}, {"type": "node", "id": 4211371287, "lat": 52.5356795, "lon": 13.269936, "tags": {"addr:city": "Berlin", "addr:country": "DE", "addr:housenumber": "2", "addr:postcode": "13629", "addr:street": "Voltastraße", "addr:suburb": "Siemensstadt", "amenity": "community_centre", "community_centre": "family_centre", "contact:website": "https://kompaxx.de/familienfoerderung/famz-rohrdamm/", "name": "Familienzentrum Rohrdamm", "operator": "Kompaxx e.V."}}, {"type": "node", "id": 4223529190, "lat": 52.5126108, "lon": 13.4508353, "tags": {"addr:city": "Berlin", "addr:country": "DE", "addr:housenumber": "24", "addr:postcode": "10243", "addr:street": "Grünberger Straße", "addr:suburb": "Friedrichshain", "amenity": "community_centre", "check_date:opening_hours": "2023-11-30", "community_centre": "meeting_room", "name": "attac-treff", "opening_hours:signed": "no", "operator": "Attac Trägerverein e.V.", "website": "https://attacberlin.de/mitmachen/attac-treff", "wheelchair": "no"}}, {"type": "node", "id": 4261575764, "lat": 52.5270406, "lon": 13.3907944, "tags": {"addr:city": "Berlin", "addr:country": "DE", "addr:housenumber": "121", "addr:postcode": "10115", "addr:street": "Linienstraße", "addr:suburb": "Mitte", "amenity": "community_centre", "community_centre": "youth_centre", "community_centre:for": "juvenile;child", "contact:website": "https://digitalwerkstatt.de", "education": "centre", "name": "Haba Digitalwerkstatt"}}, {"type": "node", "id": 4309104290, "lat": 52.5426077, "lon": 13.5448531, "tags": {"addr:housenumber": "11", "addr:street": "Marzahner Promenade", "amenity": "community_centre", "internet_access": "terminal", "name": "Bürgeramt Marzahn-Hellersdorf", "opening_hours": "Mo 07:30-15:00; Tu 10:00-18:00; We 07:30-14:00; Th 10:00-18:00; Fr 07:30-13:00", "wheelchair": "yes"}}, {"type": "node", "id": 4367410106, "lat": 52.4429426, "lon": 13.2292851, "tags": {"addr:city": "Berlin", "addr:country": "DE", "addr:housenumber": "32", "addr:postcode": "14163", "addr:street": "Limastraße", "amenity": "community_centre", "name": "Seniorentagespflegestätte", "operator": "Hildegard Gräfin von Koenigsmarck-Stiftung", "phone": "+49 30 8026197", "source": "http://seniorentagespflegestaette.de/index.php?id=6", "website": "https://seniorentagespflegestaette.de/"}}, {"type": "node", "id": 4384397295, "lat": 52.497389, "lon": 13.3945684, "tags": {"addr:city": "Berlin", "addr:housenumber": "5-7", "addr:postcode": "10961", "addr:street": "Waterloo-Ufer", "amenity": "community_centre", "check_date": "2023-09-23", "name": "Dersim Kulturgemeinde Berlin"}}, {"type": "node", "id": 4403850411, "lat": 52.3972475, "lon": 13.5291326, "tags": {"addr:city": "Schönefeld", "addr:housenumber": "38", "addr:postcode": "12529", "addr:street": "Bohnsdorfer Chaussee", "amenity": "community_centre", "name": "CVJM Schönefeld", "note": "Weltacker-Club-Mitglied", "operator": "CVJM Schönefeld e.V.", "website": "https://www.cvjm-schoenefeld.de/"}}, {"type": "node", "id": 4408842100, "lat": 52.5038683, "lon": 13.4570082, "tags": {"addr:city": "Berlin", "addr:country": "DE", "addr:housenumber": "46", "addr:postcode": "10245", "addr:street": "Modersohnstraße", "addr:suburb": "Friedrichshain", "amenity": "community_centre", "check_date:opening_hours": "2022-12-04", "community_centre": "family_centre", "contact:email": "fun-friedrichshain@diakonie-stadtmitte.de", "contact:phone": "+49 30 2910573", "contact:website": "http://fun-friedrichshain.de/", "name": "Familienzentrum FUN", "opening_hours:signed": "no"}}, {"type": "node", "id": 4413733893, "lat": 52.5474828, "lon": 13.3507614, "tags": {"amenity": "community_centre", "name": "Lebenshilfe Berlin", "name:de": "Lebenshilfe Berlin"}}, {"type": "node", "id": 4415208386, "lat": 52.5390345, "lon": 13.6037181, "tags": {"addr:city": "Berlin", "addr:housenumber": "10-12", "addr:postcode": "12627", "addr:street": "Henny-Porten-Straße", "amenity": "community_centre", "email": "bezirk@dielinke-marzahn-hellersdorf.de", "facebook": "https://www.facebook.com/DIELINKE.Marzahn.Hellersdorf", "fax": "+49 30 99901561", "instagram": "https://www.instagram.com/dielinke_mahe", "name": "LINKEN TREFF", "office": "political_party", "opening_hours": "Mo 13:00-17:00; Tu 10:00-17:00; Th 13:00-18:00; Fr 10:00-13:00; PH off", "operator": "DIE LINKE. Bezirksverband Marzahn-Hellersdorf", "phone": "+49 30 5412130", "twitter": "https://twitter.com/DIE_LINKE_MaHe", "website": "http://www.dielinke-marzahn-hellersdorf.de/partei/der_linke_treff/", "youtube": "https://www.youtube.com/channel/UCOJcxMnR10G-_rJtmiwMqDQ"}}, {"type": "node", "id": 4440236589, "lat": 52.5509108, "lon": 13.356108, "tags": {"addr:city": "Berlin", "addr:country": "DE", "addr:housenumber": "41", "addr:postcode": "13347", "addr:street": "Turiner Straße", "addr:suburb": "Wedding", "amenity": "community_centre", "community_centre:for": "juvenile", "name": "Abdul Hamid", "operator": "Sultan Abdul Hamid Jugend und Kulturhaus e.V."}}, {"type": "node", "id": 4565595671, "lat": 52.5210428, "lon": 13.4546129, "tags": {"addr:city": "Berlin", "addr:country": "DE", "addr:housenumber": "74", "addr:postcode": "10249", "addr:street": "Mühsamstraße", "addr:suburb": "Friedrichshain", "amenity": "community_centre", "community_centre": "youth_centre", "community_centre:for": "child", "name": "Die Arche", "opening_hours": "PH,Mo-Su 09:00-18:00", "operator": "\"Die Arche\" christliches Kinder- und Jugendwerk e.V.", "phone": "+49 30 42021738", "religion": "christian", "website": "https://kinderprojekt-arche.eu/standorte/berlin-friedrichshain"}}, {"type": "node", "id": 4672096216, "lat": 52.5289396, "lon": 13.3329738, "tags": {"addr:city": "Berlin", "addr:country": "DE", "addr:housenumber": "13", "addr:postcode": "10551", "addr:street": "Waldenserstraße", "addr:suburb": "Moabit", "amenity": "community_centre", "community_centre": "community_hall", "community_centre:for": "neighbour", "name": "Offenes Wohnzimmer", "operator": "Machbarschaft e.V.", "website": "https://www.offeneswohnzimmer.org"}}, {"type": "node", "id": 4755868012, "lat": 52.5260386, "lon": 13.5727216, "tags": {"amenity": "community_centre", "name": "Kinder- und Jugendhaus an der Wuhle"}}, {"type": "node", "id": 4821083847, "lat": 52.5113046, "lon": 13.4659668, "tags": {"addr:housenumber": "26", "addr:postcode": "10247", "addr:street": "Jungstraße", "amenity": "community_centre", "check_date:opening_hours": "2022-10-04", "internet_access": "wlan", "name": "Synirgetik", "name:ar": "پنسيون سينيرغيتيك", "opening_hours": "Mo-Fr 09:00-16:00", "opening_hours:signed": "no", "wheelchair": "no"}}, {"type": "node", "id": 4841807515, "lat": 52.5658369, "lon": 13.400323, "tags": {"addr:city": "Berlin", "addr:housenumber": "84", "addr:postcode": "13187", "addr:street": "Florastraße", "amenity": "community_centre", "community_centre:for": "juvenile", "email": "info@jup-ev.org", "name": "JUP e.V.", "opening_hours": "We 13:00-19:00; Tu,Th,Fr 13:00-17:00", "website": "https://www.jup-ev.org/", "wheelchair": "limited"}}, {"type": "node", "id": 4870100553, "lat": 52.5106523, "lon": 13.4157005, "tags": {"addr:city": "Berlin", "addr:country": "DE", "addr:housenumber": "101", "addr:postcode": "10179", "addr:street": "Köpenicker Straße", "addr:suburb": "Mitte", "amenity": "community_centre", "name": "dialog 101"}}, {"type": "node", "id": 4901529234, "lat": 52.3941589, "lon": 13.0931414, "tags": {"addr:city": "Potsdam", "addr:country": "DE", "addr:housenumber": "23", "addr:postcode": "14482", "addr:street": "Karl-Liebknecht-Straße", "amenity": "community_centre", "community_centre": "youth_centre", "community_centre:for": "juvenile;child", "contact:email": "info@sproezl-babelsberg.net", "contact:website": "http://sproezl-babelsberg.net/", "denomination": "protestant", "level": "1", "name": "Sproezl Babelsberg", "opening_hours": "We-Th 13:00-17:00; PH off", "operator": "Evangelische Kirchengemeinde Potsdam-Babelsberg", "operator:type": "religious", "religion": "christian", "wheelchair": "no"}}, {"type": "node", "id": 4910789091, "lat": 52.5419107, "lon": 13.3962334, "tags": {"addr:city": "Berlin", "addr:housenumber": "28", "addr:postcode": "13355", "addr:street": "Demminer Straße", "amenity": "community_centre", "community_centre": "youth_centre", "community_centre:for": "child;juvenile", "contact:email": "schmitt@pfefferwerk.de", "contact:phone": "+49 30 44383793", "contact:website": "https://www.pfefferwerk.de/pfefferwerk/stadtteilarbeit-jugendfreizeit/olof-palme-zentrum-2/", "fixme": "position unsure, pls specify if necessary", "name": "Kinder- und Jugendbereich im Olof-Palme-Zentrum", "opening_hours": "Tu,Th 14:00-19:00; We 14:00-21:00; Fr 15:00-21:00; Sa 11:00-19:00; Mo off", "operator": "Pfefferwerk gGmbH", "toilets:wheelchair": "yes", "wheelchair": "yes"}}, {"type": "node", "id": 4910789092, "lat": 52.5418752, "lon": 13.3960799, "tags": {"addr:city": "Berlin", "addr:housenumber": "28", "addr:postcode": "13355", "addr:street": "Demminer Straße", "amenity": "community_centre", "contact:email": "nachbarschaftstreff-opz@pfefferwerk.de", "contact:phone": "+49 30 44383793", "contact:website": "https://www.pfefferwerk.de/pfefferwerk/stadtteilarbeit-jugendfreizeit/olof-palme-zentrum/", "fixme": "position unsure, pls specify if necessary", "name": "Nachbarschaftstreff im Olof-Palme-Zentrum", "opening_hours": "Mo-Fr 10:00-14:00; Tu-Th 19:00-21:00", "operator": "Pfefferwerk gGmbH", "toilets:wheelchair": "yes", "website": "http://www.pfefferwerk.de/pfefferwerk/index.php/olof-palme-zentrum3", "wheelchair": "yes"}}, {"type": "node", "id": 4937393975, "lat": 52.5082304, "lon": 13.4961132, "tags": {"addr:city": "Berlin", "addr:country": "DE", "addr:housenumber": "30", "addr:postcode": "10317", "addr:street": "Margaretenstraße", "addr:suburb": "Rummelsburg", "amenity": "community_centre", "changing_table": "no", "contact:email": "info@afra-berlin.de", "contact:phone": "+49 221 596191010", "contact:website": "https://afra-berlin.de/", "internet_access": "wlan", "leisure": "hackerspace", "name": "Abteilung-für-Redundanz-Abteilung", "opening_hours": "Fr 20:00-24:00+", "operator": "Abteilung-für-Redundanz-Abteilung e.V.", "short_name": "AfRA", "smoking": "no", "toilets": "yes", "toilets:wheelchair": "no", "wheelchair": "no", "wikidata": "Q42748136"}}, {"type": "node", "id": 4948142722, "lat": 52.5160728, "lon": 13.2628017, "tags": {"addr:housenumber": "4", "addr:street": "Ratzeburger Allee", "amenity": "community_centre", "name": "Cantate Kinder-und Jugendchor", "website": "http://www.cantate-Chor-berlin.de"}}, {"type": "node", "id": 4995422412, "lat": 52.4983903, "lon": 13.3145394, "tags": {"addr:city": "Berlin", "addr:country": "DE", "addr:housenumber": "32", "addr:postcode": "10707", "addr:street": "Bayerische Straße", "addr:suburb": "Wilmersdorf", "amenity": "community_centre", "community_centre": "club_home", "contact:website": "http://schachausbildung.de", "name": "Schachschule", "sport": "chess"}}, {"type": "node", "id": 4998526566, "lat": 52.4887485, "lon": 13.4125069, "tags": {"addr:city": "Berlin", "addr:country": "DE", "addr:housenumber": "44", "addr:postcode": "10967", "addr:street": "Hasenheide", "addr:suburb": "Kreuzberg", "amenity": "community_centre", "community_centre:for": "child", "contact:website": "http://www.nachbarschaftshaus.de/arbeitsbereiche/bildung-und-erziehung/graefekids/", "description": "Interkulturelle Kinder- und Jugendfreizeiteinrichtung", "name": "GraefeKids", "operator": "Nachbarschaftshaus Urbanstraße e.V."}}, {"type": "node", "id": 5051931215, "lat": 52.5037183, "lon": 13.4235452, "tags": {"addr:city": "Berlin", "addr:country": "DE", "addr:housenumber": "2 A", "addr:postcode": "10997", "addr:street": "Mariannenplatz", "addr:suburb": "Kreuzberg", "amenity": "community_centre", "email": "hello@heartofcode.org", "leisure": "hackerspace", "level": "1", "name": "Heart of Code", "website": "http://heartofcode.org", "wikidata": "Q48708415"}}, {"type": "node", "id": 5101437202, "lat": 52.5985966, "lon": 13.3388978, "tags": {"amenity": "community_centre", "email": "f33@albatrosggmbh.de", "name": "GESOBAU-Familientreff", "operator": "Albatros gGmbH", "website": "https://www.albatrosggmbh.de/kinder-jugend-und-familie/familientreff/gesobau-familientreff/beschreibung.html"}}, {"type": "node", "id": 5115664021, "lat": 52.5120533, "lon": 13.4934572, "tags": {"addr:city": "Berlin", "addr:housenumber": "219", "addr:postcode": "10365", "addr:street": "Frankfurter Allee", "amenity": "community_centre", "community_centre": "community_hall", "name": "FLIBB - Familienbegegnungsstätte Lichtenberger Brücke Berlin", "phone": "+49 30 319 86 558", "website": "https://www.flibb-berlin.de/view.php", "wheelchair": "limited"}}, {"type": "node", "id": 5161686114, "lat": 52.4960485, "lon": 13.2641351, "tags": {"addr:city": "Berlin", "addr:country": "DE", "addr:housenumber": "42A", "addr:postcode": "14055", "addr:street": "Zikadenweg", "addr:suburb": "Westend", "amenity": "community_centre", "community_centre": "community_hall", "contact:email": "info@hauseichkamp.de", "contact:phone": "+49 30 37 30 61 25", "name": "Haus Eichkamp", "operator": "Stiftung am Grunewald; Siedlerverein Eichkamp e.V.", "website": "https://hauseichkamp.de/", "wheelchair": "limited"}}, {"type": "node", "id": 5176100544, "lat": 52.5290059, "lon": 13.3911366, "tags": {"addr:city": "Berlin", "addr:country": "DE", "addr:housenumber": "5", "addr:postcode": "10115", "addr:street": "Borsigstraße", "amenity": "community_centre", "community_centre": "parish_hall", "community_centre:for": "religious", "denomination": "protestant", "level": "0", "name": "Evangelische Studierendengemeinde Berlin", "operator": "evangelische Landeskirche", "short_name": "ESG Berlin", "website": "https://www.esgberlin.de/"}}, {"type": "node", "id": 5176130920, "lat": 52.5500389, "lon": 13.4070548, "tags": {"addr:city": "Berlin", "addr:floor": "0", "addr:housenumber": "17-18", "addr:postcode": "10439", "addr:street": "Dänenstraße", "amenity": "community_centre", "community_centre": "parish_hall", "community_centre:for": "religious", "denomination": "catholic", "description": "Partialgemeinde der römisch katholischen Kirche für Studierende und Auszubildende. Gottesdienst: Sonntag 18h Gemeindeabend: Mittwoch 18:30h mit Essen 20:15h ohne Essen EN: holy mass: sunday 6pm parish evening: wednesday 6:30pm with dinner, 8:15pm without", "description:target_group": "Studenten, Studierende, Auszubildende, Promovierende, Promoventen, Katholiken, christlich Interessierte", "name": "Katholische Studierendengemeinde Edith Stein Berlin", "operator": "Erzbistum Berlin", "religion": "christian", "short_name": "KSG Berlin", "website": "https://ksg-berlin.de/"}}, {"type": "node", "id": 5211079182, "lat": 52.4835273, "lon": 13.3902561, "tags": {"amenity": "community_centre", "check_date:opening_hours": "2022-12-21", "community_centre": "youth_centre", "community_centre:for": "juvenile", "contact:email": "potse_berlin@riseup.net", "contact:facebook": "http://facebook.com/Potse-Berlin-723326324448304/", "contact:instagram": "https://www.instagram.com/potse_berlin/", "contact:telegram": "https://t.me/drugstoreundpotseinfochannel", "contact:twitter": "http://twitter.com/Potse_Berlin", "contact:website": "http://gentrifidingsbums.blogsport.de/", "description:de": "selbstverwaltetes Jugendzentrum", "level": "0", "name": "Potse", "opening_hours:signed": "no", "operator": "Potze", "operator:type": "community", "room": "yes", "wheelchair": "yes"}}, {"type": "node", "id": 5216737648, "lat": 52.5690616, "lon": 13.3681683, "tags": {"amenity": "community_centre", "name": "Familien- und Bildungszentrum", "operator": "LebensWelt gGmbH"}}, {"type": "node", "id": 5216905596, "lat": 52.570335, "lon": 13.3738857, "tags": {"amenity": "community_centre", "community_centre": "family_centre", "email": "amende@kirchenkreis-reinickendorf.de", "fax": "+49 30 40049306", "name": "Kinder- und Familienzentrum KreativFabrik", "operator": "Evangelischer Kirchenkreis Reinickendorf", "phone": "+49 30 40049304", "website": "http://www.amende-berlin.de/"}}, {"type": "node", "id": 5327404041, "lat": 52.528111, "lon": 13.392888, "tags": {"addr:city": "Berlin", "addr:country": "DE", "addr:housenumber": "190", "addr:postcode": "10115", "addr:street": "Torstraße", "addr:suburb": "Mitte", "amenity": "community_centre", "community_centre": "community_hall", "name": "Begegnungsstätte „Mehr Mitte“", "operator": "Volkssolidarität Landesverband Berlin e.V.", "website": "https://www.volkssolidaritaet.de/berliner-volkssolidaritaet/begegnung-kultur/pankow-mitte/begegnungsstaette-torstrasse/", "wheelchair": "yes"}}, {"type": "node", "id": 5328117936, "lat": 52.5509919, "lon": 13.411653, "tags": {"amenity": "community_centre", "denomination": "christian", "description": "Ein Veranstaltungsraum der Kirche diekreative", "name": "Blaugold", "operator": "diekreative", "website": "https://diekreative.org/blaugold/", "wheelchair": "limited"}}, {"type": "node", "id": 5406827106, "lat": 52.5078949, "lon": 13.4538652, "tags": {"addr:city": "Berlin", "addr:country": "DE", "addr:housenumber": "99", "addr:postcode": "10245", "addr:street": "Revaler Straße", "addr:suburb": "Friedrichshain", "amenity": "community_centre", "community_centre": "cultural_centre", "contact:website": "http://www.dropin-ev.de/kontakt/", "name": "Drop In", "opening_hours": "Mo-Fr 15:00-19:00", "operator": "Drop In – Forum für interkulturelle und politische Bildung e.V."}}, {"type": "node", "id": 5433698122, "lat": 52.5633588, "lon": 13.3216184, "tags": {"addr:city": "Berlin", "addr:country": "DE", "addr:housenumber": "30", "addr:postcode": "13405", "addr:street": "Meteorstraße", "addr:suburb": "Reinickendorf", "amenity": "community_centre", "community_centre": "parish_hall", "name": "Bosniakische Gemeinde IKRE Berlin e.V.", "religion": "muslim"}}, {"type": "node", "id": 5457409366, "lat": 52.5247994, "lon": 13.4275736, "tags": {"amenity": "community_centre", "community_centre": "youth_centre", "community_centre:for": "youth;child", "contact:website": "http://www.grundschule-friedrichshain.de/kooperation/schuelerladen-0-35/", "name": "Schülerladen 0-35", "opening_hours": "Mo-Fr 13:00-19:00", "wheelchair": "no"}}, {"type": "node", "id": 5460524479, "lat": 52.632509, "lon": 13.4959551, "tags": {"addr:city": "Berlin", "addr:housenumber": "8-10", "addr:postcode": "13125", "addr:street": "Franz-Schmidt-Straße", "amenity": "community_centre", "changing_table": "yes", "community_centre": "family_centre", "community_centre:for": "family", "internet_access": "no", "level": "1", "name": "Familienzentrum im Bucher Bürgerhaus", "opening_hours": "Mo-Fr 10:00-13:00, Tu-Th 15:00-18:00; PH off", "opening_hours:signed": "no", "operator": "SEHstern e. V.", "operator:type": "ngo", "website": "https://familienzentrum-buch.sehstern-ev.de/", "wheelchair": "limited"}}, {"type": "node", "id": 5477481522, "lat": 52.5223573, "lon": 13.5451045, "tags": {"addr:city": "Berlin", "addr:housenumber": "24-26", "addr:postcode": "12681", "addr:street": "Marchwitzastraße", "amenity": "community_centre", "email": "karola.dobransky@ball-ev-berlin.de", "name": "Bürgerhaus Südspitze", "operator": "Betreuung arbeitsloser Leute und Lebenshilfe e.V.", "phone": "+49 30 54989113", "toilets:wheelchair": "yes", "website": "https://ball-ev-berlin.de/projekte-im-ball-e-v/buergerhaus-suedspitze/", "wheelchair": "yes", "wheelchair:description": "Das Bürgerhaus \"Südspitze\" ist ein öffentlicher Ort für die Bürger in Marzahn und wird vom Ball e.V. betrieben."}}, {"type": "node", "id": 5503181815, "lat": 52.522594, "lon": 13.3012958, "tags": {"amenity": "community_centre", "community_centre": "youth_centre", "community_centre:for": "juvenile", "name": "DorfwerkStadt", "operator": "DorfwerkStadt – Verein für ländliche und städtische Entwicklung der globalen Jugendarbeit Brandenburg-Berlin e.V.", "toilets:wheelchair": "no", "wheelchair": "limited"}}, {"type": "node", "id": 5540916960, "lat": 52.6051674, "lon": 13.3524326, "tags": {"addr:city": "Berlin", "addr:postcode": "13435", "addr:street": "Senftenberger Ring", "amenity": "community_centre", "description": "Mietercafe, Modellbau Handarbeiten, Serviettentechnik", "name": "Ribbeckhaus", "opening_hours": "\"je nach Event oder Veranstaltung\"", "operator": "GESOBAU", "phone": "+49 30 40731411"}}, {"type": "node", "id": 5541049583, "lat": 52.6045857, "lon": 13.3542278, "tags": {"amenity": "community_centre", "description": "Kinder, -Jugend und Familienzentrum", "email": "info@comx-berlin.de", "fax": "+49 30 40203923", "name": "comX", "operator": "Bezirksamt Reinickendorf", "phone": "+49 30 40203920", "website": "https://www.comx-berlin.de/index.php/de/"}}, {"type": "node", "id": 5562025232, "lat": 52.498535, "lon": 13.3690913, "tags": {"addr:city": "Berlin", "addr:country": "DE", "addr:housenumber": "34", "addr:postcode": "10783", "addr:street": "Dennewitzstraße", "addr:suburb": "Schöneberg", "amenity": "community_centre", "community_centre": "meeting_room", "contact:website": "http://www.mediationszentrum-berlin.de/", "name": "MediationsZentrum Berlin", "note": "maybe some other tags are more suited", "opening_hours": "\"by appointment\""}}, {"type": "node", "id": 5618342957, "lat": 52.4972103, "lon": 13.4515786, "tags": {"addr:city": "Berlin", "addr:country": "DE", "addr:housenumber": "3", "addr:postcode": "12435", "addr:street": "Am Flutgraben", "addr:suburb": "Alt-Treptow", "amenity": "community_centre", "community_centre": "meeting_room", "contact:website": "http://www.alpha-nova-kulturwerkstatt.de/kulturwerkstatt/", "name": "Alpha Nova-Kulturwerkstatt", "operator": "Weibliche Visionen in Kultur Politik und Kunst e.V.", "wheelchair": "no"}}, {"type": "node", "id": 5638166422, "lat": 52.5252379, "lon": 13.3992795, "tags": {"addr:city": "Berlin", "addr:country": "DE", "addr:housenumber": "29", "addr:postcode": "10115", "addr:street": "Große Hamburger Straße", "addr:suburb": "Mitte", "amenity": "community_centre", "community_centre": "cultural_centre", "name": "Kieztreff Koepjohann", "toilets:wheelchair": "yes", "website": "https://www.koepjohann.de/index.php5?pageid=139", "wheelchair": "yes", "wheelchair:description": "Zugang über Hausnr. 28 ist ausgeschildert"}}, {"type": "node", "id": 5642587147, "lat": 52.5087918, "lon": 13.4602707, "tags": {"addr:city": "Berlin", "addr:housenumber": "40", "addr:postcode": "10245", "addr:street": "Wühlischstraße", "amenity": "community_centre", "check_date:opening_hours": "2023-12-08", "name": "WühlischVierzig", "opening_hours:signed": "no", "website": "https://www.wuehlischvierzig.com/", "wheelchair": "yes"}}, {"type": "node", "id": 5650394474, "lat": 52.499666, "lon": 13.4475702, "tags": {"addr:city": "Berlin", "addr:housenumber": "30", "addr:postcode": "10997", "addr:street": "Schlesische Straße", "amenity": "community_centre", "name": "Native Space", "operator": "Native Instruments GmbH"}}, {"type": "node", "id": 5656522303, "lat": 52.5249538, "lon": 13.4105417, "tags": {"addr:city": "Berlin", "addr:country": "DE", "addr:housenumber": "18", "addr:postcode": "10178", "addr:street": "Rosa-Luxemburg-Straße", "addr:suburb": "Mitte", "amenity": "community_centre", "community_centre": "meeting_room", "contact:website": "http://www.alextreffberlin.de/", "name": "Alex-Treff", "operator": "Alexander Ezzat-Richard Rahimi (Alex) e.V.", "wheelchair": "no"}}, {"type": "node", "id": 5656867079, "lat": 52.5442817, "lon": 13.3723665, "tags": {"addr:city": "Berlin", "addr:country": "DE", "addr:housenumber": "23", "addr:postcode": "13347", "addr:street": "Gerichtstraße", "addr:suburb": "Gesundbrunnen", "amenity": "community_centre", "check_date": "2022-11-02", "community_centre": "meeting_room", "contact:website": "http://www.baumhausberlin.de/en/", "internet_access": "wlan", "internet_access:fee": "customers", "name": "Das Baumhaus", "opening_hours:signed": "no", "operator": "Scott Bolden & Karen Wohlert, Das Baumhaus GbR", "wheelchair": "limited"}}, {"type": "node", "id": 5744960563, "lat": 52.6443638, "lon": 13.2928884, "tags": {"addr:city": "Berlin", "addr:country": "DE", "addr:housenumber": "63", "addr:postcode": "13465", "addr:street": "Senheimer Straße", "addr:suburb": "Frohnau", "amenity": "community_centre", "club": "dog", "community_centre": "club_home", "contact:phone": "+49 30 4061302", "contact:website": "https://www.schaeferhunde.de/", "name": "Verein für deutsche Schäferhunde"}}, {"type": "node", "id": 5744960564, "lat": 52.6448252, "lon": 13.2928026, "tags": {"addr:city": "Berlin", "addr:country": "DE", "addr:housenumber": "65", "addr:postcode": "13465", "addr:street": "Senheimer Straße", "addr:suburb": "Frohnau", "amenity": "community_centre", "club": "sport", "community_centre": "club_home", "contact:email": "info@nbsg.de", "contact:fax": "+49 30 406 37 509", "contact:phone": "+49 30 401 65 10", "contact:website": "https://nbsg.de/", "name": "Nord-Berliner Schützengemeinschaft", "sport": "shooting"}}, {"type": "node", "id": 5776480383, "lat": 52.5480931, "lon": 13.4526864, "tags": {"addr:city": "Berlin", "addr:country": "DE", "addr:housenumber": "6", "addr:postcode": "13088", "addr:street": "Mahlerstraße", "addr:suburb": "Weißensee", "amenity": "community_centre", "community_centre": "youth_centre", "community_centre:for": "child;juvenile", "name": "FiPP-Nische & Freiraum", "opening_hours": "Tu-Sa 14:00-20:00"}}, {"type": "node", "id": 5776480384, "lat": 52.5524168, "lon": 13.4496421, "tags": {"addr:city": "Berlin", "addr:country": "DE", "addr:housenumber": "2", "addr:postcode": "13086", "addr:street": "Mirbachplatz", "addr:suburb": "Weißensee", "amenity": "community_centre", "community_centre": "parish_hall", "source": "Geoportal Berlin / Hauskoordinaten", "website": "https://www.kirchengemeinde-weissensee.de/"}}, {"type": "node", "id": 5822983332, "lat": 52.5708546, "lon": 13.3230836, "tags": {"amenity": "community_centre", "name": "Familienzentrum", "operator": "Albatros gGmbH"}}, {"type": "node", "id": 5942608061, "lat": 52.499956, "lon": 13.4096317, "tags": {"addr:city": "Berlin", "addr:country": "DE", "addr:housenumber": "24", "addr:postcode": "10969", "addr:street": "Bergfriedstraße", "addr:suburb": "Kreuzberg", "amenity": "community_centre", "check_date:opening_hours": "2021-06-16", "community_centre": "meeting_room", "name": "Kiezstube", "operator": "MehrGenerationenHaus Wassertor 48 e.V."}}, {"type": "node", "id": 5943612601, "lat": 52.5004427, "lon": 13.4057303, "tags": {"addr:city": "Berlin", "addr:country": "DE", "addr:housenumber": "48", "addr:postcode": "10969", "addr:street": "Wassertorstraße", "addr:suburb": "Kreuzberg", "amenity": "community_centre", "community_centre": "cultural_centre", "contact:website": "http://www.mgh-wassertor.de/", "name": "MehrGenerationenHaus Wassertor 48", "opening_hours": "Mo 12:00-18:00; Tu-Fr 10:00-18:00", "operator": "MehrGenerationenHaus Wassertor 48 e.V.", "short_name": "MGH Wassertor 48", "wheelchair": "yes"}}, {"type": "node", "id": 5965706613, "lat": 52.4639097, "lon": 13.3913416, "tags": {"addr:city": "Berlin", "addr:country": "DE", "addr:housenumber": "24A", "addr:postcode": "12099", "addr:street": "Götzstraße", "addr:suburb": "Tempelhof", "amenity": "community_centre", "community_centre": "family_centre", "denomination": "protestant", "description": "2 Räume in der Götzstr. 24a", "name": "Evangelisches Familienzentrum Tempelhof", "operator": "Evangelische Paulus-Kirchengemeinde Tempelhof; Diakonisches Werk Tempelhof-Schöneberg", "phone": "+49 30 756 83 869", "religion": "christian", "website": "https://www.paulus-kirchengemeinde-tempelhof.de/index.php/gemeindeleben/familienzentrum-tempelhof"}}, {"type": "node", "id": 5979153480, "lat": 52.5006835, "lon": 13.4182309, "tags": {"addr:city": "Berlin", "addr:country": "DE", "addr:housenumber": "95a", "addr:postcode": "10999", "addr:street": "Adalbertstraße", "addr:suburb": "Kreuzberg", "amenity": "community_centre", "community_centre": "cultural_centre", "contact:phone": "+49 30 6157991", "contact:website": "http://www.kotti-berlin.de", "name": "Kotti Nachbarschaftsladen", "operator": "Kotti e.V."}}, {"type": "node", "id": 5997709682, "lat": 52.5487381, "lon": 13.2036469, "tags": {"addr:city": "Berlin", "addr:country": "DE", "addr:housenumber": "13", "addr:postcode": "13585", "addr:street": "Lynarstraße", "addr:suburb": "Spandau", "amenity": "community_centre", "community_centre": "community_hall", "contact:website": "http://qm-spandauer-neustadt.de/", "name": "Quartiersmanagement Spandauer Neustadt", "operator": "S.T.E.R.N. Gesellschaft der behutsamen Stadterneuerung mbH"}}, {"type": "node", "id": 5999836042, "lat": 52.5331372, "lon": 13.3397439, "tags": {"addr:city": "Berlin", "addr:country": "DE", "addr:housenumber": "35", "addr:postcode": "10551", "addr:street": "Birkenstraße", "addr:suburb": "Moabit", "amenity": "community_centre", "community_centre": "youth_centre", "community_centre:for": "child", "contact:website": "http://moabiter-ratschlag.de/schulgarten-moabit/", "name": "Schulgarten Moabit", "opening_hours": "We 15:00-18:00; Th 16:00-18:00", "operator": "Moabiter Ratschlag e.V.", "operator:type": "public"}}, {"type": "node", "id": 6004791099, "lat": 52.5329708, "lon": 13.4341148, "tags": {"addr:city": "Berlin", "addr:country": "DE", "addr:housenumber": "22", "addr:postcode": "10407", "addr:street": "Pasteurstraße", "addr:suburb": "Prenzlauer Berg", "amenity": "community_centre", "community_centre": "youth_centre", "community_centre:for": "juvenile", "name": "Jugendfreizeiteinrichtung TwentyTwo", "opening_hours": "Tu-Fr 14:00-19:00; Sa 11:00-16:00; PH 11:00-16:00", "short_name": "JFE 22", "website": "https://humanistisch.de/jfe-22", "wheelchair": "yes"}}, {"type": "node", "id": 6007361436, "lat": 52.4810822, "lon": 13.5227041, "tags": {"addr:city": "Berlin", "addr:country": "DE", "addr:housenumber": "13", "addr:postcode": "10318", "addr:street": "Wandlitzstraße", "addr:suburb": "Karlshorst", "amenity": "community_centre", "community_centre": "community_hall", "contact:email": "ikarus@sozdia.de", "contact:phone": "+49 30 89622552", "contact:website": "http://www.sozdia.de/iKARUS.578.0.html", "name": "iKarus Stadtteilzentrum", "opening_hours": "Tu-Th 09:00-17:00; Fr 09:00-14:00", "wheelchair": "yes", "wheelchair:description:de": "Schräge am Eingang"}}, {"type": "node", "id": 6009480985, "lat": 52.4390033, "lon": 13.3164483, "tags": {"addr:city": "Berlin", "addr:housenumber": "28", "addr:postcode": "12203", "addr:street": "Hindenburgdamm", "amenity": "community_centre", "name": "Gutshaus Lichterfelde", "website": "https://www.stadtteilzentrum-steglitz.de/gutshaus-lichterfelde/"}}, {"type": "node", "id": 6009529788, "lat": 52.5148601, "lon": 13.2939823, "tags": {"addr:city": "Berlin", "addr:country": "DE", "addr:housenumber": "8", "addr:postcode": "14059", "addr:street": "Nehringstraße", "addr:suburb": "Charlottenburg", "amenity": "community_centre", "community_centre": "cultural_centre", "name": "Interkulturelles Stadtteilzentrum Divan", "opening_hours": "Mo-Fr 10:00-17:00", "operator": "Nachbarschaftszentrum DIVAN e.V.", "website": "https://www.divan-berlin.de/interkulturelles-stadtteilzentrum.html"}}, {"type": "node", "id": 6009713687, "lat": 52.4541455, "lon": 13.3823736, "tags": {"addr:city": "Berlin", "addr:country": "DE", "addr:housenumber": "13", "addr:postcode": "12105", "addr:street": "Viktoriastraße", "addr:suburb": "Tempelhof", "amenity": "community_centre", "community_centre": "cultural_centre", "name": "Nachbarschaftszentrum ufafabrik", "operator": "Nachbarschafts- und Selbsthilfezentrum in der UFA-Fabrik e.V.", "toilets:wheelchair": "yes", "website": "https://www.nusz.de/", "wheelchair": "yes"}}, {"type": "node", "id": 6010004388, "lat": 52.5538704, "lon": 13.3465515, "tags": {"addr:city": "Berlin", "addr:country": "DE", "addr:housenumber": "56-58", "addr:postcode": "13349", "addr:street": "Müllerstraße", "addr:suburb": "Wedding", "amenity": "community_centre", "community_centre": "village_hall", "name": "Zukunftshaus Wedding", "operator": "Paul Gerhardt Stift Soziales gGmbH", "toilets:wheelchair": "yes", "website": "https://www.evangelisches-johannesstift.de/paul-gerhardt-stift-soziales/stadtteilzentrum", "wheelchair": "yes"}}, {"type": "node", "id": 6047114973, "lat": 52.513759, "lon": 13.4605615, "tags": {"addr:city": "Berlin", "addr:country": "DE", "addr:housenumber": "23", "addr:postcode": "10247", "addr:street": "Kreutzigerstraße", "addr:suburb": "Friedrichshain", "amenity": "community_centre", "community_centre": "meeting_room", "contact:website": "https://www.ubi-mieterladen.de/", "name": "Mieterladen", "operator": "UBI KLiZ e.V.", "wheelchair": "yes"}}, {"type": "node", "id": 6047505886, "lat": 52.4915522, "lon": 13.4250739, "tags": {"addr:city": "Berlin", "addr:country": "DE", "addr:housenumber": "55", "addr:postcode": "12047", "addr:street": "Hobrechtstraße", "addr:suburb": "Neukölln", "amenity": "community_centre", "community_centre": "community_hall", "contact:email": "info@elele-berlin.de", "contact:phone": "+49 30 6236092", "contact:website": "http://www.elele-berlin.de", "name": "elele Nachbarschaftszentrum", "opening_hours": "Mo-Fr 15:00-18:00", "operator": "Nachbarschaftsheim Neukölln e. V.", "start_date": "1984"}}, {"type": "node", "id": 6051508136, "lat": 52.5016057, "lon": 13.4955388, "tags": {"amenity": "community_centre", "check_date:opening_hours": "2023-05-14", "contact:phone": "+49 30 61403074", "contact:website": "http://woennich.de/", "name": "Piekfeiner Laden", "opening_hours:signed": "no", "wheelchair": "no"}}, {"type": "node", "id": 6053037463, "lat": 52.4852172, "lon": 13.371945, "tags": {"addr:city": "Berlin", "addr:housenumber": "92", "addr:postcode": "10965", "addr:street": "Dudenstraße", "amenity": "community_centre", "community_centre:for": "juvenile", "name": "HaiWays", "opening_hours": "\"Nach Wochenplan\"", "operator": "TÄKS e.V.", "toilets:wheelchair": "yes", "website": "https://www.taeks.de/haiways", "wheelchair": "yes"}}, {"type": "node", "id": 6121262957, "lat": 52.4990431, "lon": 13.4799196, "tags": {"amenity": "community_centre", "contact:email": "kontrastprogramm.berlin@gmail.com", "noname": "yes", "opening_hours:signed": "no"}}, {"type": "node", "id": 6123185385, "lat": 52.5649583, "lon": 13.5054952, "tags": {"addr:housenumber": "10", "addr:postcode": "13051", "addr:street": "Prerower Platz", "amenity": "community_centre", "email": "info@360grad-lichtenberg.de", "name": "360 Grad – Raum für Kreativität", "phone": "+49 30 22 50 37 00", "toilets:wheelchair": "no", "website": "http://360grad-lichtenberg.de", "wheelchair": "yes"}}, {"type": "node", "id": 6168063988, "lat": 52.3688219, "lon": 13.3047235, "tags": {"addr:city": "Großbeeren", "addr:country": "DE", "addr:housenumber": "25", "addr:postcode": "14979", "addr:street": "Teltower Straße", "amenity": "community_centre", "community_centre": "youth_centre", "name": "Club 2 five"}}, {"type": "node", "id": 6170802013, "lat": 52.5025579, "lon": 13.4914566, "tags": {"amenity": "community_centre", "check_date:opening_hours": "2023-11-08", "name": "Der Anker", "opening_hours:signed": "no", "wheelchair": "no"}}, {"type": "node", "id": 6220403128, "lat": 52.5837914, "lon": 13.2256736, "tags": {"amenity": "community_centre", "community_centre": "events_venue", "contact:website": "https://beweggrund.berlin/Conrads/conrads/", "name": "Conrads", "operator": "GST Beweggrund e.V."}}, {"type": "node", "id": 6268474916, "lat": 52.5324135, "lon": 13.4258018, "tags": {"addr:city": "Berlin", "addr:country": "DE", "addr:housenumber": "24", "addr:postcode": "10405", "addr:street": "Immanuelkirchstraße", "addr:suburb": "Prenzlauer Berg", "amenity": "community_centre", "community_centre": "family_centre", "community_centre:for": "family;child", "name": "Ludothek", "operator": "Fördern durch Spielmittel e.V.", "website": "https://www.spielmittel.de/spielen/ludothek-familienzentrum", "wheelchair": "yes"}}, {"type": "node", "id": 6278664678, "lat": 52.5686386, "lon": 13.4138808, "tags": {"addr:city": "Berlin", "addr:country": "DE", "addr:housenumber": "3", "addr:postcode": "13187", "addr:street": "Hadlichstraße", "addr:suburb": "Pankow", "amenity": "community_centre", "community_centre": "youth_centre", "community_centre:for": "juvenile", "name": "Garage Pankow", "website": "http://garagepankow.de"}}, {"type": "node", "id": 6278761424, "lat": 52.3774438, "lon": 13.0976665, "tags": {"addr:city": "Potsdam", "addr:country": "DE", "addr:housenumber": "28", "addr:postcode": "14478", "addr:street": "Schilfhof", "addr:suburb": "Schlaatz", "amenity": "community_centre", "community_centre": "youth_centre", "community_centre:for": "juvenile", "contact:email": "alpha@jugendclub-alpha.de", "contact:facebook": "https://www.facebook.com/Jugendclub.ALPHA", "contact:instagram": "https://www.instagram.com/jugendclub_alpha/", "contact:phone": "+49 331 817 1910", "contact:website": "https://www.jugendclub-alpha.de/", "entrance": "main", "name": "Jugendclub Alpha", "opening_hours": "Mo-Fr 14:00-20:00; PH,Sa,Su off", "operator": "Gesellschaft für Kultur, Begegung und soziale Arbeit in Potsdam gemeinnützige GmbH", "operator:type": "cooperative"}}, {"type": "node", "id": 6286848277, "lat": 52.3998602, "lon": 13.5339537, "tags": {"addr:city": "Berlin", "addr:country": "DE", "addr:housenumber": "23", "addr:postcode": "12524", "addr:street": "Kirschweg", "addr:suburb": "Altglienicke", "amenity": "community_centre", "club": "sport", "community_centre": "club_home", "contact:website": "http://www.adlershoferfuechse.de/", "name": "Adlershofer Füchse", "operator": "PSV Olympia Berlin e.V.", "sport": "archery;shooting"}}, {"type": "node", "id": 6345559414, "lat": 52.4634945, "lon": 13.5140691, "tags": {"addr:city": "Berlin", "addr:country": "DE", "addr:housenumber": "14", "addr:postcode": "12459", "addr:street": "Edisonstraße", "addr:suburb": "Oberschöneweide", "amenity": "community_centre", "check_date:opening_hours": "2023-02-06", "community_centre": "youth_centre", "community_centre:for": "child", "contact:email": "info@familienschutzwerk.de", "contact:facebook": "https://www.facebook.com/Familienschutzwerk-eV-169571703066386/", "contact:phone": "+49 30 81617855", "contact:website": "http://www.familienschutzwerk.de/", "name": "Familienschutzwerk", "opening_hours:signed": "no", "operator": "Familienschutzwerk e.V.", "wheelchair": "limited"}}, {"type": "node", "id": 6354892103, "lat": 52.5222975, "lon": 13.3341304, "tags": {"addr:city": "Berlin", "addr:country": "DE", "addr:housenumber": "12", "addr:postcode": "10555", "addr:street": "Jagowstraße", "addr:suburb": "Moabit", "amenity": "community_centre", "community_centre": "youth_centre", "community_centre:for": "girl", "name": "Dünja", "opening_hours": "Mo-Fr 14:00-19:30", "operator": "Moabiter Ratschlag", "operator:type": "community", "website": "https://moabiter-ratschlag.de/maedchen-treff-duenja/"}}, {"type": "node", "id": 6371252634, "lat": 52.5666416, "lon": 13.5193811, "tags": {"addr:city": "Berlin", "addr:country": "DE", "addr:housenumber": "8", "addr:postcode": "13057", "addr:street": "Warnitzer Straße", "addr:suburb": "Neu-Hohenschönhausen", "amenity": "community_centre", "contact:email": "sbst.warnitzer@gmx.de", "contact:phone": "+49 30 9290284", "contact:website": "http://www.vav-hhausen.de/SBS-Warnitzer-Bogen/sbst-warnitzer-start.html", "name": "Begegnungsstätte Warnitzer Bogen", "operator": "Verein für ambulante Versorgung Hohenschönhausen e.V."}}, {"type": "node", "id": 6371252637, "lat": 52.5672837, "lon": 13.5188001, "tags": {"addr:city": "Berlin", "addr:housenumber": "14", "addr:postcode": "13057", "addr:street": "Warnitzer Straße", "amenity": "community_centre", "contact:phone": "+49 30 92409984", "contact:website": "https://www.benn-hohenschoenhausen.de/", "name": "Benn Hohenschönhausen Nord", "opening_hours": "Mo 13:00-16:00; Tu 16:00-19:00; We 10:00-16:00; Th \"by appointment\"", "operator": "SozDia Jugendhilfe, Bildung und Arbeit gGmbH"}}, {"type": "node", "id": 6388113367, "lat": 52.4555101, "lon": 13.6261985, "tags": {"addr:city": "Berlin", "addr:country": "DE", "addr:housenumber": "65", "addr:postcode": "12587", "addr:street": "Bölschestraße", "addr:suburb": "Friedrichshagen", "amenity": "community_centre", "community_centre": "youth_centre", "community_centre:for": "child;juvenile", "contact:website": "https://www.spielhaus-friedrichshagen.de/", "name": "Spielhaus", "operator": "Technische Jugendfreizeit- und Bildungsgesellschaft gGmbH"}}, {"type": "node", "id": 6392594782, "lat": 52.417973, "lon": 13.1481028, "tags": {"amenity": "community_centre", "community_centre": "youth_centre", "community_centre:for": "juvenile", "contact:website": "https://jfewannsee.de/", "name": "Jugendfreizeitheim Wannsee", "operator": "Bezirksamt Steglitz-Zehlendorf Berlin", "short_name": "JFE Wannsee"}}, {"type": "node", "id": 6401896135, "lat": 52.5028152, "lon": 13.4140937, "tags": {"addr:housenumber": "45", "addr:street": "Oranienstraße", "amenity": "community_centre", "name": "Bilgisaray", "opening_hours:signed": "no", "wheelchair": "no"}}, {"type": "node", "id": 6403695527, "lat": 52.4947068, "lon": 13.5072642, "tags": {"amenity": "community_centre", "check_date": "2023-04-09", "community_centre": "family_centre", "community_centre:for": "family", "contact:email": "info@berliner-familienfreunde.de", "contact:phone": "+49 30 85714656", "contact:website": "http://www.berliner-familienfreunde.de", "name": "Berliner Familienfreunde e.V.", "opening_hours": "\"Je nach Programm\"", "wheelchair": "yes"}}, {"type": "node", "id": 6443850889, "lat": 52.5363004, "lon": 13.2662454, "tags": {"addr:city": "Berlin", "addr:country": "DE", "addr:housenumber": "13", "addr:postcode": "13629", "addr:street": "Wattstraße", "addr:suburb": "Siemensstadt", "amenity": "community_centre", "community_centre": "community_hall", "contact:website": "https://www.casa-ev.de/de/stadtteilarbeit/das-stadtteilzentrum.html", "name": "Stadtteilzentrum Siemensstadt", "operator": "Sozial-kulturelle Netzwerke casa e. V."}}, {"type": "node", "id": 6443877419, "lat": 52.5379938, "lon": 13.2655341, "tags": {"addr:city": "Berlin", "addr:country": "DE", "addr:housenumber": "15", "addr:postcode": "13629", "addr:street": "Jugendweg", "addr:suburb": "Siemensstadt", "amenity": "community_centre", "community_centre": "youth_centre", "community_centre:for": "juvenile", "contact:email": "schuelerhaus@casa-ev.de", "contact:phone": "+49 30 38392643", "contact:website": "https://www.casa-ev.de/de/kinder-und-jugendarbeit/sch%C3%BClerhaus.html", "name": "Schülerhaus Schule an der Jungfernheide", "operator": "Sozial-kulturelle Netzwerke casa e. V."}}, {"type": "node", "id": 6448302624, "lat": 52.5359596, "lon": 13.2660457, "tags": {"addr:city": "Berlin", "addr:country": "DE", "addr:housenumber": "14", "addr:postcode": "13629", "addr:street": "Wattstraße", "addr:suburb": "Siemensstadt", "amenity": "community_centre", "community_centre": "meeting_room", "community_centre:for": "members", "contact:website": "https://charlotte1907.de/service/charlottetreffs.html", "name": "CharlotteTreff Siemensstadt", "operator": "Charlottenburger Baugenossenschaft eG"}}, {"type": "node", "id": 6482938222, "lat": 52.403064, "lon": 13.5261918, "tags": {"addr:city": "Berlin", "addr:housenumber": "206 B", "addr:postcode": "12524", "addr:street": "Ortolfstraße", "addr:suburb": "Altglienicke", "amenity": "community_centre", "description": "Filmklub, Kiezwerkstatt, Ausstellungen, Bürgertreff,", "email": "kontakt@kiezladen-wama.de", "name": "Kiezladen der Möglichkeiten - WAMA", "note": "Kinoklub im Kosmosviertel Altglienicke Bezirk Treptow-Köpenik", "opening_hours:covid19": "off", "operator": "WeTeK Berlin gGmbH", "phone": "+49 30 66 50 411 5", "website": "https://kiezladen-wama.de/", "wheelchair": "yes"}}, {"type": "node", "id": 6488130826, "lat": 52.5090676, "lon": 13.4243386, "tags": {"addr:city": "Berlin", "addr:country": "DE", "addr:housenumber": "45", "addr:street": "Köpenicker Straße", "addr:suburb": "Mitte", "amenity": "community_centre", "check_date": "2022-10-22", "contact:email": "wikibaer@wikipedia.de", "contact:facebook": "https://facebook.com/wikibaer", "contact:twitter": "https://twitter.com/wiki_baer", "contact:website": "https://de.wikipedia.org/wiki/Wikipedia:WikiB%C3%A4r", "internet_access": "wlan", "name": "WikiBär", "opening_hours:covid19": "restricted", "opening_hours:url": "https://de.wikipedia.org/wiki/Wikipedia:WikiB%C3%A4r/Kalender", "operator": "Wikimedia Deutschland e.V.", "operator:type": "private_non_profit", "operator:wikidata": "Q8288", "smoking": "outside", "toilets:wheelchair": "no", "wheelchair": "yes", "wikidata": "Q43735064", "wikimedia_commons": "Category:Wikipedia:WikiBär", "wikipedia": "de:Wikipedia:WikiBär"}}, {"type": "node", "id": 6503739857, "lat": 52.5429233, "lon": 13.4213838, "tags": {"addr:city": "Berlin", "addr:country": "DE", "addr:housenumber": "14", "addr:postcode": "10437", "addr:street": "Dunckerstraße", "addr:suburb": "Prenzlauer Berg", "amenity": "community_centre", "community_centre": "meeting_room", "name": "Kiezladen Zusammenhalt", "opening_hours:covid19": "restricted", "operator": "Kiezladen Zusammenhalt e.V.", "website": "https://kiezladenzusammenhalt.wordpress.com/"}}, {"type": "node", "id": 6545113859, "lat": 52.5233952, "lon": 13.4487495, "tags": {"addr:city": "Berlin", "addr:country": "DE", "addr:housenumber": "30", "addr:postcode": "10249", "addr:street": "Petersburger Straße", "addr:suburb": "Friedrichshain", "amenity": "community_centre", "community_centre": "meeting_room", "craft": "brewery", "name": "Braufreunde Berlin", "operator": "Braufreunde Berlin e.V.", "short_name": "BFBeV"}}, {"type": "node", "id": 6594012779, "lat": 52.4394165, "lon": 13.3439617, "tags": {"addr:city": "Berlin", "addr:country": "DE", "addr:housenumber": "65", "addr:postcode": "12247", "addr:street": "Leonorenstraße", "addr:suburb": "Lankwitz", "amenity": "community_centre", "community_centre": "youth_centre", "community_centre:for": "child;juvenile", "contact:email": "info@spielundactionev.de", "contact:website": "http://www.spielundactionev.de/", "name": "Spiel & Action", "operator": "Spiel & Action e.V."}}, {"type": "node", "id": 6656962856, "lat": 52.517968, "lon": 13.2675681, "tags": {"addr:city": "Berlin", "addr:country": "DE", "addr:housenumber": "35", "addr:postcode": "14050", "addr:street": "Ulmenallee", "addr:suburb": "Westend", "amenity": "community_centre", "community_centre": "cultural_centre", "contact:website": "https://interkulturanstalten.de/", "name": "Ulme 35", "operator": "Interkulturanstalten Westend e.V."}}, {"type": "node", "id": 6750045986, "lat": 52.5436761, "lon": 13.4971205, "tags": {"addr:city": "Berlin", "addr:country": "DE", "addr:housenumber": "10a", "addr:postcode": "13055", "addr:street": "Schöneicher Straße", "addr:suburb": "Alt-Hohenschönhausen", "amenity": "community_centre", "community_centre": "community_hall", "contact:email": "buergertreff@co-mensch.de", "contact:phone": "+49 30 344090470", "contact:website": "http://www.gemeinsam-im-kiez.de/", "level": "-1", "name": "Bürgertreff Gemeinsam im Kiez leben", "operator": "Cooperative Mensch eG", "toilets:wheelchair": "yes", "wheelchair": "yes"}}, {"type": "node", "id": 6792898530, "lat": 52.4546904, "lon": 13.5793944, "tags": {"addr:city": "Berlin", "addr:country": "DE", "addr:housenumber": "9", "addr:postcode": "12555", "addr:street": "Puchanstraße", "addr:suburb": "Köpenick", "amenity": "community_centre", "contact:phone": "+49 30 65880165", "contact:website": "https://www.rabenhaus.de/", "name": "Rabenhaus", "opening_hours": "Mo,We 10:00-17:00; Tu,Th 13:00-18:00", "operator": "Rabenhaus e.V.", "start_date": "1991"}}, {"type": "node", "id": 6792931312, "lat": 52.4157665, "lon": 13.5780654, "tags": {"addr:city": "Berlin", "addr:housenumber": "34", "addr:postcode": "12527", "addr:street": "Wassersportallee", "amenity": "community_centre", "email": "buergerhaus@ortsverein-gruenau.de", "fax": "+49 30 67821794", "name": "BürgerZentrum Grünau", "operator": "Ortsverein Grünau e.V.", "phone": "+49 30 6744348", "website": "https://www.buergerhaus-gruenau.de/"}}, {"type": "node", "id": 6873175597, "lat": 52.5004394, "lon": 13.3619362, "tags": {"addr:city": "Berlin", "addr:country": "DE", "addr:housenumber": "31-32", "addr:postcode": "10785", "addr:street": "Kurfürstenstraße", "addr:suburb": "Tiergarten", "amenity": "community_centre", "community_centre": "events_venue", "community_centre:for": "lgbtq", "contact:email": "info@stretch-village.org", "contact:facebook": "https://www.facebook.com/village.berlin/", "contact:website": "https://www.village.berlin/", "lgbtq": "primary", "name": "Village.Berlin"}}, {"type": "node", "id": 7016493154, "lat": 52.5345187, "lon": 13.4440503, "tags": {"addr:city": "Berlin", "addr:country": "DE", "addr:housenumber": "31", "addr:postcode": "10407", "addr:street": "Rudolf-Schwarz-Straße", "addr:suburb": "Prenzlauer Berg", "amenity": "community_centre", "community_centre": "family_centre", "community_centre:for": "family", "contact:website": "https://www.shia-berlin.de/", "name": "SelbstHilfeInitiative Alleinerziehender", "opening_hours": "Mo,Tu,Th 10:00-15:00; We 12:00-17:00; Fr 10:00-13:00 || \"nach Vereinbarung\"", "operator": "SHIA e.V.;Landesverband Berlin", "operator:type": "community", "short_name": "SHIA", "wheelchair": "yes"}}, {"type": "node", "id": 7040641834, "lat": 52.4900596, "lon": 13.4265514, "tags": {"addr:city": "Berlin", "addr:country": "DE", "addr:housenumber": "23", "addr:postcode": "12047", "addr:street": "Hobrechtstraße", "addr:suburb": "Neukölln", "amenity": "community_centre", "community_centre:for": "senior", "contact:email": "info@hopeww.de", "contact:phone": "+49 30 61303366", "contact:website": "http://www.hopeww.de/", "name": "HOPE Seniorenzentrum", "opening_hours": "Mo-Th 10:00-16:00", "operator": "HOPE worldwide Deutschland e.V.", "wheelchair": "limited"}}, {"type": "node", "id": 7040812121, "lat": 52.4880461, "lon": 13.3605147, "tags": {"amenity": "community_centre", "community_centre": "club_home", "contact:phone": "+49 30 78704050", "contact:website": "https://stadtteilvereinschoeneberg.de/", "name": "Stadtteilverein Schöneberg", "operator": "Stadtteilverein Schöneberg e.V."}}, {"type": "node", "id": 7044489003, "lat": 52.5481925, "lon": 13.3528296, "tags": {"addr:city": "Berlin", "addr:country": "DE", "addr:housenumber": "56", "addr:postcode": "13353", "addr:street": "Genter Straße", "addr:suburb": "Wedding", "amenity": "community_centre", "community_centre": "meeting_room", "community_centre:for": "drug_addicted", "contact:phone": "+49 30 4536088", "contact:website": "http://www.dock-nord.de/", "name": "Dock Nord", "opening_hours": "Mo-Sa 15:00-21:00; Su,PH 15:00-20:00", "operator": "Verein für suchtfreies Leben Eigeninitiative e.V."}}, {"type": "node", "id": 7046289200, "lat": 52.5111324, "lon": 13.4515738, "tags": {"addr:city": "Berlin", "addr:country": "DE", "addr:housenumber": "23", "addr:postcode": "10243", "addr:street": "Warschauer Straße", "addr:suburb": "Friedrichshain", "amenity": "community_centre", "community_centre": "meeting_room", "contact:email": "info@koop-fhain.org", "contact:phone": "+49 30 29772391", "contact:website": "https://koop-fhain.org/stadtteilburo/", "name": "Stadtteilbüro Friedrichshain", "opening_hours": "Mo,Th 17:00-19:00", "operator": "Kooperationsnetz Friedrichshain e.V.", "wheelchair": "limited"}}, {"type": "node", "id": 7051810628, "lat": 52.4838796, "lon": 13.3885778, "tags": {"addr:city": "Berlin", "addr:country": "DE", "addr:housenumber": "4", "addr:postcode": "12101", "addr:street": "Platz der Luftbrücke", "amenity": "community_centre", "check_date": "2023-05-16", "community_centre": "meeting_room", "contact:email": "info@citylab-berlin.org", "contact:phone": "+49 30 959996410", "contact:website": "https://www.citylab-berlin.org/", "name": "CityLab Berlin", "opening_hours": "We-Sa 10:00-17:00 open \"Ausstellung\" || \"Veranstaltungstermine\"", "operator": "Technologiestiftung Berlin"}}, {"type": "node", "id": 7093538188, "lat": 52.4793629, "lon": 13.3501922, "tags": {"amenity": "community_centre", "community_centre": "youth_centre", "name": "Flipperklub", "opening_hours": "Mo-Fr 14:00-19:00; Sa 13:00-18:00", "operator": "Nachbarschaftsheim Schöneberg"}}, {"type": "node", "id": 7115476085, "lat": 52.4861692, "lon": 13.3587153, "tags": {"addr:city": "Berlin", "addr:country": "DE", "addr:housenumber": "11", "addr:postcode": "10827", "addr:street": "Herbertstraße", "addr:suburb": "Schöneberg", "amenity": "community_centre", "name": "Neuraum", "shop": "vacant"}}, {"type": "node", "id": 7137165620, "lat": 52.5517747, "lon": 13.3380141, "tags": {"addr:city": "Berlin", "addr:country": "DE", "addr:housenumber": "74", "addr:postcode": "13351", "addr:street": "Afrikanische Straße", "addr:suburb": "Wedding", "amenity": "community_centre", "community_centre": "meeting_room", "contact:website": "https://www.kiezhaus.org/", "description": "Das Kiezhaus ist ein unkommerzieller Ort um die Idee einer solidarischen Gesellschaft direkt erfahrbar zu machen.", "internet_access": "wlan", "internet_access:fee": "no", "name": "Kiezhaus Agnes Reinhold", "opening_hours:signed": "no", "operator": "Inklusion und Bildung im Kiez e. V.", "wheelchair": "limited", "wheelchair:ramp": "yes"}}, {"type": "node", "id": 7166369049, "lat": 52.5376949, "lon": 13.2873899, "tags": {"addr:city": "Berlin", "addr:country": "DE", "addr:housenumber": "18", "addr:postcode": "13627", "addr:street": "Halemweg", "addr:suburb": "Charlottenburg-Nord", "amenity": "community_centre", "community_centre": "village_hall", "contact:email": "mail@stz-charlottenburg-nord.de", "contact:phone": "+49 30 902925260", "contact:website": "http://stz-charlottenburg-nord.de/", "name": "Stadtteilzentrum Charlottenburg-Nord"}}, {"type": "node", "id": 7183484798, "lat": 52.4825215, "lon": 13.4312409, "tags": {"addr:city": "Berlin", "addr:country": "DE", "addr:housenumber": "58", "addr:postcode": "12043", "addr:street": "Karl-Marx-Straße", "addr:suburb": "Neukölln", "amenity": "community_centre", "community_centre": "events_venue", "contact:facebook": "https://www.facebook.com/studio58keller/", "name": "Studio 58"}}, {"type": "node", "id": 7217344299, "lat": 52.4898934, "lon": 13.4249362, "tags": {"addr:city": "Berlin", "addr:country": "DE", "addr:housenumber": "3", "addr:postcode": "12047", "addr:street": "Lenaustraße", "addr:suburb": "Neukölln", "amenity": "community_centre", "community_centre": "bicycle_maintenance", "community_centre:for": "refugees;everyone", "contact:website": "https://rueckenwind.berlin/", "description": "Fahrräder für Flüchtlinge / Selbsthilfewerkstatt für Fahrradreparaturen", "description:en": "bikes for refugees / everyone: (self) repair", "name": "Rückenwind", "opening_hours": "Mo-We 16:00-20:00 open \"volunteering hours: bikes for refugees\"; Th off; Fr 16:00-20:00 open \"Selbsthilfewerkstatt: bikes for everyone\"", "service:bicycle:diy": "yes", "service:bicycle:repair": "yes", "toilets:wheelchair": "yes", "wheelchair": "yes"}}, {"type": "node", "id": 7272758325, "lat": 52.5431947, "lon": 13.4216589, "tags": {"addr:city": "Berlin", "addr:country": "DE", "addr:housenumber": "16", "addr:postcode": "10437", "addr:street": "Dunckerstraße", "addr:suburb": "Prenzlauer Berg", "amenity": "community_centre", "community_centre": "youth_centre", "community_centre:for": "child;juvenile", "contact:phone": "+49 30 4458700", "contact:website": "https://www.popelbuehne.de/", "name": "Popel Bühne", "operator": "Popel Bühne e.V.", "wheelchair": "no"}}, {"type": "node", "id": 7274596652, "lat": 52.5436786, "lon": 13.4215681, "tags": {"addr:city": "Berlin", "addr:country": "DE", "addr:housenumber": "76", "addr:postcode": "10437", "addr:street": "Dunckerstraße", "addr:suburb": "Prenzlauer Berg", "amenity": "community_centre", "check_date": "2023-04-08", "community_centre": "meeting_room", "community_centre:for": "senior", "contact:phone": "+49 30 4452321", "contact:website": "http://mitundfuereinander.de/", "description": "Begegnungsstätte für ältere Menschen", "internet_access": "no", "name": "Herbstlaube", "opening_hours": "Mo, Tu, Th, Fr 10:00-17:00", "operator": "Miteinander-Füreinander Selbsthilfebegegnungsstätten e.V.", "wheelchair": "yes"}}, {"type": "node", "id": 7280475195, "lat": 52.5466087, "lon": 13.420476, "tags": {"addr:city": "Berlin", "addr:country": "DE", "addr:housenumber": "75", "addr:postcode": "10437", "addr:street": "Lychener Straße", "addr:suburb": "Prenzlauer Berg", "amenity": "community_centre", "community_centre": "youth_centre", "contact:website": "https://www.sjzlychi.de/", "name": "SportJugendZentrum Lychi", "operator": "Gesellschaft für Sport und Jugendsozialarbeit gGmbH", "operator:short": "GSJ"}}, {"type": "node", "id": 7360170359, "lat": 52.425731, "lon": 13.3160721, "tags": {"addr:city": "Berlin", "addr:country": "DE", "addr:housenumber": "52", "addr:postcode": "12207", "addr:street": "Ostpreußendamm", "addr:suburb": "Lichterfelde", "amenity": "community_centre", "check_date:opening_hours": "2023-02-12", "community_centre": "events_venue", "community_centre:for": "senior", "contact:email": "kommunikationszentrum-am-od@web.de", "contact:phone": "+49 30 7726055", "contact:website": "https://www.berlin.de/ba-steglitz-zehlendorf/politik-und-verwaltung/aemter/amt-fuer-soziales/seniorenbetreuung/artikel.929353.php", "name": "Kommunikationszentrum", "opening_hours": "Mo-Fr 10:30-17:30", "wheelchair": "yes"}}, {"type": "node", "id": 7426914624, "lat": 52.5471323, "lon": 13.3914312, "tags": {"addr:city": "Berlin", "addr:country": "DE", "addr:housenumber": "28", "addr:postcode": "13355", "addr:street": "Putbusser Straße", "addr:suburb": "Gesundbrunnen", "amenity": "community_centre", "check_date:opening_hours": "2023-03-16", "community_centre": "youth_centre", "community_centre:for": "juvenile", "name": "TimeOut", "opening_hours:signed": "no", "wheelchair": "no"}}, {"type": "node", "id": 7528948673, "lat": 52.486245, "lon": 13.367664, "tags": {"addr:housenumber": "11", "addr:street": "Geßlerstraße", "amenity": "community_centre", "check_date": "2022-11-14", "check_date:opening_hours": "2023-05-06", "name": "Interkulturelles Haus Schöneberg", "opening_hours:signed": "no", "website": "https://ikhberlin.de", "wheelchair": "no"}}, {"type": "node", "id": 7618474159, "lat": 52.495986, "lon": 13.3253595, "tags": {"addr:city": "Berlin", "addr:country": "DE", "addr:housenumber": "3", "addr:postcode": "10719", "addr:street": "Düsseldorfer Straße", "amenity": "community_centre", "community_centre:for": "family", "contact:website": "https://www.familienzentrum-guk.de/", "name": "Groß & Klein", "operator": "S&S gemeinnützige Gesellschaft für Soziales mbH"}}, {"type": "node", "id": 7660539096, "lat": 52.483594, "lon": 13.3503997, "tags": {"addr:city": "Berlin", "addr:country": "DE", "addr:housenumber": "37", "addr:postcode": "10827", "addr:street": "Hauptstraße", "addr:suburb": "Schöneberg", "amenity": "community_centre", "community_centre:for": "child", "name": "Kinderfreizeiteinrichtung Lassenpark", "opening_hours": "Mo-Th 13:00-18:00; Fr 13:00-18:30"}}, {"type": "node", "id": 7683100382, "lat": 52.4731607, "lon": 13.3276824, "tags": {"addr:city": "Berlin", "addr:country": "DE", "addr:housenumber": "1", "addr:postcode": "12161", "addr:street": "Friedrich-Wilhelm-Platz", "addr:suburb": "Friedenau", "amenity": "community_centre", "check_date:opening_hours": "2022-01-27", "community_centre:for": "senior", "name": "SeniorenBücherBörse", "opening_hours": "Mo-Fr 08:30-13:30", "operator": "Kunstfabrik e.V."}}, {"type": "node", "id": 7688108949, "lat": 52.5188774, "lon": 13.4556316, "tags": {"addr:city": "Berlin", "addr:country": "DE", "addr:housenumber": "62", "addr:postcode": "10247", "addr:street": "Weidenweg", "addr:suburb": "Friedrichshain", "amenity": "community_centre", "check_date": "2023-07-04", "community_centre": "family_centre", "contact:email": "info@dashaus-kindheit.de", "contact:phone": "+49 30 4267749", "contact:website": "https://dashaus-kindheit.de/", "name": "Das Haus", "operator": "Das Haus e.V."}}, {"type": "node", "id": 7688108957, "lat": 52.5722586, "lon": 13.5681369, "tags": {"amenity": "community_centre", "community_centre": "youth_centre", "contact:email": "jfe.uno@pad-berlin.de", "contact:phone": "+49 30 9323111", "contact:website": "https://www.pad-berlin.de/standorte/index.php?option=com_k2&view=item&id=80&Itemid=243", "name": "Jugendfreizeiteinrichtung UNO", "opening_hours": "Mo-Sa 12:00-19:00", "wheelchair": "limited"}}, {"type": "node", "id": 7690308472, "lat": 52.5965, "lon": 13.4263, "tags": {"addr:city": "Berlin", "addr:country": "DE", "addr:housenumber": "55", "addr:postcode": "13127", "addr:street": "Schönhauser Straße", "addr:suburb": "Französisch Buchholz", "amenity": "community_centre", "community_centre": "events_venue", "community_centre:for": "child", "contact:phone": "+49 30 4741844", "contact:website": "http://marmelaedchen-berlin.de/", "description": "Kinderprogramm für Geburtstagsfeiern, Kitagruppen", "name": "Das MarmeLädchen"}}, {"type": "node", "id": 7714713086, "lat": 52.3921853, "lon": 13.0898331, "tags": {"addr:city": "Potsdam", "addr:country": "DE", "addr:housenumber": "19", "addr:postcode": "14482", "addr:street": "Rudolf-Breitscheid-Straße", "addr:suburb": "Babelsberg", "amenity": "community_centre", "community_centre": "youth_centre", "community_centre:for": "juvenile", "contact:email": "fanprojekt-babelsberg@stiftung-spi.de", "contact:facebook": "https://www.facebook.com/FanprojektBabelsberg", "contact:instagram": "https://www.instagram.com/fanprojekt_babelsberg/", "contact:mobile": "+49 160 733 9319", "contact:phone": "+49 157 313 72618", "contact:website": "https://www.stiftung-spi.de/service/projekte/detail/fanbabelsberg", "contact:youtube": "https://www.youtube.com/channel/UC_FK2-cHKgvXk9Fz0R4ohRg", "name": "Fanprojekt Babelsberg", "opening_hours": "Mo,Th 15:00-21:00", "operator": "Stiftung SPI Sozialpädagogisches Institut Berlin \"Walter May\"", "shop": "fan"}}, {"type": "node", "id": 7721022118, "lat": 52.5962749, "lon": 13.3532708, "tags": {"addr:city": "Berlin", "addr:country": "DE", "addr:housenumber": "159", "addr:postcode": "13439", "addr:street": "Wilhelmsruher Damm", "addr:suburb": "Märkisches Viertel", "amenity": "community_centre", "community_centre": "family_centre", "community_centre:for": "family", "email": "mail@face-familienzentrum.de", "name": "Face Familienzentrum", "operator": "Evangelische Kirche in Reinickendorf", "operator:type": "religious", "phone": "+4930 51052352", "social_facility:for": "family", "website": "https://face-familienzentrum.de/"}}, {"type": "node", "id": 7731249038, "lat": 52.4425525, "lon": 13.5518342, "tags": {"amenity": "community_centre", "community_centre:for": "juvenile", "name": "Grimau-Club", "website": "https://www.berlin.de/ba-treptow-koepenick/politik-und-verwaltung/aemter/jugendamt/jugend-und-sozialarbeit/artikel.141587.php"}}, {"type": "node", "id": 7746191787, "lat": 52.5862324, "lon": 13.3675914, "tags": {"amenity": "community_centre", "name": "Wilhelm gibt keine Ruh", "opening_hours": "Tu 10:00-15:00; Fr 10:00-14:00", "wheelchair": "yes"}}, {"type": "node", "id": 7747350430, "lat": 52.4712558, "lon": 13.3444823, "tags": {"addr:city": "Berlin", "addr:country": "DE", "addr:housenumber": "1", "addr:postcode": "12157", "addr:street": "Vorarlberger Damm", "addr:suburb": "Schöneberg", "amenity": "community_centre", "description": "Musik - Theater - Medien", "level": "1", "name": "Kulturetage", "operator": "Nachbarschaftsheim Schöneberg e.V.", "operator:type": "ngo", "website": "https://www.nbhs.de/stadtteilarbeit/orte-fuer-die-nachbarschaft/kulturetage"}}, {"type": "node", "id": 7798570855, "lat": 52.5043057, "lon": 13.328197, "tags": {"amenity": "community_centre", "name": "Jüdisches Gemeindehaus"}}, {"type": "node", "id": 7803281608, "lat": 52.4543759, "lon": 13.4386681, "tags": {"amenity": "community_centre", "check_date:opening_hours": "2023-08-21", "community_centre:for": "juvenile", "description": "Jugendfreizeitheim", "name": "Jugendclub Feuerwache", "opening_hours:signed": "no"}}, {"type": "node", "id": 7832844330, "lat": 52.4287255, "lon": 13.7311336, "tags": {"addr:city": "Berlin", "addr:country": "DE", "addr:housenumber": "362", "addr:postcode": "12589", "addr:street": "Fürstenwalder Allee", "addr:suburb": "Rahnsdorf", "amenity": "community_centre", "community_centre": "community_hall", "contact:phone": "+49 30 6486090", "contact:website": "https://www.kiezklub-rahnsdorf-ev.de/", "name": "Kiezklub Rahnsdorf", "opening_hours": "Mo,We 13:00-16:00; Fr 10:00-12:30"}}, {"type": "node", "id": 7834977402, "lat": 52.5309398, "lon": 13.4007065, "tags": {"alt_name": "Anarchistischer Laden Berlin", "amenity": "community_centre", "contact:email": "a-laden@free.de", "contact:phone": "+49 30 83108085", "contact:website": "https://www.a-laden.org/", "currency:EUR": "yes", "currency:others": "no", "image": "https://www.a-laden.org/wp-content/uploads/2018/08/a-laden-au%C3%9Fen2-300x225.jpg", "language:de": "main", "name": "A-Laden", "name:etymology:wikidata": "Q6199", "opening_hours": "Th 18:00-22:00", "operator": "Freie Kultur Aktion", "operator:type": "community", "payment:cash": "yes", "wheelchair": "no"}}, {"type": "node", "id": 7886797485, "lat": 52.5510431, "lon": 13.3878919, "tags": {"addr:city": "Berlin", "addr:country": "DE", "addr:housenumber": "10", "addr:postcode": "13357", "addr:street": "Heidebrinker Straße", "addr:suburb": "Gesundbrunnen", "amenity": "community_centre", "check_date": "2023-01-03", "community_centre": "meeting_room", "community_centre:for": "child;juvenile", "contact:website": "https://www.kuemmelkueche.de", "description": "Lernwerkstatt Kochen", "level": "0", "name": "Kümmelküche", "opening_hours": "\"nach Vereinbarung\"", "wheelchair": "no"}}, {"type": "node", "id": 7989989003, "lat": 52.4714973, "lon": 13.4335972, "tags": {"addr:city": "Berlin", "addr:country": "DE", "addr:housenumber": "23", "addr:postcode": "12053", "addr:street": "Jonasstraße", "addr:suburb": "Neukölln", "amenity": "community_centre", "check_date:opening_hours": "2023-04-27", "community_centre:for": "juvenile", "contact:email": "jugendclub-joju23@evin-ev.de", "contact:phone": "+49 30 74690050", "contact:website": "http://www.evin-ev.de/joju23/", "max_age": "17", "min_age": "13", "name": "JoJu 23", "opening_hours": "Tu-Fr 15:00-20:00", "operator": "Evin e.V.", "wheelchair": "limited"}}, {"type": "node", "id": 8072617751, "lat": 52.4675716, "lon": 13.3438596, "tags": {"addr:city": "Berlin", "addr:country": "DE", "addr:housenumber": "84", "addr:postcode": "12157", "addr:street": "Rubensstraße", "addr:suburb": "Schöneberg", "amenity": "community_centre", "community_centre:for": "family", "name": "Rubens Ort für Familien", "opening_hours": "Mo-Th 10:00-13:30; We 10:00-17:30; Fr 14:30-18:00; PH off", "website": "http://www.familiencaferubens.de"}}, {"type": "node", "id": 8118819079, "lat": 52.4708331, "lon": 13.3280267, "tags": {"addr:city": "Berlin", "addr:country": "DE", "addr:housenumber": "76a", "addr:postcode": "12161", "addr:street": "Bundesallee", "addr:suburb": "Friedenau", "amenity": "community_centre", "community_centre": "parish_hall", "denomination": "protestant", "name": "Zum Guten Hirten", "religion": "christian", "website": "https://www.zum-guten-hirten-friedenau.de", "wheelchair": "limited"}}, {"type": "node", "id": 8255919139, "lat": 52.5479496, "lon": 13.5036457, "tags": {"addr:city": "Berlin", "addr:country": "DE", "addr:housenumber": "9-9D", "addr:postcode": "13055", "addr:street": "Hauptstraße", "addr:suburb": "Alt-Hohenschönhausen", "amenity": "community_centre", "community_centre": "meeting_room", "community_centre:for": "volunteer", "contact:email": "info@oskar.berlin", "contact:phone": "+49 30 746858740", "contact:website": "https://oskar.berlin", "description": "Die oskar | freiwilligenagentur ist eine soziale Einrichtung mit Infos, Beratung und Angeboten für Freiwillige/Ehrenamtliche", "name": "oskar freiwilligenagentur lichtenberg", "opening_hours": "Tu 14:00-18:00; Th 10:00-14:00", "wheelchair": "yes"}}, {"type": "node", "id": 8257275332, "lat": 52.4435033, "lon": 13.5022731, "tags": {"addr:city": "Berlin", "addr:country": "DE", "addr:housenumber": "102", "addr:postcode": "12487", "addr:street": "Sterndamm", "addr:suburb": "Johannisthal", "amenity": "community_centre", "check_date": "2020-12-24", "community_centre": "community_hall", "contact:email": "sonntag.soz2@ba-tk.berlin.de", "contact:fax": "+49 30 902975666", "contact:phone": "+49 30 902975665", "contact:website": "https://www.berlin.de/ba-treptow-koepenick/politik-und-verwaltung/aemter/amt-fuer-soziales/kiezklubs/kiezklub-rathaus-johannisthal/", "name": "Kiezklub Rathaus Johannisthal"}}, {"type": "node", "id": 8371142115, "lat": 52.480656, "lon": 13.4517262, "tags": {"addr:city": "Berlin", "addr:housenumber": "23", "addr:postcode": "12059", "addr:street": "Treptower Straße", "amenity": "community_centre", "email": "team@qm-harzerkiez.de", "name": "Quartiersmanagement Harzer Kiez", "operator": "Stadtkümmerei", "operator:type": "private", "phone": "+49 30 81493678", "website": "https://qm-harzerstrasse.de/"}}, {"type": "node", "id": 8422865854, "lat": 52.4877549, "lon": 13.3348935, "tags": {"addr:city": "Berlin", "addr:country": "DE", "addr:housenumber": "1", "addr:postcode": "10715", "addr:street": "Babelsberger Straße", "addr:suburb": "Wilmersdorf", "amenity": "community_centre", "check_date:opening_hours": "2022-11-27", "name": "Die schicke Ria", "opening_hours": "Mo,Tu,Th,Fr 11:00-13:00,15:00-20:00; Sa 11:00-14:00", "operator:type": "private_for_profit", "website": "https://www.die-schicke-ria.de/"}}, {"type": "node", "id": 8435917975, "lat": 52.5223801, "lon": 13.1656108, "tags": {"addr:city": "Berlin", "addr:country": "DE", "addr:housenumber": "22D", "addr:postcode": "13593", "addr:street": "Obstallee", "addr:suburb": "Staaken", "amenity": "community_centre", "contact:website": "https://gwv-heerstrasse.de/", "name": "Stadtteilzentrum Obstallee", "operator": "Gemeinwesenverein Heerstraße Nord e. V."}}, {"type": "node", "id": 8730999914, "lat": 52.5688295, "lon": 13.3796246, "tags": {"addr:city": "Berlin", "addr:country": "DE", "addr:housenumber": "1", "addr:postcode": "13409", "addr:street": "Granatenstraße", "addr:suburb": "Reinickendorf", "amenity": "community_centre", "club": "sport", "community_centre": "club_home", "contact:email": "clubheim@berliner-wasserratten.de", "contact:fax": "+49 30 49989158", "contact:phone": "+49 30 4521158", "contact:website": "https://www.berliner-wasserratten.de", "name": "Berliner Wasserratten", "opening_hours": "Mo 14:00-18:00, Tu 09:30-14:00, Fr 15:00-19:00", "operator": "Berliner Wasserratten gegr. 1889 e.V.", "sport": "swimming"}}, {"type": "node", "id": 8796320344, "lat": 52.468068, "lon": 13.4838796, "tags": {"addr:city": "Berlin", "addr:country": "DE", "addr:housenumber": "274", "addr:postcode": "12437", "addr:street": "Kiefholzstraße", "addr:suburb": "Baumschulenweg", "amenity": "community_centre", "contact:fax": "+49 30 53007001", "contact:phone": "+49 30 5320095", "name": "KIEZKLUB Treptow-Kolleg", "opening_hours": "Mo-Fr 09:00-15:00"}}, {"type": "node", "id": 8796435608, "lat": 52.4489904, "lon": 13.507962, "tags": {"addr:city": "Berlin", "addr:country": "DE", "addr:housenumber": "47", "addr:postcode": "12487", "addr:street": "Sterndamm", "addr:suburb": "Johannisthal", "amenity": "community_centre", "community_centre": "community_hall", "contact:fax": "+49 30 816901705", "contact:phone": "+49 173 6195697", "contact:website": "https://www.johanniter.de/johanniter-unfall-hilfe/einrichtung/begegnungszentrum-johannisthal-3178/", "name": "Quartiersmanagement und Begegnungszentrum Johannisthal", "office": "quango"}}, {"type": "node", "id": 8809478391, "lat": 52.4541473, "lon": 13.3234597, "tags": {"amenity": "community_centre", "brand": "Deutsches Rotes Kreuz", "brand:wikidata": "Q694104", "check_date": "2023-10-02", "description": "Nachbarschaftszentrum", "email": "schmuckm@drk-berlin.net", "name": "DRK Kiezoase", "phone": "+49 30 290036081", "website": "http://www.drk-sz.de"}}, {"type": "node", "id": 8845819668, "lat": 52.4131478, "lon": 13.3278295, "tags": {"addr:city": "Berlin", "addr:housenumber": "43", "addr:postcode": "12209", "addr:street": "Schütte-Lanz-Straße", "addr:suburb": "Lichterfelde", "amenity": "community_centre", "community_centre": "community_hall", "name": "Nachbarschaftshaus Lilienthal", "operator": "Mittelhof", "website": "https://www.mittelhof.org/nachbarschaftshaus-lilienthal/"}}, {"type": "node", "id": 8891156401, "lat": 52.4016391, "lon": 13.5711448, "tags": {"addr:city": "Berlin", "addr:housenumber": "33", "addr:postcode": "12526", "addr:street": "Dahmestraße", "amenity": "community_centre", "community_centre": "cultural_centre", "community_centre:for": "multigeneration", "name": "KIEZKLUB Bohnsdorf", "phone": "+49 30 67895091", "website": "https://www.berlin.de/ba-treptow-koepenick/politik-und-verwaltung/aemter/amt-fuer-soziales/kiezklubs/kiezklub-bohnsdorf/"}}, {"type": "node", "id": 8999104601, "lat": 52.5961543, "lon": 13.3522278, "tags": {"addr:city": "Berlin", "addr:country": "DE", "addr:housenumber": "161", "addr:postcode": "13439", "addr:street": "Wilhelmsruher Damm", "amenity": "community_centre", "email": "info@bennimmv.de", "name": "BENN im Märkischen Viertel", "operator": "Apostel Petrus Gemeinde", "operator:type": "religious", "website": "https://www.bennimmv.de"}}, {"type": "node", "id": 9052669580, "lat": 52.4797875, "lon": 13.4237468, "tags": {"addr:housenumber": "27", "addr:street": "Mahlower Straße", "amenity": "community_centre", "name": "Nachbarschaftsheim Neukölln"}}, {"type": "node", "id": 9067856748, "lat": 52.4385838, "lon": 13.5496155, "tags": {"addr:city": "Berlin", "addr:housenumber": "52", "addr:postcode": "12489", "addr:street": "Dörpfeldstraße", "amenity": "community_centre", "email": "Milde.Soz@ba-tk.berlin.de", "fax": "+49 (030) 90297-5769", "level": "0", "name": "Kiezclub Alte Schule", "opening_hours": "Mo-Fr 09:00-17:00", "operator": "Bezirksamt Treptow-Köpenick", "phone": "+49 (030) 90297-5768", "website": "https://www.berlin.de/ba-treptow-koepenick/politik-und-verwaltung/aemter/amt-fuer-soziales/kiezklubs/kiezklub-alte-schule/", "wheelchair": "yes"}}, {"type": "node", "id": 9114813718, "lat": 52.4247883, "lon": 13.4629575, "tags": {"addr:city": "Berlin", "addr:country": "DE", "addr:housenumber": "72", "addr:postcode": "12353", "addr:street": "Lipschitzallee", "addr:suburb": "Gropiusstadt", "amenity": "community_centre", "check_date": "2023-07-19", "community_centre": "family_centre", "contact:email": "familienzentrum@malteser-berlin.de", "contact:phone": "+49 30 60257533", "name": "Familienzentrum Manna", "operator": "Malteser"}}, {"type": "node", "id": 9118047010, "lat": 52.461291, "lon": 13.5497141, "tags": {"amenity": "community_centre", "community_centre": "youth_centre", "community_centre:for": "child", "contact:website": "https://orbitall.fez-berlin.de/", "name": "orbitall - Raumfahrt im FEZ"}}, {"type": "node", "id": 9137924053, "lat": 52.6326221, "lon": 13.4956403, "tags": {"amenity": "community_centre", "email": "stz.buch@albatrosggmbh.de", "level": "1", "name": "Stadtteilzentrum Buch", "opening_hours": "Mo-Fr 10:00-16:00", "operator": "Albatros gGmbH", "operator:type": "private_non_profit", "phone": "+49 30 941 54 26", "website": "https://www.albatrosggmbh.de/stadtteilarbeit-und-nachbarschaft/stadtteilzentren/stz-buch/", "wheelchair": "yes"}}, {"type": "node", "id": 9178072009, "lat": 52.4949179, "lon": 13.4304413, "tags": {"addr:housename": "Hinterhaus", "addr:housenumber": "63a", "addr:street": "Reichenberger Straße", "amenity": "community_centre", "contact:email": "erreichbar@riseup.net", "contact:website": "https://erreichbar.noblogs.org/", "name": "Erreichbar", "wheelchair": "no", "wheelchair:description": "Zugang über Treppe mit mehreren Stufen, Absätze und unebenen Boden."}}, {"type": "node", "id": 9215910820, "lat": 52.4213812, "lon": 13.5393982, "tags": {"addr:city": "Berlin", "addr:country": "DE", "addr:housenumber": "42", "addr:postcode": "12524", "addr:street": "Köpenicker Straße", "addr:suburb": "Altglienicke", "amenity": "community_centre", "community_centre": "family_centre", "name": "FamilienBegegnungsZentrum", "opening_hours": "Mo-Th 09:00-18:00; Fr 09:00-14:00", "operator": "offensiv91 e.V.", "wheelchair": "yes"}}, {"type": "node", "id": 9243487158, "lat": 52.5443029, "lon": 13.3724507, "tags": {"amenity": "community_centre", "check_date:opening_hours": "2023-08-27", "name": "LebensMittelPunkt", "opening_hours:signed": "no", "wheelchair": "limited"}}, {"type": "node", "id": 9243768379, "lat": 52.5237089, "lon": 13.4189941, "tags": {"amenity": "community_centre", "description": "Ein Bündnis um und für Lebensmittel – klimafreundlich und sozial, ökologisch angebaut, fair gehandelt, gemeinsam gegärtnert, gegessen und gekocht.", "function": "Ernährungswende", "name": "LebensMittelPunkt", "website": "https://hausderstatistik.org/pioniere/lebensmittelpunkt-hds/"}}, {"type": "node", "id": 9359321638, "lat": 52.5037943, "lon": 13.3632319, "tags": {"addr:city": "Berlin", "addr:country": "DE", "addr:housenumber": "27", "addr:postcode": "10785", "addr:street": "Lützowstraße", "addr:suburb": "Tiergarten", "amenity": "community_centre", "community_centre": "community_hall", "contact:email": "nbt-luetzowstrasse27@stadtteilverein.eu", "contact:phone": "+49 30 23005026", "contact:website": "http://www.stadtteilverein.eu/stadtteilarbeit/nachbarschaftstreff-luetzowstrasse-27/", "name": "Nachbarschaftstreff Lützowstraße 27", "opening_hours": "Mo-Fr 11:00-18:00", "operator": "Stadtteilverein Tiergarten e.V."}}, {"type": "node", "id": 9359321642, "lat": 52.421997, "lon": 13.4571925, "tags": {"addr:city": "Berlin", "addr:country": "DE", "addr:housenumber": "1", "addr:postcode": "12353", "addr:street": "Wildhüterweg", "addr:suburb": "Gropiusstadt", "amenity": "community_centre", "community_centre": "youth_centre", "contact:email": "wildhueterweg@neukoelln-jugend.de", "contact:phone": "+49 30 6041078", "contact:website": "http://wildhueterweg.de/", "name": "Kinder- und Jugendclub Wildhüterweg", "opening_hours": "Mo-We,Fr 12:00-18:15; Th 13:00-18:15"}}, {"type": "node", "id": 9359321644, "lat": 52.572021, "lon": 13.4379135, "tags": {"addr:city": "Berlin", "addr:country": "DE", "addr:housenumber": "112", "addr:postcode": "13089", "addr:street": "Romain-Rolland-Straße", "addr:suburb": "Heinersdorf", "amenity": "community_centre", "community_centre": "community_hall", "contact:email": "info@zukunftswerkstatt-heinersdorf.de", "contact:phone": "+49 30 21982970", "contact:website": "https://zukunftswerkstatt-heinersdorf.de/ueber-uns/", "name": "Zukunftswerkstatt Heinersdorf", "opening_hours": "Mo-Fr 11:00-16:00", "operator": "Bürgerverein Berlin-Heinersdorf e. V."}}, {"type": "node", "id": 9450525778, "lat": 52.5371673, "lon": 13.3965688, "tags": {"addr:city": "Berlin", "addr:housenumber": "145", "addr:postcode": "10115", "addr:street": "Brunnenstraße", "addr:suburb": "Mitte", "amenity": "community_centre", "name": "Nachbarschaftszentrum Brunnentreff", "operator": "Landesverband Volkssolidarität Berlin e.V.", "website": "https://volkssolidaritaet-berlin.de/einrichtungen/nachbarschaftszentrum-brunnentreff/", "wheelchair": "no"}}, {"type": "node", "id": 9507984545, "lat": 52.4573559, "lon": 13.5408551, "tags": {"addr:city": "Berlin", "addr:housenumber": "14", "addr:postcode": "12459", "addr:street": "Weiskopffstraße", "amenity": "community_centre", "community_centre": "youth_centre", "contact:website": "https://weiskopff-klub.de/", "name": "Weiskopff Klub"}}, {"type": "node", "id": 9516304095, "lat": 52.5482195, "lon": 13.4527266, "tags": {"addr:city": "Berlin", "addr:housenumber": "4", "addr:postcode": "13088", "addr:street": "Mahlerstraße", "amenity": "community_centre", "name": "Familienzentrum Weißsensee", "operator": "Frei-Zeit-Haus e.V.", "operator:type": "private", "website": "https://www.familienzentrum-weissensee.de/"}}, {"type": "node", "id": 9518513689, "lat": 52.4891876, "lon": 13.5212576, "tags": {"addr:city": "Berlin", "addr:housenumber": "30", "addr:postcode": "10318", "addr:street": "Hönower Straße", "addr:suburb": "Karlshorst", "amenity": "community_centre", "community_centre": "youth_centre", "contact:website": "https://ujz.tumblr.com/", "name": "UJZ Karlshorst"}}, {"type": "node", "id": 9577332704, "lat": 52.5215293, "lon": 13.4008138, "tags": {"addr:city": "Berlin", "addr:country": "DE", "addr:housenumber": "27", "addr:postcode": "10178", "addr:street": "Burgstraße", "addr:suburb": "Mitte", "amenity": "community_centre", "check_date:opening_hours": "2022-11-03", "community_centre": "cultural_centre", "contact:website": "https://instytutpolski.pl/berlin/", "name": "Polnisches Institut Berlin", "name:pl": "Instytut Polski w Berlinie", "opening_hours:signed": "no", "toilets:wheelchair": "yes", "wheelchair": "yes"}}, {"type": "node", "id": 9615055690, "lat": 52.4354947, "lon": 13.5865727, "tags": {"amenity": "community_centre", "community_centre:for": "child, juvenile", "contact:website": "http://www.tjp-ev.de/", "name": "Technischer Jugendbildungsverein in Praxis", "operator": "Technischer Jugendbildungsverein in Praxis e.V.", "short_name": "TJP e.V."}}, {"type": "node", "id": 9649536394, "lat": 52.4981631, "lon": 13.4344313, "tags": {"addr:city": "Berlin", "addr:country": "DE", "addr:housename": "Haus 3", "addr:housenumber": "1", "addr:postcode": "10997", "addr:street": "Görlitzer Straße", "addr:suburb": "Kreuzberg", "amenity": "community_centre", "community_centre": "meeting_room", "contact:website": "https://gangway.de/teams/colab-goerli/", "name": "CoLab im Görli", "operator": "Gangway e.V."}}, {"type": "node", "id": 9723441190, "lat": 52.4840733, "lon": 13.4055829, "tags": {"addr:city": "Berlin", "addr:housenumber": "32", "addr:postcode": "10965", "addr:street": "Lilienthalstraße", "amenity": "community_centre", "community_centre": "environment_centre", "name": "floating berlin", "operator": "Floating e.V.", "website": "https://floating-berlin.org/"}}, {"type": "node", "id": 9767155092, "lat": 52.565867, "lon": 13.5103205, "tags": {"addr:city": "Berlin", "addr:housenumber": "175", "addr:postcode": "13053", "addr:street": "Wartenberger Straße", "amenity": "community_centre", "community_centre": "youth_centre", "email": "info@cabuwazi.de", "name": "Kinderzirkus CABUWAZI", "operator": "Grenzkultur gGmbH", "operator:type": "private", "website": "https://cabuwazi.de/"}}, {"type": "node", "id": 9767955446, "lat": 52.6211915, "lon": 13.4852738, "tags": {"addr:city": "Berlin", "addr:housenumber": "136", "addr:postcode": "13125", "addr:street": "Busonistraße", "amenity": "community_centre", "community_centre": "social_centre", "community_centre:for": "senior;family;immigrant", "contact:phone": "+49 30 94380098", "name": "Stadtteilzentrum Der Turm", "operator": "Albatros gGmbH", "operator:type": "private_non_profit", "website": "https://www.albatrosggmbh.de"}}, {"type": "node", "id": 9784587252, "lat": 52.5606977, "lon": 13.3802929, "tags": {"addr:city": "Berlin", "addr:country": "DE", "addr:housenumber": "116", "addr:postcode": "13359", "addr:street": "Koloniestraße", "addr:suburb": "Gesundbrunnen", "amenity": "community_centre", "community_centre": "youth_centre"}}, {"type": "node", "id": 9792474233, "lat": 52.4914841, "lon": 13.3221478, "tags": {"addr:city": "Berlin", "addr:country": "DE", "addr:housenumber": "38", "addr:postcode": "10717", "addr:street": "Güntzelstraße", "addr:suburb": "Wilmersdorf", "amenity": "community_centre", "community_centre": "cultural_centre", "contact:website": "https://www.estonianhouseinberlin.org/", "name": "Estnisches Haus in Berlin", "name:en": "Estonian House in Berlin", "name:et": "Eesti Maja Berliinis"}}, {"type": "node", "id": 9819799507, "lat": 52.4478445, "lon": 13.3793664, "tags": {"addr:city": "Berlin", "addr:housenumber": "42", "addr:postcode": "12105", "addr:street": "Kurfürstenstraße", "addr:suburb": "Mariendorf", "amenity": "community_centre", "community_centre:for": "juvenile", "email": "beats42@ba-ts.berlin.de", "name": "BEATS 42", "operator": "Bezirksamt Tempelhof Schöneberg", "phone": "+49 30 39743596", "website": "https://www.berlin.de/ba-ts/jugendfreizeiteinrichtungen/einrichtungen/beats-42/"}}, {"type": "node", "id": 9831823870, "lat": 52.5113663, "lon": 13.5869948, "tags": {"amenity": "community_centre", "community_centre:for": "child;juvenile", "email": "brandt@cvjm-kaulsdorf.de", "instagram": "https://www.instagram.com/wandelbar.030/", "name": "WandelBAR", "opening_hours": "Mo \"nach Vereinbarung\",Tu 13:30-18:00 open \"8-13 Jahre\",We-Fr 13:30-16:00 open \"8-13 Jahre\",We 16:00-18:00 open \"14-18 Jahre\",Th 16:00-18:30 open \"14-18 Jahre: Kochgruppe\",Fr 16:00-19:00 open \"14-17 Jahre: Freitagsgruppe\"; PH off", "operator": "CVJM Kaulsdorf Berlin e.V.", "phone": "+49 30 56588478", "website": "https://www.cvjm-kaulsdorf.de/website/de/v/kaulsdorf/wandelbar"}}, {"type": "node", "id": 9850418871, "lat": 52.5123618, "lon": 13.4989723, "tags": {"addr:city": "Berlin", "addr:country": "DE", "addr:housenumber": "57", "addr:postcode": "10365", "addr:street": "Hagenstraße", "addr:suburb": "Lichtenberg", "amenity": "community_centre", "community_centre": "social_centre", "community_centre:for": "family;immigrant;senior;tenant;underprivileged;woman", "name": "Kieztreff Undine", "opening_hours": "Mo 10:00-18:00; Tu 10:00-16:00; We-Th 10:00-18:00; Fr 10:00-14:00", "operator": "Sozialwerk des Demokratischen Frauenbundes (Dachverband) e.V.", "operator:type": "private_non_profit", "website": "https://sozialwerk-dfb-berlin.de/kieztreff-undine", "wheelchair": "yes"}}, {"type": "node", "id": 9873844185, "lat": 52.5170076, "lon": 13.2034877, "tags": {"addr:city": "Berlin", "addr:country": "DE", "addr:housenumber": "64", "addr:postcode": "13595", "addr:street": "Götelstraße", "addr:suburb": "Wilhelmstadt", "amenity": "community_centre", "community_centre": "club_home", "contact:email": "sjcwildwuchs@yahoo.de", "contact:fax": "+49 30 3641355 7", "contact:phone": "+49 30 3641355 6", "contact:website": "http://www.sjcwildwuchs.de", "name": "Sportjugendclub Wildwuchs", "opening_hours": "Mo-Th 14:00-20:00; Fr,Su 14:00-18:00"}}, {"type": "node", "id": 9879638297, "lat": 52.4483327, "lon": 13.3822262, "tags": {"amenity": "community_centre", "check_date": "2023-08-09", "name": "Machon-Eck", "website": "https://bbg-eg.de/service/gemeinschaftsraeume/machon-eck/"}}, {"type": "node", "id": 9879638299, "lat": 52.4506919, "lon": 13.378987, "tags": {"addr:city": "Berlin", "addr:country": "DE", "addr:housenumber": "97", "addr:postcode": "12105", "addr:street": "Rathausstraße", "addr:suburb": "Mariendorf", "amenity": "community_centre", "description": "Workshops für Lotusblatt-Malerei", "name": "Himapan Berlin", "operator:type": "private_for_profit"}}, {"type": "node", "id": 9901288465, "lat": 52.4747886, "lon": 13.3107157, "tags": {"amenity": "community_centre", "community_centre": "parish_hall", "name": "Lindenkirchengemeinde", "opening_hours": "Mo 16:00-19:00; Tu 11:00-13:00; We,Fr 09:00-13:00", "religion": "christian", "wheelchair": "limited"}}, {"type": "node", "id": 9901349076, "lat": 52.4167308, "lon": 13.3664794, "tags": {"addr:suburb": "Marienfelde", "amenity": "community_centre", "community_centre:for": "juvenile", "name": "3D Medienhaus", "operator": "NUSZ Nachbarschaftszentrum in der UFA-Fabrik", "website": "https://nusz.de/kinder-jugend/3d-medienhaus/"}}, {"type": "node", "id": 9901362100, "lat": 52.4165247, "lon": 13.3671547, "tags": {"addr:city": "Berlin", "addr:housenumber": "3", "addr:postcode": "12277", "addr:street": "Domagkstraße", "addr:suburb": "Marienfelde", "amenity": "community_centre", "community_centre:for": "juvenile", "name": "3D Medienhaus", "operator": "NUSZ Nachbarschaftszentrum in der UFA-Fabrik", "website": "https://nusz.de/kinder-jugend/3d-medienhaus/"}}, {"type": "node", "id": 9917747173, "lat": 52.4481576, "lon": 13.3858934, "tags": {"addr:city": "Berlin", "addr:country": "DE", "addr:housenumber": "72", "addr:postcode": "12109", "addr:street": "Eisenacher Straße", "addr:suburb": "Mariendorf", "amenity": "community_centre", "check_date": "2023-08-04", "contact:email": "benn.ma-te@ag-spas.de", "contact:phone": "+49 30 23287227", "contact:website": "https://benn-mariendorf-tempelhof.de/", "name": "BENN Mariendorf-Tempelhof", "opening_hours": "Mo-Fr 10:00-15:00"}}, {"type": "node", "id": 9917747174, "lat": 52.5451036, "lon": 13.5507756, "tags": {"addr:city": "Berlin", "addr:country": "DE", "addr:housenumber": "36", "addr:postcode": "12679", "addr:street": "Marzahner Promenade", "addr:suburb": "Marzahn", "amenity": "community_centre", "contact:email": "info@BENN-BlumbergerDamm.de", "contact:phone": "+49 152 02979698", "contact:website": "https://benn-blumbergerdamm.de/", "name": "BENN Blumberger Damm", "opening_hours": "Tu 11:00-15:00; We 14:00-18:00; Th 13:00-17:00"}}, {"type": "node", "id": 9917944553, "lat": 52.6202673, "lon": 13.3131018, "tags": {"addr:city": "Berlin", "addr:country": "DE", "addr:housenumber": "105-107", "addr:postcode": "13467", "addr:street": "Berliner Straße", "addr:suburb": "Hermsdorf", "amenity": "community_centre", "community_centre": "community_hall", "community_centre:for": "senior", "contact:email": "sc-hermsdorf@t-online.de", "contact:phone": "+49 30 4044028", "contact:website": "https://www.berlin.de/ba-reinickendorf/service/einrichtungen/seniorenfreizeitstaetten/artikel.105105.php", "name": "Seniorenfreizeitstätte Hermsdorf"}}, {"type": "node", "id": 9917944557, "lat": 52.4871582, "lon": 13.6055661, "tags": {"addr:city": "Berlin", "addr:country": "DE", "addr:housenumber": "140", "addr:postcode": "12623", "addr:street": "Hultschiner Damm", "addr:suburb": "Mahlsdorf", "alt_name": "Kinder- und  Jugendfreizeiteinrichtung am Hultschi", "amenity": "community_centre", "community_centre": "youth_centre", "community_centre:for": "juvenile", "email": "jfe.amhultschi@pad-berlin.de", "facebook": "https://www.facebook.com/p/jfe_am_hultschi-100068929752938/", "instagram": "https://www.instagram.com/jfe_am_hultschi/", "level": "2", "name": "JFE am Hultschi", "opening_hours": "Mo 13:00-19:00, Tu-Th,Sa[2,4] 12:00-19:00, Fr 12:00-20:00; PH off", "operator": "präventive, altersübergreifende Dienste im sozialen Bereich gGmbH", "operator:short": "pad gGmbH", "phone": "+49 30 56588690", "website": "https://pad-berlin.de/jugend/jfe-am-hultschi.html", "wheelchair": "yes", "youtube": "https://www.youtube.com/channel/UCRfxGse-6fvcOMkNghqG84g"}}, {"type": "node", "id": 9928884893, "lat": 52.4391961, "lon": 13.3867541, "tags": {"addr:city": "Berlin", "addr:country": "DE", "addr:housenumber": "20", "addr:postcode": "12107", "addr:street": "Friedenstraße", "addr:suburb": "Mariendorf", "amenity": "community_centre", "community_centre:for": "juvenile", "name": "Café Albrecht - Offener Jugendtreff", "operator": "Evangelisches Jugendzentrum", "website": "http://www.cafe-albrecht.de/index.php/jugend/107-offener-jugendtreff"}}, {"type": "node", "id": 9961163457, "lat": 52.5128659, "lon": 13.4124221, "tags": {"addr:city": "Berlin", "addr:country": "DE", "addr:housenumber": "43", "addr:postcode": "10179", "addr:street": "Wallstraße", "addr:suburb": "Mitte", "amenity": "community_centre", "name": "Jugendzentrum Die Oase", "opening_hours": "Mo-Th 13:00-19:00; Fr 13:00-18:00"}}, {"type": "node", "id": 9966771336, "lat": 52.5009706, "lon": 13.4906907, "tags": {"addr:city": "Berlin", "addr:housenumber": "18", "addr:postcode": "10317", "addr:street": "Lückstraße", "amenity": "community_centre", "community_centre:for": "juvenile", "description": "Offene Kinder-und Jugendarbeit, Sport, Hausaufgabenhilfe, Kochen, geschlechtsspezifische Angebote, Gartengestaltung, Berufsorientierung", "email": "sjbz-luecke@kick-projekte.de", "name": "SportJugendBildungsZentrum Lücke", "operator": "Gesellschaft für Sport und Jugendsozialarbeit gGmbH (GSJ)", "phone": "+49 30 51061164", "website": "http://www.gsj-berlin.de/"}}, {"type": "node", "id": 9969520511, "lat": 52.4648639, "lon": 13.4421835, "tags": {"addr:city": "Berlin", "addr:country": "DE", "addr:housenumber": "67", "addr:postcode": "12051", "addr:street": "Glasower Straße", "addr:suburb": "Neukölln", "amenity": "community_centre", "check_date": "2022-08-22", "community_centre:for": "neighbourhood", "contact:website": "https://www.nbh-neukoelln.de/standorte/engagement-und-beteiligung/mischmit/", "level": "0", "name": "MischMit", "operator": "Nachbarschaftsheim Neukölln e.V."}}, {"type": "node", "id": 10049074180, "lat": 52.5140903, "lon": 13.4073414, "tags": {"addr:city": "Berlin", "addr:housenumber": "1", "addr:postcode": "10179", "addr:street": "Fischerinsel", "amenity": "community_centre", "name": "Mitmach-Laden", "operator": "FiPP e.V. – Fortbildungsinstitut für die pädagogische Praxis", "website": "https://www.kreativhaus-berlin.de/veranstaltungsort/kreativhaus-mitmach-laden/"}}, {"type": "node", "id": 10124204000, "lat": 52.4547046, "lon": 13.3222594, "tags": {"addr:housenumber": "9", "addr:street": "Berlinickestraße", "amenity": "community_centre", "check_date": "2023-04-16", "description": "Nachbarschaftshilfe", "internet_access": "wlan", "internet_access:fee": "no", "name": "Nachbarschaftsladen Mittelhof", "opening_hours": "Mo 10:00-12:00; Th 15:00-18:00", "phone": "+493027979727", "website": "https://www.mittelhof.org/", "wheelchair": "no"}}, {"type": "node", "id": 10167187888, "lat": 52.5217298, "lon": 13.5863781, "tags": {"addr:city": "Berlin", "addr:housenumber": "43", "addr:postcode": "12619", "addr:street": "Teterower Ring", "amenity": "community_centre", "name": "Kieztreff Kaulsdorf", "opening_hours": "Mo,We,Fr 09:00-17:30; Tu,Th 09:00-19:30", "operator": "Berlinovo Immobilien Gesellschaft mbH;Hand in Hand Alltagshelfer UG", "operator:type": "public", "website": "https://www.handinhand-alltagshelfer.de/"}}, {"type": "node", "id": 10203705184, "lat": 52.4948358, "lon": 13.3875368, "tags": {"addr:city": "Berlin", "amenity": "community_centre", "description": "Der Kiezraum ist ein politischer, sozialer und kultureller Ort für die Themen und Interessen der Nachbarschaft, des Stadtteils, der zukünftigen Nutzer*innen, der Kiezinitiativen und Stadtteilgruppen (... und ist Veranstaltungsort).", "name": "Kiezraum", "website": "https://kiezraum.net/"}}, {"type": "node", "id": 10271036121, "lat": 52.4965735, "lon": 13.4338178, "tags": {"addr:city": "Berlin", "addr:housenumber": "31", "addr:postcode": "10999", "addr:street": "Wiener Straße", "amenity": "community_centre", "contact:telegram": "https://t.me/reforumspaceberlin", "name": "Reforum Space Berlin", "website": "https://reforum.io/space/"}}, {"type": "node", "id": 10290532629, "lat": 52.4807807, "lon": 13.4336479, "tags": {"addr:city": "Berlin", "addr:country": "DE", "addr:housenumber": "63", "addr:postcode": "12053", "addr:street": "Boddinstraße", "amenity": "community_centre", "community_centre:for": "immigrant", "name": "Kultur und Solidaritätsverein Rize e.V.", "opening_hours": "Mo-Fr 09:00-15:00", "operator": "Kultur und Solidaritätsverein Rize e.V.", "phone": "+49 30 68054153", "website": "https://rizeder.de/"}}, {"type": "node", "id": 10582795722, "lat": 52.577454, "lon": 13.5092695, "tags": {"addr:city": "Berlin", "addr:country": "DE", "addr:housenumber": "27", "addr:postcode": "13059", "addr:street": "Schweriner Ring", "addr:suburb": "Neu-Hohenschönhausen", "amenity": "community_centre", "contact:email": "benn@sozdia.de", "contact:phone": "+49 171 2117780", "contact:website": "https://www.benn-hohenschoenhausen.de/benn-wartenberg/", "name": "BENN Wartenberg"}}, {"type": "node", "id": 10587203434, "lat": 52.4659474, "lon": 13.3317692, "tags": {"addr:housenumber": "40-39", "addr:street": "Holsteinische Straße", "amenity": "community_centre", "contact:email": "info@stadtteilzentrum-steglitz.de", "contact:phone": "+49 30 8 54 01 17 10", "contact:website": "https://www.stadtteilzentrum-steglitz.de", "name": "Stadtteilzentrum Steglitz"}}, {"type": "node", "id": 10606008451, "lat": 52.5470454, "lon": 13.4534242, "tags": {"amenity": "community_centre", "check_date:opening_hours": "2023-06-14", "community_centre": "youth_centre", "name": "Jugendfreizeitstätte Berlin-Weissensee", "opening_hours:signed": "no", "wheelchair": "no"}}, {"type": "node", "id": 10690039994, "lat": 52.563752, "lon": 13.412375, "tags": {"amenity": "community_centre", "community_centre": "youth_centre", "name": "Tivolotte", "operator": "Kinder lernen Leben gGmbH", "website": "http://tivolotte.de/"}}, {"type": "node", "id": 10748103876, "lat": 52.4966588, "lon": 13.4255274, "tags": {"addr:city": "Berlin", "addr:country": "DE", "addr:housenumber": "44-45", "addr:postcode": "10999", "addr:street": "Reichenberger Straße", "addr:suburb": "Kreuzberg", "amenity": "community_centre", "community_centre": "youth_centre", "community_centre:for": "juvenile", "contact:email": "jugendhaus-chip@pagewe.de", "contact:phone": "+49 30 22503090", "min_age": "11", "name": "Jugendhaus Chip", "operator": "Paul Gerhardt Werk Regionalverbund Berlin"}}, {"type": "node", "id": 10780038387, "lat": 52.5204509, "lon": 13.1757593, "tags": {"addr:city": "Berlin", "addr:housenumber": "28", "addr:postcode": "13593", "addr:street": "Blasewitzer Ring", "addr:suburb": "Wilhelmstadt", "amenity": "community_centre", "community_centre:for": "girl", "contact:phone": "+49 174 1616480", "contact:website": "https://www.maedchentreff-staakkato.de/", "name": "Mädchentreff Staachelbeeren"}}, {"type": "node", "id": 10782028833, "lat": 52.4688554, "lon": 13.4573469, "tags": {"amenity": "community_centre", "community_centre": "cultural_centre", "contact:website": "https://musikfabrik.berlin/", "name": "Musikfabrik.Berlin"}}, {"type": "node", "id": 11022270676, "lat": 52.5580473, "lon": 13.3891654, "tags": {"amenity": "community_centre", "name": "Kiez Treff"}}, {"type": "node", "id": 11047767185, "lat": 52.4783548, "lon": 13.4463995, "tags": {"addr:city": "Berlin", "addr:country": "DE", "addr:housenumber": "154", "addr:postcode": "12059", "addr:street": "Sonnenallee", "addr:suburb": "Neukölln", "amenity": "community_centre", "community_centre": "social_centre", "contact:email": "kiezladen154@riseup.net", "contact:website": "https://kiezladen.org", "description": "Sozialberatung, Mieter:innenberatung, Strafrechtsberatung, Essen gegen Spende, Keramik, Siebdruck, Hausaufgabenhilfe, politische Veranstaltungen - regelmäßige Termine und Monatsprogramm auf der Homepage", "name": "Kiezladen Sonnenallee 154", "toilets:wheelchair": "yes", "wheelchair": "yes"}}, {"type": "node", "id": 11059487258, "lat": 52.3741885, "lon": 13.6202638, "tags": {"addr:city": "Eichwalde", "addr:housenumber": "75", "addr:postcode": "15732", "addr:street": "Bahnhofstraße", "amenity": "community_centre", "check_date:opening_hours": "2023-11-18", "name": "LilaTreff", "opening_hours:signed": "no", "operator": "Gemeinde", "operator:type": "community"}}, {"type": "node", "id": 11076702545, "lat": 52.5779013, "lon": 13.3331269, "tags": {"addr:city": "Berlin", "addr:country": "DE", "addr:housenumber": "70", "addr:postcode": "13403", "addr:street": "Ollenhauerstraße", "addr:suburb": "Reinickendorf", "amenity": "community_centre", "community_centre:for": "neighbourhood", "contact:email": "benn@wittenau-sued.de", "contact:phone": "+49 30 47903900", "contact:website": "https://www.wittenau-sued.de/", "name": "BENN Wittenau Süd", "opening_hours": "Mo,We,Fr 09:00-13:00; Tu,Th 14:00-18:00"}}, {"type": "node", "id": 11076702559, "lat": 52.5408185, "lon": 13.3895036, "tags": {"addr:city": "Berlin", "addr:country": "DE", "addr:housenumber": "16", "addr:postcode": "13355", "addr:street": "Wattstraße", "addr:suburb": "Gesundbrunnen", "amenity": "community_centre", "community_centre": "family_centre", "community_centre:for": "family", "contact:email": "fz-wattstrasse@pfefferwerk.de", "contact:phone": "+49 30 44383345", "contact:website": "https://fz-wattstrasse.pfefferwerk.de/", "name": "Familienzentrum Wattstraße"}}, {"type": "node", "id": 11112622489, "lat": 52.5525108, "lon": 13.3880887, "tags": {"amenity": "community_centre", "name": "Quartiersmanagement Badstraße", "office": "quango"}}, {"type": "node", "id": 11146201703, "lat": 52.4949638, "lon": 13.3879475, "tags": {"amenity": "community_centre", "name": "StadtWERKSTATT", "website": "https://www.baustelle-gemeinwohl.de/veranstaltungen/kategorie/stadtwerkstatt/"}}, {"type": "node", "id": 11191636900, "lat": 52.5097824, "lon": 13.4902699, "tags": {"amenity": "community_centre", "community_centre": "youth_centre", "contact:website": "https://drugstore-berlin.de/", "name": "Drugstore", "operator": "Sozialpädagogische Sondermaßnahmen Berlin e.V.", "operator:type": "private_non_profit", "start_date": "1972-09", "wikidata": "Q21041987", "wikipedia": "de:Drugstore (Berlin)"}}, {"type": "node", "id": 11244896950, "lat": 52.52968, "lon": 13.3455192, "tags": {"amenity": "community_centre", "name": "Treffpunkt LebensTraum", "operator": "Lebenstraum e.V.", "website": "http://www.lebenstraum-haus.de/index_4.htm", "wheelchair": "no"}}, {"type": "node", "id": 11244910388, "lat": 52.5330026, "lon": 13.3479095, "tags": {"addr:city": "Berlin", "addr:housenumber": "9", "addr:postcode": "10559", "addr:street": "Stendaler Straße", "amenity": "community_centre", "name": "Stephans - Der Nachbarschaftsladen", "operator": "Moabiter Ratschlag e.V.", "website": "http://moabiter-ratschlag.de/orte/stephans/"}}, {"type": "node", "id": 11257213161, "lat": 52.5326851, "lon": 13.3513379, "tags": {"addr:city": "Berlin", "addr:housenumber": "59", "addr:postcode": "10559", "addr:street": "Perleberger Straße", "amenity": "community_centre", "name": "KARA", "operator": "Not The Cat GmbH", "website": "https://kara-berlin.de/"}}, {"type": "node", "id": 11266701131, "lat": 52.4654641, "lon": 13.4727003, "tags": {"addr:city": "Berlin", "addr:country": "DE", "addr:housenumber": "319", "addr:postcode": "12057", "addr:street": "Sonnenallee", "addr:suburb": "Neukölln", "amenity": "community_centre", "community_centre": "community_hall", "community_centre:for": "neighbourhood", "contact:phone": "+49 30 68059843", "contact:website": "https://mittendrin-neukoelln.de/", "name": "mittendrin", "opening_hours": "Mo,Th 08:00-16:00; Tu,We 08:00-18:00; Fr 08:00-12:00", "operator": "IB Berlin-Brandenburg gGmbH"}}, {"type": "node", "id": 11279352169, "lat": 52.4412445, "lon": 13.2609311, "tags": {"amenity": "community_centre", "name": "Der Divan"}}, {"type": "node", "id": 11381002618, "lat": 52.5505806, "lon": 13.362368, "tags": {"amenity": "community_centre", "community_centre": "parish_hall", "name": "Al Mougtaba", "operator": "Minhaj UL Hussain Berlin e.V.", "religion": "muslim", "website": "https://www.mhberlin.org/"}}, {"type": "node", "id": 11392494769, "lat": 52.5296186, "lon": 13.3535132, "tags": {"amenity": "community_centre", "community_centre": "youth_centre", "name": "Zilleklub", "operator": "Ev. Klubheim für Berufstätige e.V."}}, {"type": "node", "id": 11392834385, "lat": 52.4996521, "lon": 13.3691472, "tags": {"addr:city": "Berlin", "addr:housenumber": "11", "addr:postcode": "10785", "addr:street": "Pohlstraße", "amenity": "community_centre", "check_date": "2023-12-03", "community_centre": "youth_centre", "name": "Jugendtreff Pohl11", "website": "http://www.stadtteilverein.eu/orte/jugendtreff-pohl11/"}}, {"type": "node", "id": 11413509638, "lat": 52.4931759, "lon": 13.5057504, "tags": {"addr:city": "Berlin", "addr:housenumber": "21", "addr:postcode": "10319", "addr:street": "Dolgenseestraße", "amenity": "community_centre", "check_date": "2023-12-12", "community_centre": "family_centre", "community_centre:for": "family", "contact:email": "regenbogenfamilien@leslefam.de", "contact:phone": "+49177 6383327", "contact:website": "https://leslefam.de/regenbogenfamilienzentrum-lichtenberg/", "name": "Regenbogenfamilienzentrum Lichtenberg", "opening_hours": "\"Je nach Programm\"", "operator": "Lesben* Leben Familie (LesLeFam) e.V.", "operator:type": "ngo", "wheelchair": "yes"}}, {"type": "node", "id": 11453939828, "lat": 52.552964, "lon": 13.3371351, "tags": {"addr:city": "Berlin", "addr:housenumber": "46", "addr:postcode": "13351", "addr:street": "Otawistraße", "amenity": "community_centre", "name": "Begegnungsstätte Otawi-Treff", "operator": "Selbst-Hilfe im Vor-Ruhestand e. V.", "website": "http://sh-vor-ruhestand.de/index.html"}}]}