{"version": 0.6, "generator": "Overpass API 0.7.61.5 4133829e", "osm3s": {"timestamp_osm_base": "2024-01-02T13:45:02Z", "copyright": "The data included in this document is from www.openstreetmap.org. The data is made available under ODbL."}, "elements": [{"type": "node", "id": 738094602, "lat": 52.4232357, "lon": 13.4753018, "tags": {"amenity": "marketplace", "check_date:opening_hours": "2020-12-30", "name": "Wochenmarkt Wutzkyallee", "opening_hours": "We 08:00-14:00; Sa 08:00-13:00"}}, {"type": "node", "id": 949775523, "lat": 52.4952407, "lon": 13.422854, "tags": {"addr:city": "Berlin", "addr:country": "DE", "addr:postcode": "12047", "addr:street": "Maybachufer", "addr:suburb": "Kreuzberg", "amenity": "marketplace", "check_date:opening_hours": "2022-06-02", "contact:website": "http://www.diemarktplaner.de/marktseite.html", "loc_name": "Türkenmarkt", "name": "Wochenmarkt am Maybachufer", "opening_hours": "Tu 11:00-18:30; Fr 11:00-18:30", "wheelchair": "yes"}}, {"type": "node", "id": 1094105651, "lat": 52.5279049, "lon": 13.5388525, "tags": {"amenity": "marketplace", "name": "Wochenmarkt Helene-Weigel-Platz"}}, {"type": "node", "id": 1118686880, "lat": 52.349387, "lon": 13.1037712, "tags": {"amenity": "marketplace"}}, {"type": "node", "id": 1187953847, "lat": 52.5470551, "lon": 13.3546547, "tags": {"amenity": "marketplace", "name": "Genter Wochenmarkt", "opening_hours": "We,Sa 07:00-19:00; PH off", "wheelchair": "yes"}}, {"type": "node", "id": 1247656158, "lat": 52.5284483, "lon": 13.4690296, "tags": {"addr:city": "Berlin", "addr:postcode": "10369", "amenity": "marketplace", "name": "Wochenmarkt"}}, {"type": "node", "id": 1264552070, "lat": 52.5182062, "lon": 13.4366777, "tags": {"amenity": "marketplace", "name": "Wochenmarkt Koppenstraße", "opening_hours": "Tu 10:00-18:00", "wheelchair": "yes"}}, {"type": "node", "id": 1264566596, "lat": 52.5165736, "lon": 13.4498297, "tags": {"amenity": "marketplace", "name": "Wochenmarkt am Kosmos", "opening_hours": "Fr 10:00-16:00", "wheelchair": "yes"}}, {"type": "node", "id": 1302119815, "lat": 52.5373699, "lon": 13.4018749, "tags": {"amenity": "marketplace", "check_date:opening_hours": "2020-12-02", "contact:website": "http://www.mv-perske.de/arkonaplatz.html", "name": "Wochenmarkt Arkonaplatz", "opening_hours": "Fr 12:00-19:00", "wheelchair": "yes"}}, {"type": "node", "id": 1338224907, "lat": 52.4979615, "lon": 13.5221871, "tags": {"amenity": "marketplace", "check_date:opening_hours": "2023-09-30", "name": "Markt am Bärenschaufenster", "opening_hours": "Mo,Th,Fr 08:00-17:00", "wheelchair": "yes"}}, {"type": "node", "id": 1352703904, "lat": 52.4030364, "lon": 13.2682052, "tags": {"addr:city": "Teltow", "addr:country": "DE", "addr:postcode": "14513", "addr:street": "Zeppelinufer", "amenity": "marketplace", "name": "Teltower Frischemarkt", "opening_hours": "Tu 09:00-15:00", "wheelchair": "yes"}}, {"type": "node", "id": 1502926593, "lat": 52.4970017, "lon": 13.4537898, "tags": {"addr:city": "Berlin", "addr:country": "DE", "addr:housenumber": "4", "addr:postcode": "12435", "addr:street": "Eichenstraße", "addr:suburb": "Alt-Treptow", "amenity": "marketplace", "name": "Treptower Hallentrödelmarkt", "name:de": "Treptower Hallentrödelmarkt", "name:en": "Treptower Fleamarket", "opening_hours": "Sa-Su 08:00-18:00", "operator": "Treptower Art Center GmbH", "shop": "flea_market", "wheelchair": "yes"}}, {"type": "node", "id": 1575213617, "lat": 52.4387174, "lon": 13.343433, "tags": {"amenity": "marketplace", "name": "Wochenmarkt Rathaus Lankwitz, Leonorenstraße", "opening_hours": "Mo,Fr 08:00-13:00"}}, {"type": "node", "id": 1578274690, "lat": 52.5701146, "lon": 13.4065769, "tags": {"amenity": "marketplace", "check_date:opening_hours": "2023-07-19", "name": "Wochenmarkt Pankow", "opening_hours": "Tu 08:00-14:00; Fr 08:00-16:00; Sa 09:00-17:00", "wheelchair": "yes"}}, {"type": "node", "id": 1597897935, "lat": 52.4915549, "lon": 13.420647, "tags": {"amenity": "marketplace", "name": "Ökomarkt am Hohenstaufenplatz", "opening_hours": "Tu 12:00-18:30;Sa 09:00-15:00", "organic": "only"}}, {"type": "node", "id": 1807535654, "lat": 52.5007632, "lon": 13.4312447, "tags": {"amenity": "marketplace", "name": "Freitags Regionalmarkt", "opening_hours": "Fr 11:00-18:00"}}, {"type": "node", "id": 2736078705, "lat": 52.5370746, "lon": 13.4020996, "tags": {"amenity": "marketplace", "contact:mobile": "+49 171 7101662; +49 171 6010904", "contact:phone": "+49 30 7869764", "contact:website": "http://www.troedelmarkt-arkonaplatz.de", "name": "Flohmarkt am Arkonaplatz", "opening_hours": "Su 10:00-16:00", "wheelchair": "yes"}}, {"type": "node", "id": 3008830372, "lat": 52.5181537, "lon": 13.2904267, "tags": {"amenity": "marketplace", "check_date:opening_hours": "2023-02-23", "name": "Wochenmarkt Klausenerplatz", "opening_hours": "Tu,Fr 06:00-15:00", "website": "http://www.berlin.de/ba-charlottenburg-wilmersdorf/verwaltung/aemter/ordnungsamt/wochenmaerkte/"}}, {"type": "node", "id": 3017245236, "lat": 52.4900109, "lon": 13.3138411, "tags": {"amenity": "marketplace", "name": "Food Court", "opening_hours": "Tu 11:00-14:00;Th 11:00-14:00"}}, {"type": "node", "id": 3017245237, "lat": 52.5020746, "lon": 13.4317885, "tags": {"amenity": "marketplace", "name": "Street Food Thursday", "opening_hours": "Th 17:00-22:00", "wheelchair": "limited"}}, {"type": "node", "id": 3017245239, "lat": 52.5022022, "lon": 13.4315955, "tags": {"addr:city": "Berlin", "addr:postcode": "10997", "amenity": "marketplace", "name": "Wochenmarkt", "opening_hours": "Fr-Sa 10:00-18:00", "wheelchair": "limited"}}, {"type": "node", "id": 3188323586, "lat": 52.5365702, "lon": 13.4183629, "tags": {"addr:city": "Berlin", "addr:country": "DE", "addr:housenumber": "68", "addr:postcode": "10435", "addr:street": "Kollwitzstraße", "addr:suburb": "Prenzlauer Berg", "amenity": "marketplace", "check_date:opening_hours": "2022-04-30", "contact:website": "https://www.grueneliga-berlin.de/themen-projekte2/oekomarkt/", "name": "Wochenmarkt Kollwitzplatz", "opening_hours": "Sa 10:00-17:00; Th 12:00-19:00", "organic": "yes", "wheelchair": "yes"}}, {"type": "node", "id": 3188323587, "lat": 52.5366375, "lon": 13.4180812, "tags": {"addr:city": "Berlin", "addr:country": "DE", "addr:postcode": "10435", "addr:street": "Wörther Straße", "addr:suburb": "Prenzlauer Berg", "amenity": "marketplace", "check_date:opening_hours": "2023-11-25", "fair_trade": "yes", "name": "Ökomarkt am Kollwitzplatz", "opening_hours": "Th 12:00-19:00", "operator": "GRÜNE LIGA Berlin e.V.", "organic": "only", "wheelchair": "yes"}}, {"type": "node", "id": 3678929703, "lat": 52.4955204, "lon": 13.4221115, "tags": {"amenity": "marketplace", "check_date:opening_hours": "2020-11-18", "contact:website": "http://www.neukoellner-stoff.de/", "name": "Neuköllner Stoff", "opening_hours": "Sa 11:00-17:00", "operator": "http://www.mv-perske.de/Wochenmaerkte-Neukoelln.html", "shop": "fabric", "wheelchair": "yes"}}, {"type": "node", "id": 3980482215, "lat": 52.4569619, "lon": 13.3216362, "tags": {"amenity": "marketplace", "check_date:opening_hours": "2023-12-03", "name": "Wochenmarkt", "opening_hours": "Tu 08:00-14:00; Th 08:00-14:00; Sa 08:00-18:00", "wheelchair": "yes"}}, {"type": "node", "id": 4263380282, "lat": 52.5135429, "lon": 13.5196582, "tags": {"amenity": "marketplace", "name:signed": "no", "opening_hours": "\"different market places have different times/day of the week\"", "wheelchair": "yes"}}, {"type": "node", "id": 4360136926, "lat": 52.4578134, "lon": 13.6260219, "tags": {"addr:city": "Berlin", "addr:housenumber": "1", "addr:postcode": "12587", "addr:street": "Schöneicher Straße", "amenity": "marketplace", "check_date:opening_hours": "2021-08-04", "name": "Flohmarkt Friedrichshagen", "opening_hours": "Su 08:00-16:00", "operator": "http://oldthing.de/", "website": "https://oldthing.de/Berliner-Flohmarkt/Secondhand-und-Kunst/Flohmarkt-Friedrichshagen/"}}, {"type": "node", "id": 4388912427, "lat": 52.5112571, "lon": 13.4589749, "tags": {"addr:city": "Berlin", "addr:housenumber": "1", "addr:place": "Boxhagener Platz", "addr:postcode": "10245", "amenity": "marketplace", "check_date:opening_hours": "2022-11-08", "contact:mobile": "+49 162 2923066", "name": "Trödelmarkt am Boxhagener Platz", "opening_hours": "Su 10:00-18:00", "source:url": "http://www.berlin.de/special/shopping/flohmaerkte/1998240-1724959-flohmarkt-am-boxhagener-platz.html", "wheelchair": "yes"}}, {"type": "node", "id": 4388990289, "lat": 52.492487, "lon": 13.4313042, "tags": {"amenity": "marketplace", "contact:website": "http://www.nowkoelln.de/", "name": "Flohmarkt Nowkoelln Flowmarkt", "opening_hours": "Su[2] 11:00-18:00"}}, {"type": "node", "id": 4486907949, "lat": 52.4123017, "lon": 13.1415907, "tags": {"amenity": "marketplace", "name": "Wilhelmplatz", "opening_hours": "Fr 13:00-18:00"}}, {"type": "node", "id": 4781579796, "lat": 52.5469113, "lon": 13.3590397, "tags": {"addr:postcode": "13353", "amenity": "marketplace", "check_date:opening_hours": "2022-06-15", "name": "Ökomarkt Leopoldplatz", "opening_hours": "Tu,Fr 10:00-17:00", "website": "https://bbm-maerkte.de/bauernmarkt-leopoldplatz-berlin/", "wheelchair": "yes"}}, {"type": "node", "id": 4781579797, "lat": 52.5469796, "lon": 13.3591899, "tags": {"addr:postcode": "13353", "amenity": "marketplace", "check_date:opening_hours": "2021-11-28", "name": "Trödelmarkt", "opening_hours": "Sa 10:00-16:00", "website": "https://bbm-maerkte.de/troedelmarkt-flohmarkt-leopoldplatz/", "wheelchair": "yes"}}, {"type": "node", "id": 4806425628, "lat": 52.5178391, "lon": 13.34137, "tags": {"amenity": "marketplace", "check_date": "2023-10-09", "description": "Altonaer Straße / Ecke Klopstockstraße", "level": "0", "name": "Ökomarkt im Hansaviertel", "opening_hours": "Fr 12:00-18:00", "operator": "Brigitta Voigt", "website": "http://ökomarkt-im-hansaviertel.de/"}}, {"type": "node", "id": 4938805613, "lat": 52.5323856, "lon": 13.4359922, "tags": {"amenity": "marketplace", "check_date:opening_hours": "2021-09-11", "name": "Wochenmarkt Arnswalder Platz", "opening_hours": "Sa 08:00-15:00", "wheelchair": "yes"}}, {"type": "node", "id": 4938810971, "lat": 52.488042, "lon": 13.3915146, "tags": {"amenity": "marketplace", "name": "Ökomarkt Chamissoplatz", "opening_hours": "Sa 08:00-14:00", "operator": "Grüngewusel e.V.", "organic": "only"}}, {"type": "node", "id": 4938814827, "lat": 52.5357067, "lon": 13.2010619, "tags": {"amenity": "marketplace", "name": "Wochenmarkt Rathaus Spandau", "note": "Mittwoch/Freitag - genaue Öffnungszeiten vermutlich Vormittags-früher Nachmittag", "opening_hours": "We; Fr", "wheelchair": "yes"}}, {"type": "node", "id": 4938816169, "lat": 52.5147162, "lon": 13.2595465, "tags": {"amenity": "marketplace", "name": "Wochenmarkt Preußenallee", "opening_hours": "Tu,Fr 08:00-13:00", "wheelchair": "yes"}}, {"type": "node", "id": 4938849682, "lat": 52.5086108, "lon": 13.3097282, "tags": {"addr:street": "Karl-August-Platz", "amenity": "marketplace", "check_date:opening_hours": "2023-12-05", "name": "Wochenmarkt", "opening_hours": "We 08:00-13:00; Sa 08:00-14:00"}}, {"type": "node", "id": 4938868566, "lat": 52.4736891, "lon": 13.4412709, "tags": {"amenity": "marketplace", "check_date:opening_hours": "2021-11-12", "name": "Wochenmarkt Karl-Marx-Platz", "opening_hours": "We 11:00-18:00; Sa 08:00-15:00", "operator": "die marktplaner", "website": "https://www.aktion-kms.de/wochenmarkt/", "wheelchair": "yes"}}, {"type": "node", "id": 4938876534, "lat": 52.450836, "lon": 13.6243933, "tags": {"amenity": "marketplace", "check_date:opening_hours": "2023-11-25", "name": "Wochenmarkt", "opening_hours": "Sa 09:00-13:00; Mo,We,Fr 10:00-16:00", "website": "http://www.friedrichshagen.net/oeffentliches/wochenmarkt.html", "wheelchair": "yes"}}, {"type": "node", "id": 4938881690, "lat": 52.4662082, "lon": 13.4372321, "tags": {"alt_name": "Die dicke Linda", "amenity": "marketplace", "check_date:opening_hours": "2023-04-19", "contact:website": "https://www.dicke-linda-markt.de/kranoldplatz/", "name": "Regionalmarkt am Kranoldplatz", "opening_hours": "Sa 10:00-16:00", "wheelchair": "yes"}}, {"type": "node", "id": 5152648806, "lat": 52.4889443, "lon": 13.3531035, "tags": {"amenity": "marketplace", "check_date:opening_hours": "2023-07-08", "contact:facebook": "https://www.facebook.com/people/Marktzeit/100057120204279/", "contact:website": "https://www.marktzeit.berlin/mz/oekomarkt_akazienstrasse/", "name": "Ökomarkt an der Apostel-Paulus-Kirche", "opening_hours": "Th 12:00-18:00; PH off", "wheelchair": "yes"}}, {"type": "node", "id": 5188267334, "lat": 52.4281755, "lon": 13.3277154, "tags": {"amenity": "marketplace", "name": "Kranoldmarkt", "opening_hours": "We,Sa 07:00-14:00"}}, {"type": "node", "id": 5188287257, "lat": 52.442827, "lon": 13.3123461, "tags": {"amenity": "marketplace", "name": "Markt", "opening_hours": "Fr,Sa 08:00-14:00"}}, {"type": "node", "id": 5195141905, "lat": 52.4966699, "lon": 13.2998073, "tags": {"amenity": "marketplace", "name": "Wochenmarkt Nestorstraße", "opening_hours": "Tu,Fr 08:00-13:00", "operator": "Bezirksamt Charlottenburg-Wilmersdorf", "wheelchair": "yes"}}, {"type": "node", "id": 5209732607, "lat": 52.5486137, "lon": 13.5048228, "tags": {"amenity": "marketplace", "name:signed": "no", "opening_hours": "24/7"}}, {"type": "node", "id": 5261525572, "lat": 52.4374709, "lon": 13.2326305, "tags": {"amenity": "marketplace", "name": "Wochenmarkt am Mexikoplatz", "opening_hours": "Sa 09:00-15:00"}}, {"type": "node", "id": 5405901057, "lat": 52.538871, "lon": 13.4132482, "tags": {"amenity": "marketplace", "contact:website": "http://www.streetfoodaufachse.de/", "delivery": "no", "name": "Street Food Markt Berlin", "opening_hours": "Jan 14-Nov 11: Su 12:00-18:00", "operator": "Ketering GmbH", "outdoor_seating": "yes", "takeaway": "only", "wheelchair": "yes"}}, {"type": "node", "id": 5469628638, "lat": 52.5503942, "lon": 13.4102372, "tags": {"addr:city": "Berlin", "addr:postcode": "10439", "addr:street": "Seelower Straße", "amenity": "marketplace", "name": "Bauernmarkt", "opening_hours": "Sa 10:00-16:00", "website": "https://bbm-maerkte.de/bauernmarkt-seelower-strasse/"}}, {"type": "node", "id": 5590777543, "lat": 52.3726982, "lon": 13.616725, "tags": {"amenity": "marketplace", "name": "Eichwalder Wochenmarkt", "opening_hours": "Tu 08:00-16:00; Fr 08:00-17:00"}}, {"type": "node", "id": 5982573198, "lat": 52.4846521, "lon": 13.3446836, "tags": {"amenity": "marketplace", "marketplace": "farmers_market", "name": "Wochenmarkt John-F.-Kennedy-Platz", "opening_hours": "Tu,Fr 08:00-13:00", "operator": "Bezirksamt Tempelhof-Schöneberg von Berlin", "wheelchair": "yes"}}, {"type": "node", "id": 5982573199, "lat": 52.4849195, "lon": 13.3446676, "tags": {"amenity": "marketplace", "check_date:opening_hours": "2023-06-04", "marketplace": "flea_market", "name": "Trödelmarkt John-F.-Kennedy-Platz", "opening_hours": "Sa,Su 08:00-16:00", "wheelchair": "yes"}}, {"type": "node", "id": 6031718125, "lat": 52.3938218, "lon": 13.0953571, "tags": {"amenity": "marketplace", "check_date:opening_hours": "2023-03-26", "name": "Floh- und Bauernmarkt auf dem Weberplatz", "opening_hours": "Sa 07:00-13:00; PH off", "wheelchair": "limited"}}, {"type": "node", "id": 6052775889, "lat": 52.5108583, "lon": 13.4357968, "tags": {"amenity": "marketplace", "name": "Antikmarkt am Ostbahnhof", "opening_hours": "Su 09:00-17:00", "wheelchair": "yes"}}, {"type": "node", "id": 6283834686, "lat": 52.4930956, "lon": 13.311552, "tags": {"addr:place": "Preußenpark", "addr:postcode": "10707", "alt_name": "Thai-Markt", "amenity": "marketplace", "contact:facebook": "thaiparkberlin", "contact:website": "https://thaipark.de/", "cuisine": "thai", "description": "Thai-Streetfoodmarkt", "name": "Thaipark", "name:th": "ไทยพาร์ค", "opening_hours": "Apr-Oct: Fr-Su 10:00-20:00", "wheelchair": "yes"}}, {"type": "node", "id": 6351024671, "lat": 52.4446594, "lon": 13.5746778, "tags": {"amenity": "marketplace", "check_date:opening_hours": "2022-02-10", "name": "Schloßplatz", "opening_hours": "Tu,Th 08:30-17:00", "website": "https://www.markt-verzeichnis-bb.de/region/12/treptow-koepenick"}}, {"type": "node", "id": 6351024674, "lat": 52.4378995, "lon": 13.5473582, "tags": {"amenity": "marketplace", "check_date:opening_hours": "2022-04-13", "name": "Marktplatz Adlershof", "opening_hours": "We,Th 09:00-17:00", "website": "https://www.markt-verzeichnis-bb.de/region/12/treptow-koepenick", "wheelchair": "yes"}}, {"type": "node", "id": 6357592088, "lat": 52.4312602, "lon": 13.2580008, "tags": {"amenity": "marketplace", "check_date:opening_hours": "2022-08-27", "contact:website": "http://www.zehlendorfer-wochenmarkt.de/", "name": "Wochenmarkt", "opening_hours": "Sa 09:00-16:00", "operator": "ZFM Marktbetriebsgesellschaft mbH i.Gr."}}, {"type": "node", "id": 6923866544, "lat": 52.5675691, "lon": 13.5732825, "tags": {"amenity": "marketplace", "name": "Wochenmarkt am Barnimplatz"}}, {"type": "node", "id": 8289047338, "lat": 52.526076, "lon": 13.3393479, "tags": {"amenity": "marketplace", "check_date:opening_hours": "2023-09-11", "contact:website": "https://www.ev-gemeinde-tiergarten.de/page/218/%C3%B6komarkt-vor-der-heilandskirche", "name": "Ökomarkt an der Heilandskirche", "opening_hours": "We 12:00-18:00", "operator": "Evangelische Kirchengemeinde Tiergarten", "wheelchair": "yes"}}, {"type": "node", "id": 8308140887, "lat": 52.5077303, "lon": 13.4533672, "tags": {"amenity": "marketplace", "contact:website": "https://www.rawflohmarkt.de/", "name": "RAW Flohmarkt", "opening_hours": "Su 08:00-17:00", "wheelchair": "limited"}}, {"type": "node", "id": 8308179816, "lat": 52.4661127, "lon": 13.4489189, "tags": {"amenity": "marketplace", "name": "OBI-Flohmarkt Neukölln", "opening_hours": "Su 06:00-16:00"}}, {"type": "node", "id": 8308239828, "lat": 52.5378477, "lon": 13.2152229, "tags": {"amenity": "marketplace", "name": "Trödelmarkt Spandau", "opening_hours": "Su 10:00-18:00"}}, {"type": "node", "id": 8308239829, "lat": 52.4176783, "lon": 13.2877921, "tags": {"amenity": "marketplace", "name": "Antik- und Trödelmarkt Goerzallee", "opening_hours": "Su 06:00-16:00"}}, {"type": "node", "id": 8308239830, "lat": 52.4568736, "lon": 13.3217445, "tags": {"amenity": "marketplace", "check_date:opening_hours": "2023-10-13", "name": "Trödelmarkt Hermann-Ehlers-Platz", "opening_hours": "Su 08:00-16:00", "wheelchair": "yes"}}, {"type": "node", "id": 8308239831, "lat": 52.4736825, "lon": 13.3013181, "tags": {"amenity": "marketplace", "contact:website": "https://www.der-mecklenburger-troedelmarkt.de", "name": "Flohmarkt Mecklenburgische Straße", "opening_hours": "Su 08:00-16:00", "organic": "no", "second_hand": "yes", "wheelchair": "yes"}}, {"type": "node", "id": 8308239832, "lat": 52.4909435, "lon": 13.3141436, "tags": {"alt_name": "Flohmarkt beim Parkcafé", "amenity": "marketplace", "name": "Flohmarkt am Fehrbelliner Platz", "opening_hours": "Sa, Su 10:00-16:00", "wheelchair": "yes"}}, {"type": "node", "id": 8308239833, "lat": 52.5248092, "lon": 13.3036302, "tags": {"amenity": "marketplace", "name": "Flohmarkt in der Mierendorfstraße"}}, {"type": "node", "id": 8308239835, "lat": 52.5952608, "lon": 13.3342994, "tags": {"amenity": "marketplace", "check_date:opening_hours": "2023-06-27", "name": "Flohmarkt Wittenau", "opening_hours:signed": "no", "wheelchair": "yes"}}, {"type": "node", "id": 8308239837, "lat": 52.4304169, "lon": 13.377544, "tags": {"amenity": "marketplace", "name": "Flohmarkt Marienfelde", "opening_hours": "Su 09:00-15:00"}}, {"type": "node", "id": 8308239838, "lat": 52.4898475, "lon": 13.3888402, "tags": {"amenity": "marketplace", "name": "Trödelmarkt am Marheinekeplatz in der Bergmannstraße", "opening_hours": "Su 11:00-16:00"}}, {"type": "node", "id": 8308239839, "lat": 52.5186418, "lon": 13.397574, "tags": {"amenity": "marketplace", "name": "Kunstmarkt am Zeughaus", "opening_hours": "Su 11:00-17:00"}}, {"type": "node", "id": 8308239840, "lat": 52.5329956, "lon": 13.4013758, "tags": {"amenity": "marketplace", "name": "Acud Flohmarkt"}}, {"type": "node", "id": 8972210816, "lat": 52.6209233, "lon": 13.3583949, "tags": {"amenity": "marketplace", "contact:facebook": "https://www.facebook.com/LuebarserDorfmarkt/", "name": "Lübarser Dorfmarkt", "opening_hours": "Su 11:00-18:00"}}, {"type": "node", "id": 9006709217, "lat": 52.5231603, "lon": 13.4027781, "tags": {"amenity": "marketplace", "name": "Hackescher Markt", "opening_hours": "Th,Sa 09:00-18:00", "wheelchair": "yes"}}, {"type": "node", "id": 9397764839, "lat": 52.5605199, "lon": 13.0893128, "tags": {"amenity": "marketplace", "contact:website": "https://www.brandenburger-wochenmaerkte.de/unsere-maerkte/falkensee", "opening_hours": "Tu,Th 08:00-15:00"}}, {"type": "node", "id": 9631694647, "lat": 52.5435956, "lon": 13.4173724, "tags": {"addr:city": "Berlin", "addr:postcode": "10437", "addr:street": "Lychener Straße", "amenity": "marketplace", "name": "Wochenmarkt Helmholtzplatz", "opening_hours": "Sa 09:00 - 16:00"}}, {"type": "node", "id": 9746973688, "lat": 52.4606246, "lon": 13.508975, "tags": {"addr:city": "Berlin", "addr:country": "DE", "addr:housenumber": "137", "addr:postcode": "12439", "addr:street": "Schnellerstraße", "addr:suburb": "Niederschöneweide", "amenity": "marketplace", "name": "Subaermarkt", "opening_hours": "Sa 12:00-18:00", "website": "https://reviersuedost.de/subaermarkt"}}, {"type": "node", "id": 9752780986, "lat": 52.4943512, "lon": 13.3262265, "tags": {"addr:city": "Berlin", "addr:country": "DE", "addr:postcode": "10717", "addr:street": "Hohenzollernplatz", "addr:suburb": "Wilmersdorf", "amenity": "marketplace", "name": "Wochenmarkt am Hohenzollernplatz", "opening_hours": "We, Sa 08:00-13:00", "website": "https://www.wochenmarkt-deutschland.de/maerkte/berlin/hohenzollernplatz/"}}, {"type": "node", "id": 9814251828, "lat": 52.4965172, "lon": 13.354378, "tags": {"alt_name": "Winterfeldt-Markt", "amenity": "marketplace", "description": "Market for fruits + vegetables + other goods", "name": "Winterfeldtmarkt", "opening_hours": "We 08:00-14:00; Sa 08:00-16:00", "wheelchair": "yes"}}, {"type": "node", "id": 9965584398, "lat": 52.4205295, "lon": 13.2258323, "tags": {"addr:street": "Adam-Kuckhoff-Platz", "amenity": "marketplace", "opening_hours": "We,Fr 08:00-18:00; Sa 08:00-13:00"}}, {"type": "node", "id": 10681640789, "lat": 52.4896901, "lon": 13.406541, "tags": {"amenity": "marketplace", "name": "Ökomarkt am Südstern", "opening_hours": "Sa 10:00-16:00; PH off"}}, {"type": "node", "id": 10846148115, "lat": 52.4037336, "lon": 13.22017, "tags": {"amenity": "marketplace", "name": "Bauernmarkt", "opening_hours": "Th 08:00-16:00"}}]}