{"version": 0.6, "generator": "Overpass API 0.7.61.5 4133829e", "osm3s": {"timestamp_osm_base": "2024-01-02T12:40:25Z", "copyright": "The data included in this document is from www.openstreetmap.org. The data is made available under ODbL."}, "elements": [{"type": "node", "id": 669088712, "lat": 52.4396916, "lon": 13.5001666, "tags": {"addr:city": "Berlin", "addr:country": "DE", "addr:housenumber": "152", "addr:postcode": "12487", "addr:street": "Sterndamm", "addr:suburb": "Johannisthal", "amenity": "clinic", "check_date": "2023-08-13", "healthcare": "clinic", "name": "Ärztehaus Johannisthal", "wheelchair": "yes"}}, {"type": "node", "id": 694302689, "lat": 52.5151416, "lon": 13.4909414, "tags": {"addr:city": "Berlin", "addr:housenumber": "4", "addr:postcode": "10365", "addr:street": "Schottstraße", "amenity": "clinic", "healthcare": "clinic", "name": "Ärztehaus am Roedeliusplatz", "wheelchair": "limited"}}, {"type": "node", "id": 872223518, "lat": 52.4988453, "lon": 13.4198597, "tags": {"amenity": "clinic", "healthcare": "clinic", "name": "Ärztehaus", "opening_hours": "Mo,Tu,Th 08:30-13:00,14:00-18:00; We,Fr 08:30-14:00", "wheelchair": "yes"}}, {"type": "node", "id": 874357625, "lat": 52.5027923, "lon": 13.4132967, "tags": {"addr:city": "Berlin", "addr:country": "DE", "addr:housenumber": "158", "addr:postcode": "10969", "addr:street": "Oranienstraße", "addr:suburb": "Kreuzberg", "amenity": "clinic", "healthcare": "clinic", "healthcare:speciality": "surgery;general", "name": "MVZ am Moritzplatz", "phone": "+49 30 6146017", "website": "http://medizin-kreuzberg.de/", "wheelchair": "yes", "wheelchair:description": "es gibt leider keine Rollitoiletten, sonst alles ok."}}, {"type": "node", "id": 911925361, "lat": 52.5721447, "lon": 13.4169764, "tags": {"addr:city": "Berlin", "addr:housenumber": "7", "addr:postcode": "13187", "addr:street": "Damerowstraße", "amenity": "clinic", "healthcare": "clinic", "name": "Ärztehaus Damerowstraße", "wheelchair": "limited"}}, {"type": "node", "id": 933513566, "lat": 52.4392932, "lon": 13.2152977, "tags": {"addr:city": "Berlin", "addr:country": "DE", "addr:housenumber": "1-3", "addr:postcode": "14129", "addr:street": "Breisgauer Straße", "addr:suburb": "Schlachtensee", "amenity": "clinic", "healthcare": "clinic", "healthcare:speciality": "general;gastroenterology;optometry;gynaecology;cardiology;internal;dentist", "name": "Ärztehaus am Schlachtensee", "website": "https://www.aerztehaus-am-schlachtensee.de/", "wheelchair": "yes"}}, {"type": "node", "id": 1168212013, "lat": 52.4227868, "lon": 13.4352588, "tags": {"addr:city": "Berlin", "addr:country": "DE", "addr:housenumber": "9-11", "addr:postcode": "12349", "addr:street": "Alt-Buckow", "addr:suburb": "Buckow", "amenity": "clinic", "contact:email": "praxis@mvz-vitalis.de", "fax": "+49 30 6706569111", "healthcare": "clinic", "name": "MVZ-Vitalis", "opening_hours": "Mo-Th 07:30-19:00; Fr 07:30-18:00; Sa 09:00-12:00", "phone": "+49 30 67065690", "website": "https://www.mvz-vitalis.de/", "wheelchair": "yes"}}, {"type": "node", "id": 1217659471, "lat": 52.4441457, "lon": 13.2385141, "tags": {"addr:city": "Berlin", "addr:country": "DE", "addr:housenumber": "111", "addr:postcode": "14163", "addr:street": "Fischerhüttenstraße", "addr:suburb": "Zehlendorf", "amenity": "clinic", "healthcare": "dialysis", "healthcare:speciality": "nephrology", "name": "Nierenzentrum Zehlendorf", "opening_hours": "Mo-Sa 07:30-15:00;Sa 07:30-19:30", "phone": "+49308139121", "source": "Geoportal Berlin / k5_2012_sw_sued.zip", "website": "http://www.dialyse-zehlendorf.de/"}}, {"type": "node", "id": 1272472319, "lat": 52.5151646, "lon": 13.4511418, "tags": {"addr:city": "Berlin", "addr:country": "DE", "addr:housenumber": "23", "addr:postcode": "10243", "addr:street": "Kadiner Straße", "addr:suburb": "Friedrichshain", "amenity": "clinic", "healthcare": "clinic", "name": "DTZ Berlin - Ärztehaus Kadiner Straße", "opening_hours": "Mo-Fr 08:00-18:00", "phone": "+49 30 293697300", "website": "https://www.berlin-dtz.de/", "wheelchair": "yes", "wheelchair:description": "Stufenloser Eingang über Nebeneingang Hildegard-Jadarnowitz-Straße"}}, {"type": "node", "id": 1336685638, "lat": 52.5369549, "lon": 13.2044575, "tags": {"amenity": "clinic", "check_date": "2023-05-27", "healthcare": "clinic", "healthcare:speciality": "general;neurosurgery", "name": "Ärztehaus", "wheelchair": "yes", "wheelchair:description": "Diverse Ärzte u.a. Allgemeinmedizin, Augenarzt, Neurochirurg"}}, {"type": "node", "id": 1547846970, "lat": 52.4648369, "lon": 13.6981878, "tags": {"addr:city": "Schöneiche bei Berlin", "addr:housenumber": "76", "addr:postcode": "15566", "addr:street": "Brandenburgische Straße", "amenity": "clinic", "healthcare": "clinic", "name": "Ärztehaus Altes Kino", "operator": "Zeddies-Maruniak GbR", "operator:type": "private", "toilets:wheelchair": "yes", "website": "https://www.aerztehaus-altes-kino.de/", "wheelchair": "yes"}}, {"type": "node", "id": 1618861746, "lat": 52.4472814, "lon": 13.5758681, "tags": {"amenity": "clinic", "health_facility:type": "health_centre", "healthcare": "clinic", "healthcare:speciality": "general;gynaecology;ophthalmology;orthopaedics;otolaryngology;psychiatry", "medical_system:western": "yes", "name": "Ärzte Zentrum Köpenick", "website": "http://praxis-freiheit1.de/"}}, {"type": "node", "id": 1724523076, "lat": 52.4444506, "lon": 13.2912619, "tags": {"addr:city": "Berlin", "addr:country": "DE", "addr:housenumber": "93", "addr:postcode": "12205", "addr:street": "Unter den Eichen", "addr:suburb": "Lichterfelde", "amenity": "clinic", "contact:phone": "+49 30 8315504", "contact:website": "http://www.tagesklinik-unter-den-eichen.de/home.html", "health_facility:type": "clinic", "healthcare": "clinic", "healthcare:speciality": "gynaecology", "medical_system:western": "yes", "name": "Tagesklinik unter den Eichen", "opening_hours": "Mo-Th 08:00-15:00; Fr 08:00-13:00", "source": "93 Unter Den Eichen"}}, {"type": "node", "id": 1732901969, "lat": 52.5466232, "lon": 13.3581741, "tags": {"addr:city": "Berlin", "addr:housenumber": "151", "addr:postcode": "13353", "addr:street": "Müllerstraße", "amenity": "clinic", "email": "info@medico-leopoldplatz.de", "fax": "+4930457979449", "healthcare": "clinic", "name": "Medico Leopoldplatz", "opening_hours": "Mo-Fr 07:30-20:00,08:00-16:30", "operator": "MEDICO LEOPOLDPLATZ Service GmbH", "operator:type": "private", "phone": "+49304579790", "website": "https://medico-leopoldplatz.de/", "wheelchair": "limited", "wheelchair:description": "Aufzug vorhanden, weitegehend schwellenfrei, WC im Keller nicht komplett barrierefrei, Untersuchungskabinen zu schmal"}}, {"type": "node", "id": 1734428743, "lat": 52.5809556, "lon": 13.402658, "tags": {"addr:city": "Berlin", "addr:country": "DE", "addr:housenumber": "4", "addr:postcode": "13156", "addr:street": "Hermann-Hesse-Straße", "amenity": "clinic", "check_date:opening_hours": "2022-11-05", "healthcare": "clinic", "name": "Ärztehaus", "opening_hours:signed": "no", "toilets:wheelchair": "yes", "wheelchair": "yes", "wheelchair:description": "keine selbstöffnente Tür deswegen schwer reinzukommen, sonst Rollsttuhlgerecht"}}, {"type": "node", "id": 2021436781, "lat": 52.527514, "lon": 13.5419927, "tags": {"addr:city": "Berlin", "addr:country": "DE", "addr:housenumber": "10", "addr:postcode": "12681", "addr:street": "Helene-Weigel-Platz", "addr:suburb": "Marzahn", "amenity": "clinic", "healthcare": "clinic", "name": "Sana Gesundheitszentrum Marzahn \"Ernst Ludwig Heim\"", "operator": "Sana Gesundheitszentren Berlin-Brandenburg", "operator:type": "private", "website": "https://www.sana.de/gesundheitszentren-berlin/standorte-fachbereiche/marzahn/helene-weigel-platz", "wheelchair": "yes", "wheelchair:description": "Rollstuhlparkplätze vorhanden, Eingang Süd und West für Rollstuhlfahrer"}}, {"type": "node", "id": 2105895889, "lat": 52.4555574, "lon": 13.3860897, "tags": {"addr:city": "Berlin", "addr:housenumber": "227", "addr:postcode": "12099", "addr:street": "Tempelhofer Damm", "amenity": "clinic", "description": "stufenlose Zugänge", "healthcare": "clinic", "healthcare:speciality": "general;dermatology;neurology;cardiology;surgery;gynaecology;urology;podologist", "level": "1;2;3", "name": "Ärztehaus am Tempelhofer Hafen", "note": "Allgemeinmedizin, Diab Point, Dermatologie, Diabetolog., Gynäkologie,Kardiologie; Logopädie, Neurologie, Orthopäd. Unfallchirurg, Orthopädie Schuhtechnik & Sanitätshaus, Physiotherapie, Podologie, SC Dental Labor, Schmerzpraxis,Urologie, Zahnarz", "opening_hours": "Mo-Su 10:00-20:00", "website": "https://www.tempelhofer-hafen.com/", "wheelchair": "yes", "wheelchair:description": "Vom Parkhaus zu den Praxen alles ohne Stufen"}}, {"type": "node", "id": 2126141390, "lat": 52.5913935, "lon": 13.2837171, "tags": {"addr:city": "Berlin", "addr:country": "DE", "addr:housenumber": "5", "addr:postcode": "13507", "addr:street": "Schloßstraße", "addr:suburb": "Tegel", "amenity": "clinic", "healthcare": "clinic", "name": "Ärztehaus", "wheelchair": "yes", "wheelchair:description": "Rollstuhl-WC im Erdgeschoß"}}, {"type": "node", "id": 2335086445, "lat": 52.5122055, "lon": 13.4551298, "tags": {"addr:city": "Berlin", "addr:country": "DE", "addr:housenumber": "43-45", "addr:postcode": "10245", "addr:street": "Grünberger Straße", "addr:suburb": "Friedrichshain", "amenity": "clinic", "contact:website": "https://www.sana.de/gesundheitszentren-berlin/standorte-fachbereiche/friedrichshain", "healthcare": "clinic", "name": "Sana Gesundheitszentrum Friedrichshain", "wheelchair": "yes", "wheelchair:description": "kurze steile Rampe vorm Eingang, Automatik-Türen am Eingang, Fahrstuhl wird für jedes Stockwerk freigeschaltet wo Büros offen sind, für die Rolli-Toilette muss Schlüssel dort erfragt werden."}}, {"type": "node", "id": 2435045640, "lat": 52.506748, "lon": 13.3946085, "tags": {"addr:city": "Berlin", "addr:country": "DE", "addr:housenumber": "19", "addr:postcode": "10969", "addr:street": "Markgrafenstraße", "addr:suburb": "Kreuzberg", "amenity": "clinic", "contact:phone": "+49 30 259 23 860", "contact:website": "https://ruecken-zentrum.de/berlin-rueckenzentrum-am-markgrafenpark/rueckenzentrum-am-markgrafenpark/", "healthcare": "clinic", "name": "Rückenzentrum am Markgrafenpark", "wheelchair": "limited"}}, {"type": "node", "id": 2509419045, "lat": 52.4644914, "lon": 13.4332296, "tags": {"addr:city": "Berlin", "addr:country": "DE", "addr:housenumber": "147", "addr:postcode": "12051", "addr:street": "Hermannstraße", "addr:suburb": "Neukölln", "amenity": "clinic", "healthcare": "clinic", "name": "Ärztehaus Neubritzer Tor", "website": "http://www.neubritzer-tor.de/", "wheelchair": "no", "wheelchair:description": "Stufe vor Eingangsportal, sehr kleiner Fahrstuhl"}}, {"type": "node", "id": 2557712726, "lat": 52.5250616, "lon": 13.3441342, "tags": {"addr:city": "Berlin", "addr:country": "DE", "addr:housenumber": "90", "addr:postcode": "10559", "addr:street": "Alt-Moabit", "addr:suburb": "Moabit", "amenity": "clinic", "check_date:opening_hours": "2023-10-04", "healthcare": "doctor", "healthcare:speciality": "radiology", "name": "Magnet MVZ Berlin", "opening_hours": "Mo-Fr 07:30-18:30", "website": "https://www.berlin-mrt.de", "wheelchair": "limited"}}, {"type": "node", "id": 2821025302, "lat": 52.5076863, "lon": 13.3060017, "tags": {"addr:city": "Berlin", "addr:country": "DE", "addr:housenumber": "57", "addr:postcode": "10627", "addr:street": "Wilmersdorfer Straße", "addr:suburb": "Charlottenburg", "amenity": "clinic", "contact:phone": "+49 30 31007866", "contact:website": "http://www.nierenzentrum-charlottenburg.de", "healthcare": "dialysis", "healthcare:speciality": "nephrology", "name": "Nierenzentrum Charlottenburg", "opening_hours": "Mo,We,Fr 07:00-23:00; Tu,Th,Sa 07:00-15:00", "wheelchair": "yes"}}, {"type": "node", "id": 2851155103, "lat": 52.4766498, "lon": 13.3133427, "tags": {"addr:city": "Berlin", "addr:country": "DE", "addr:housenumber": "4-6", "addr:postcode": "14197", "addr:street": "Aßmannshauser Straße", "addr:suburb": "Wilmersdorf", "amenity": "clinic", "emergency": "yes", "healthcare": "dentist", "name": "Zahnklinik/Zahnärztlicher Notfalldienst", "opening_hours": "Mo-Th 20:00-23:00, Fr 20:00-01:00, PH,Sa,Su 11:00-16:00,19:00-01:00", "source": "Geoportal Berlin / Hauskoordinaten", "website": "https://zahnmedizin.charite.de/", "wheelchair": "yes"}}, {"type": "node", "id": 2935287105, "lat": 52.583891, "lon": 13.288331, "tags": {"amenity": "clinic", "healthcare": "clinic", "name": "Gesundheitszentrum", "wheelchair": "yes"}}, {"type": "node", "id": 3310721906, "lat": 52.580674, "lon": 13.4238384, "tags": {"addr:city": "Berlin", "addr:housenumber": "59", "addr:postcode": "13187", "addr:street": "Galenusstraße", "addr:suburb": "Pankow", "amenity": "clinic", "healthcare": "clinic", "name": "Ärztehaus Galenusstraße"}}, {"type": "node", "id": 3371705079, "lat": 52.431545, "lon": 13.7156322, "tags": {"addr:city": "Berlin", "addr:country": "DE", "addr:housenumber": "318", "addr:postcode": "12589", "addr:street": "Fürstenwalder Allee", "addr:suburb": "Rahnsdorf", "amenity": "clinic", "description": "Praxisgemeinschaft Internist, Zahnarzt, Physiotherapie", "healthcare": "clinic", "healthcare:speciality": "general;dentist;physiotherapy;internal", "name": "Ärztehaus Rahnsdorf", "opening_hours:dr_weinhold": "Mo,We 08:00-12:00, 13:30-16:00; Tu 08:00-12:00; Th 08:00-12:00, 14:00-17:00; Fr 08:00-12:00", "source": "Geoportal Berlin / Hauskoordinaten", "website": "http://www.aerztehaus-rahnsdorf.de", "wheelchair": "yes"}}, {"type": "node", "id": 3374664253, "lat": 52.5425166, "lon": 13.343078, "tags": {"amenity": "clinic", "healthcare": "clinic", "healthcare:speciality": "gynaecology", "name": "Frauenheilkunde und Geburtsmedizin"}}, {"type": "node", "id": 3374664287, "lat": 52.5414754, "lon": 13.3441244, "tags": {"amenity": "clinic", "healthcare": "clinic", "healthcare:speciality": "anaesthetics", "name": "Klinik für Anästhesiologie und operative Intensivmedizin"}}, {"type": "node", "id": 3374664288, "lat": 52.5414126, "lon": 13.3425037, "tags": {"amenity": "clinic", "healthcare": "clinic", "healthcare:speciality": "ophthalmology", "name": "Klinik für Augenheilkunde"}}, {"type": "node", "id": 3374664289, "lat": 52.5417163, "lon": 13.3452139, "tags": {"amenity": "clinic", "healthcare": "clinic", "healthcare:speciality": "neurology", "name": "Klinik für Neurologie"}}, {"type": "node", "id": 3374664291, "lat": 52.5411876, "lon": 13.3412877, "tags": {"amenity": "clinic", "healthcare": "clinic", "name": "Klinik für Psychiatrie, Psychosomatik und Psychotherapie des Kindes- und Jugendalters"}}, {"type": "node", "id": 3374665793, "lat": 52.5424245, "lon": 13.3418703, "tags": {"amenity": "clinic", "healthcare": "clinic", "healthcare:speciality": "paediatrics", "name": "Kliniken für Kinderheilkunde und Kinderchirurgie"}}, {"type": "node", "id": 3374665794, "lat": 52.5398016, "lon": 13.3452252, "tags": {"amenity": "clinic", "healthcare": "clinic", "name": "Institut für Tropenmedizin und Internationale Gesundheit"}}, {"type": "node", "id": 3442710834, "lat": 52.6116633, "lon": 13.4739664, "tags": {"amenity": "clinic", "healthcare": "clinic", "name": "Ärztehaus Karow", "toilets:wheelchair": "no", "wheelchair": "limited"}}, {"type": "node", "id": 3566078016, "lat": 52.4825509, "lon": 13.5263205, "tags": {"addr:city": "Berlin", "addr:housenumber": "47", "addr:postcode": "10318", "addr:street": "Ehrenfelsstraße", "amenity": "clinic", "healthcare": "clinic", "name": "Ärztehaus Karlshorst", "opening_hours": "\"je nach Praxis\"", "wheelchair": "yes"}}, {"type": "node", "id": 3676000336, "lat": 52.5007524, "lon": 13.3306476, "tags": {"addr:city": "Berlin", "addr:country": "DE", "addr:housenumber": "21", "addr:postcode": "10719", "addr:street": "Joachimsthaler Straße", "addr:suburb": "Charlottenburg", "amenity": "clinic", "healthcare": "clinic"}}, {"type": "node", "id": 3772788958, "lat": 52.5416884, "lon": 13.3456098, "tags": {"amenity": "clinic", "healthcare": "clinic", "healthcare:speciality": "otolaryngology", "name": "Hals-, Nasen-, Ohrenheilkunde"}}, {"type": "node", "id": 3772788960, "lat": 52.5401501, "lon": 13.3443105, "tags": {"amenity": "clinic", "healthcare": "clinic", "healthcare:speciality": "radiotherapy", "name": "Strahlentherapie Ambulantes Gesundheitszentrum"}}, {"type": "node", "id": 3772788961, "lat": 52.5402208, "lon": 13.3444199, "tags": {"amenity": "clinic", "healthcare": "clinic", "healthcare:speciality": "nuclear", "name": "Nuklearmedizin Funktionsdiagnostik"}}, {"type": "node", "id": 3772788962, "lat": 52.5397442, "lon": 13.3452304, "tags": {"amenity": "clinic", "healthcare": "clinic", "name": "Pharmakovigilanz- und Beratungszentrum für Embryonaltoxikologie"}}, {"type": "node", "id": 3772789057, "lat": 52.5407789, "lon": 13.3442093, "tags": {"amenity": "clinic", "healthcare": "clinic", "healthcare:speciality": "nuclear", "name": "Klinik für Nuklearmedizin"}}, {"type": "node", "id": 3772789058, "lat": 52.5402731, "lon": 13.3452272, "tags": {"amenity": "clinic", "healthcare": "clinic", "name": "Medizinische Klinik m.S. Infektiologie"}}, {"type": "node", "id": 3772789059, "lat": 52.5426569, "lon": 13.3451095, "tags": {"amenity": "clinic", "healthcare": "clinic", "name": "Medizinische Kliniken"}}, {"type": "node", "id": 3772789060, "lat": 52.5415223, "lon": 13.3452938, "tags": {"amenity": "clinic", "healthcare": "clinic", "healthcare:speciality": "dental_oral_maxillo_facial_surgery", "name": "Mund, Kiefer, Gesichtschirurgie"}}, {"type": "node", "id": 3772789061, "lat": 52.541304, "lon": 13.3440723, "tags": {"amenity": "clinic", "healthcare": "clinic", "name": "Unfall- und Wiederherstellungschirurgie"}}, {"type": "node", "id": 3772804457, "lat": 52.5407931, "lon": 13.3444675, "tags": {"amenity": "clinic", "healthcare": "clinic", "healthcare:speciality": "radiotherapy", "name": "Klinik für Strahlenheilkunde", "operator": "Charite Campus Virchow Klinik"}}, {"type": "node", "id": 3869328066, "lat": 52.5115837, "lon": 13.3109098, "tags": {"addr:city": "Berlin", "addr:country": "DE", "addr:housenumber": "95,96", "addr:postcode": "10625", "addr:street": "Bismarckstraße", "addr:suburb": "Charlottenburg", "amenity": "clinic", "healthcare": "clinic", "healthcare:speciality": "surgery;general;orthopaedics", "name": "MVZ Dr. Kaleth & Kollegen", "opening_hours": "Mo-Th 07:30-19:30; Fr 07:30-18:00", "toilets:wheelchair": "yes", "website": "https://www.kalethundkollegen.de/", "wheelchair": "yes", "wheelchair:description": "barrierefrei wenn Zufahrt über den Hinterhof"}}, {"type": "node", "id": 3923385926, "lat": 52.4986743, "lon": 13.306612, "tags": {"addr:city": "Berlin", "addr:country": "DE", "addr:housenumber": "2", "addr:postcode": "10709", "addr:street": "Paulsborner Straße", "addr:suburb": "Wilmersdorf", "amenity": "clinic", "contact:phone": "+49 30 2360830", "contact:website": "https://avicenna-klinik.com", "emergency": "no", "healthcare": "clinic", "healthcare:speciality": "neurosurgery;orthopaedics", "name": "Avicenna Klinik"}}, {"type": "node", "id": 4136419292, "lat": 52.5121683, "lon": 13.3802666, "tags": {"addr:city": "Berlin", "addr:housenumber": "1", "addr:postcode": "10117", "addr:street": "In den Ministergärten", "amenity": "clinic", "healthcare": "clinic", "healthcare:speciality": "general;dermatology;immunology", "name": "Ärztehaus Mitte Medizinisches Versorgungszentrum", "opening_hours": "Mo,We,Th 09:00-12:00,13:15-16:00; Tu 10:00-12:00,13:15-17:00; Fr 09:00-12:00, Fr 12:00+ \"nach Vereinbarung\"; PH off", "operator": "MikroMy med. Versorgung Gesellschaft für mikrobiologische und mykologische Diagnostik mbH", "operator:type": "private", "phone": "+49 30 2123436400", "toilets:wheelchair": "yes", "website": "https://www.aerztehaus-mitte.de/", "wheelchair": "limited", "wheelchair:description": "Allgemeinmedizin"}}, {"type": "node", "id": 4180948090, "lat": 52.5143227, "lon": 13.4652878, "tags": {"addr:city": "Berlin", "addr:housenumber": "54", "addr:postcode": "10247", "addr:street": "Frankfurter Allee", "amenity": "clinic", "healthcare": "clinic", "name": "Ärztehaus", "wheelchair": "yes", "wheelchair:description": "Fahrstuhl vorhanden"}}, {"type": "node", "id": 4317979052, "lat": 52.4517261, "lon": 13.2630571, "tags": {"access": "yes", "addr:city": "Berlin", "addr:housenumber": "23", "addr:postcode": "14169", "addr:street": "Am Waldfriedhof", "amenity": "clinic", "contact:website": "http://www.mvz-zehlendorf.de/", "healthcare": "clinic", "name": "MVZ Zehlendorf", "operator": "üBAG AnthroMed BB", "wheelchair": "yes"}}, {"type": "node", "id": 4436482371, "lat": 52.5529651, "lon": 13.3802138, "tags": {"addr:city": "Berlin", "addr:housenumber": "32", "addr:postcode": "13357", "addr:street": "Badstraße", "alt_name": "Ärztehaus", "amenity": "clinic", "healthcare": "clinic", "healthcare:speciality": "general;paediatrics;physiotherapy", "name": "MVZ Gesundbrunnen", "opening_hours": "Mo-Fr 08:00-17:00", "operator": "MVZ Adiuvare Berlin GmbH", "operator:type": "private", "phone": "+49 30 81037810", "wheelchair": "yes"}}, {"type": "node", "id": 4448386321, "lat": 52.5674668, "lon": 13.3149552, "tags": {"addr:city": "Berlin", "addr:housenumber": "1", "addr:postcode": "13403", "addr:street": "General-Woyna-Straße", "amenity": "clinic", "healthcare": "clinic", "name": "Gesundheitszentrum", "opening_hours": "Mo,Tu,Th 08:00-14:00,15:00-18:00; We,Fr 08:00-14:00", "phone": "+4930 4122243"}}, {"type": "node", "id": 4450678325, "lat": 52.431273, "lon": 13.3365873, "tags": {"addr:city": "Berlin", "addr:housenumber": "24-26", "addr:postcode": "12247", "addr:street": "Kaiser-Wilhelm-Straße", "amenity": "clinic", "email": "info@copv.berlin", "fax": "+4930768866329", "healthcare": "clinic", "healthcare:speciality": "orthopaedics;surgery", "level": "0", "name": "copv.berlin", "phone": "+493076886633", "website": "https://www.copv.berlin", "wheelchair": "yes"}}, {"type": "node", "id": 4490976196, "lat": 52.3670355, "lon": 13.1369015, "tags": {"addr:city": "Potsdam", "addr:country": "DE", "addr:housenumber": "57", "addr:postcode": "14480", "addr:street": "Konrad-Wolf-Allee", "addr:suburb": "Drewitz", "amenity": "clinic", "check_date": "2023-10-01", "healthcare": "centre", "name": "Ärztehaus"}}, {"type": "node", "id": 4553683090, "lat": 52.5415844, "lon": 13.3688768, "tags": {"addr:city": "Berlin", "addr:housenumber": "3", "addr:postcode": "13347", "addr:street": "Fennstraße", "amenity": "clinic", "check_date": "2023-03-24", "healthcare": "clinic", "name": "Medio Berlin Ärztehaus Mitte", "opening_hours": "Mo,Tu,Th 14:00-17:00; Mo,Tu,Th,Fr 08:30-12:00", "operator": "Medio Berlin Ärztehaus", "operator:type": "private", "website": "http://www.medio.berlin/", "wheelchair": "yes"}}, {"type": "node", "id": 4678698964, "lat": 52.5489473, "lon": 13.5923208, "tags": {"addr:city": "Ahrensfelde", "addr:country": "DE", "addr:housenumber": "14", "addr:postcode": "16356", "addr:street": "Landsberger Chaussee", "addr:suburb": "Eiche", "amenity": "clinic", "check_date": "2023-10-14", "healthcare": "clinic", "name": "Ärztehaus Eiche", "website": "https://www.aerztehaus-eiche.de/"}}, {"type": "node", "id": 4773307930, "lat": 52.5112958, "lon": 13.4570707, "tags": {"addr:city": "Berlin", "addr:country": "DE", "addr:housenumber": "40", "addr:postcode": "10245", "addr:street": "Simon-Dach-Straße", "addr:suburb": "Friedrichshain", "amenity": "clinic", "healthcare": "clinic", "name": "Covid19 Center", "opening_hours": "Mo-Sa 08:00-18:00; Su 10:00-16:00"}}, {"type": "node", "id": 4834609482, "lat": 52.5697088, "lon": 13.4061683, "tags": {"addr:city": "Berlin", "addr:housenumber": "33", "addr:postcode": "13187", "addr:street": "Breite Straße", "amenity": "clinic", "healthcare": "clinic", "healthcare:speciality": "general;cardiology;gastroenterology;internal", "name": "MVZ Pankow Innere Medizin", "opening_hours": "Mo-Fr 08:00-12:00, Mo-Th 15:00-18:00", "website": "https://www.mvz-innere-medizin.de/"}}, {"type": "node", "id": 5030326571, "lat": 52.5358521, "lon": 13.1952319, "tags": {"addr:city": "Berlin", "addr:country": "DE", "addr:housenumber": "3", "addr:postcode": "13597", "addr:street": "Galenstraße", "addr:suburb": "Spandau", "amenity": "clinic", "healthcare": "clinic", "name": "MVZ am Bahnhof Spandau", "opening_hours": "Mo,Tu,Th 08:00-12:00,15:00-18:00; We,Fr 08:00-12:00", "website": "https://www.pg-spandau.de/index.html", "wheelchair": "limited"}}, {"type": "node", "id": 5037228530, "lat": 52.450855, "lon": 13.6238856, "tags": {"addr:city": "Berlin", "addr:housenumber": "113", "addr:postcode": "12587", "addr:street": "Bölschestraße", "amenity": "clinic", "healthcare": "clinic", "name": "Ärzte Zentrum am Markt"}}, {"type": "node", "id": 5049915761, "lat": 52.4862047, "lon": 13.3324816, "tags": {"addr:city": "Berlin", "addr:country": "DE", "addr:housenumber": "18", "addr:postcode": "10715", "addr:street": "Badensche Straße", "addr:suburb": "Wilmersdorf", "amenity": "clinic", "contact:website": "http://www.b18-gesundheitszentrum.de/", "healthcare": "clinic", "name": "B18 Gesundheitszentrum", "operator": "B18 Gesundheitszentrum Wilmersdorf", "operator:type": "private", "wheelchair": "yes"}}, {"type": "node", "id": 5056974011, "lat": 52.4565402, "lon": 13.3197406, "tags": {"amenity": "clinic", "email": "info@pk-schloss.de", "fax": "+49 30 74770849", "healthcare": "clinic", "healthcare:speciality": "plastic_surgery", "level": "6", "name": "Privatklinik Schlossstraße - Fachklinik für Brustvergrößerung und Brustformung", "phone": "+49 30 74770840", "website": "https://www.privatklinik-schlossstrasse.de/"}}, {"type": "node", "id": 5186166876, "lat": 52.5056232, "lon": 13.2992922, "tags": {"addr:city": "Berlin", "addr:housenumber": "18", "addr:postcode": "10627", "addr:street": "Windscheidstraße", "amenity": "clinic", "healthcare": "clinic", "healthcare:speciality": "general;urology", "name": "MVZ Windscheidstraße", "operator": "Dr. med. Roman M. Skoblo", "operator:type": "private", "phone": "+49 30 327 903 796", "website": "https://www.mvz-windscheidstrasse.de/"}}, {"type": "node", "id": 5223291551, "lat": 52.5410308, "lon": 13.413617, "tags": {"amenity": "clinic", "check_date": "2023-03-26", "healthcare": "clinic", "name": "Ärztehaus Danziger Tor", "wheelchair": "yes"}}, {"type": "node", "id": 5318240550, "lat": 52.427323, "lon": 13.3262841, "tags": {"addr:city": "Berlin", "addr:housenumber": "2", "addr:postcode": "12209", "addr:street": "Oberhofer Weg", "amenity": "clinic", "check_date": "2023-06-12", "healthcare": "clinic", "name": "Ärztehaus am Kranoldplatz"}}, {"type": "node", "id": 5325121987, "lat": 52.511099, "lon": 13.6121077, "tags": {"addr:housenumber": "73", "addr:street": "Treskowstraße", "amenity": "clinic", "healthcare": "clinic", "name": "Ärztehaus Mahlsdorf", "opening_hours:signed": "no"}}, {"type": "node", "id": 5337915341, "lat": 52.4969763, "lon": 13.3316596, "tags": {"addr:city": "Berlin", "addr:country": "DE", "addr:housenumber": "11", "addr:postcode": "10777", "addr:street": "Spichernstraße", "addr:suburb": "Wilmersdorf", "amenity": "clinic", "contact:phone": "+49 30 2129900", "contact:website": "https://www.opz-berlin.de/", "healthcare": "clinic", "healthcare:speciality": "surgery", "name": "OP-Zentrum Spichernstraße"}}, {"type": "node", "id": 5418942204, "lat": 52.5238219, "lon": 13.4800578, "tags": {"addr:city": "Berlin", "addr:housenumber": "45", "addr:postcode": "10367", "addr:street": "Möllendorffstraße", "amenity": "clinic", "description": "Nieren-, Hochdruck- und Dialysezentrum.", "email": "dialyseotto@gmx.de", "fax": "+493055490862", "healthcare": "dialysis", "healthcare:speciality": "nephrology;internal", "level": "3", "name": "Nierenzentrum Lichtenberg", "opening_hours": "Tu 08:00-12:00; Th 08:00-13:00", "operator": "Dr. med. Franz Otto", "phone": "+493055490860", "website": "https://www.nierenzentrum-lichtenberg.berlin/", "wheelchair": "yes"}}, {"type": "node", "id": 5451412274, "lat": 52.5492046, "lon": 13.4128467, "tags": {"addr:city": "Berlin", "addr:country": "DE", "addr:housenumber": "118", "addr:postcode": "10437", "addr:street": "Schönhauser Allee", "addr:suburb": "Prenzlauer Berg", "amenity": "clinic", "contact:website": "https://aerzte-schoenhauser-berlin.de/", "healthcare": "clinic", "name": "Ärzte Schönhauser", "operator": "Ärzte Schönhauser Berlin e.V.", "operator:type": "private", "start_date": "2003-09-03", "wheelchair": "yes"}}, {"type": "node", "id": 5779019383, "lat": 52.4978999, "lon": 13.1806609, "tags": {"addr:housenumber": "241", "addr:street": "Gatower Straße", "amenity": "clinic", "description": "Willkommen in der orthopädischen und unfallchirurgischen Gemeinschaftspraxis Biberburg", "healthcare": "clinic", "name": "Biberburg Med-Service GmbH", "opening_hours": "Mo-Th 08:30-18:30; Fr 08:30-14:00", "phone": "+49 30 362030", "website": "https://www.biberburg.de/"}}, {"type": "node", "id": 5849666900, "lat": 52.5370464, "lon": 13.6032937, "tags": {"addr:city": "Berlin", "addr:country": "DE", "addr:housenumber": "2", "addr:postcode": "12627", "addr:street": "Alice-Salomon-Platz", "addr:suburb": "Hellersdorf", "amenity": "clinic", "healthcare": "clinic", "healthcare:speciality": "dorsopathy", "level": "5", "name": "Klinik Helle Mitte", "website": "https://www.klinik-helle-mitte.de", "wikidata": "Q97013118"}}, {"type": "node", "id": 5890341827, "lat": 52.5619433, "lon": 13.3321631, "tags": {"addr:city": "Berlin", "addr:country": "DE", "addr:housenumber": "1", "addr:postcode": "13405", "addr:street": "Scharnweberstraße", "addr:suburb": "Reinickendorf", "amenity": "clinic", "healthcare": "clinic", "healthcare:speciality": "general;internal", "name": "Hausärztlich-Internistisches Versorgungszentrum", "opening_hours:signed": "no", "operator": "MVZ - GbR", "operator:type": "private", "website": "https://www.mvz-gotthardstrasse.de/", "wheelchair": "no"}}, {"type": "node", "id": 5903202921, "lat": 52.5503338, "lon": 13.4591399, "tags": {"addr:city": "Berlin", "addr:country": "DE", "addr:housenumber": "105", "addr:postcode": "13088", "addr:street": "Berliner Allee", "addr:suburb": "Weißensee", "amenity": "clinic", "healthcare": "clinic", "healthcare:speciality": "urology;orthopaedics", "name": "HELIOS Medical Center Berlin-Weißensee", "opening_hours": "Mo,Th 08:00-12:30, Tu,Fr 08:00-13:00, We 08:00-15:00, Mo,Th 13:00-17:00, Tu 14:00-18:00", "operator": "Helios Kliniken", "operator:wikidata": "Q1254151", "operator:wikipedia": "de:Helios Kliniken"}}, {"type": "node", "id": 6347320701, "lat": 52.5270136, "lon": 13.4787739, "tags": {"addr:city": "Berlin", "addr:country": "DE", "addr:housenumber": "111", "addr:postcode": "10369", "addr:street": "Weißenseer Weg", "amenity": "clinic", "check_date:opening_hours": "2023-02-19", "description": "City Point Centrum für psychische Gesundheit (CPC)", "healthcare": "clinic", "name": "CPC", "opening_hours:signed": "no", "operator": "Evangelisches Krankenhaus Königin Elisabeth Herzberge gemeinnützige GmbH (KEH gGmbH)", "website": "https://www.keh-berlin.de/de/city-point-centrum-fuer-psychische-gesundheit"}}, {"type": "node", "id": 6441944584, "lat": 52.507043, "lon": 13.3062719, "tags": {"addr:city": "Berlin", "addr:housenumber": "62", "addr:postcode": "10627", "addr:street": "Wilmersdorfer Straße", "amenity": "clinic", "check_date": "2023-04-10", "healthcare": "clinic", "healthcare:speciality": "general;gynaecology;urology", "name": "Ärztehaus", "operator:type": "private"}}, {"type": "node", "id": 6513517778, "lat": 52.5263283, "lon": 13.3757999, "tags": {"addr:housenumber": "3", "addr:street": "Bonhoefferweg", "alt_name": "PIA", "amenity": "clinic", "healthcare": "clinic", "healthcare:speciality": "psychiatry", "name": "Psychiatrische Institutsambulanz", "operator": "Charité", "operator:wikidata": "Q162684"}}, {"type": "node", "id": 6710135969, "lat": 52.5520135, "lon": 13.4662422, "tags": {"addr:city": "Berlin", "addr:housenumber": "158", "addr:postcode": "13088", "addr:street": "Berliner Allee", "amenity": "clinic", "contact:website": "https://www.alexianer-berlin-weissensee.de/leistungen/ambulante-behandlung/medizinisches-versorgungszentrum-mvz/", "healthcare": "centre", "healthcare:speciality": "general;neurology;psychiatry", "name": "Medizinisches Versorgungszentrum am Alexianer St. Joseph-​Krankenhaus Berlin-​Weißensee"}}, {"type": "node", "id": 7232410182, "lat": 52.6269511, "lon": 13.5071286, "tags": {"amenity": "clinic", "healthcare": "clinic", "level": "0", "name": "Hochschulambulanz Charité Buch", "operator": "Charité"}}, {"type": "node", "id": 7613394448, "lat": 52.488605, "lon": 13.3012964, "tags": {"addr:city": "Berlin", "addr:country": "DE", "addr:housenumber": "47a", "addr:postcode": "10713", "addr:street": "Hohenzollerndamm", "addr:suburb": "Halensee", "amenity": "clinic", "healthcare": "clinic", "name": "Ärztehaus Hohenzollerndamm"}}, {"type": "node", "id": 7640755741, "lat": 52.4767301, "lon": 13.3422716, "tags": {"addr:city": "Berlin", "addr:country": "DE", "addr:housenumber": "93", "addr:postcode": "12159", "addr:street": "Hauptstraße", "addr:suburb": "Schöneberg", "amenity": "clinic", "beauty": "cosmetics;spa", "check_date:opening_hours": "2022-08-03", "healthcare": "clinic", "healthcare:speciality": "plastic_surgery", "name": "Ästhetikwelt-Berlin", "opening_hours": "Mo-Fr 10:00-18:00; Sa 10:00-14:00", "website": "https://www.die-schoenheitsspezialisten.com/"}}, {"type": "node", "id": 7680987922, "lat": 52.4793847, "lon": 13.3276218, "tags": {"addr:city": "Berlin", "addr:country": "DE", "addr:housenumber": "4", "addr:postcode": "10715", "addr:street": "Bundesplatz", "addr:suburb": "Wilmersdorf", "amenity": "clinic", "healthcare": "clinic", "healthcare:speciality": "psychiatry;psychotherapy", "name": "MVZ psychische Gesundheit", "opening_hours": "\"nach Vereinbarung\"", "operator": "Dr. Panitz & Kolleginnen und Kollegen", "operator:type": "private", "phone": "+49 30 8540 14 81", "website": "https://www.mvz-psychische-gesundheit.de/"}}, {"type": "node", "id": 7831880615, "lat": 52.5292555, "lon": 13.3930716, "tags": {"addr:city": "Berlin", "addr:country": "DE", "addr:housenumber": "5", "addr:postcode": "10115", "addr:street": "Gartenstraße", "addr:suburb": "Mitte", "alt_name": "Zentrum für ambulante Rehabilitation Berlin", "amenity": "clinic", "contact:email": "info@zar-berlin.de", "contact:website": "https://www.zar-berlin.de/", "emergency": "no", "healthcare": "rehabilitation", "name": "ZAR Berlin", "operator": "Nanz medico GmbH & Co. KG"}}, {"type": "node", "id": 7994883600, "lat": 52.497613, "lon": 13.2958406, "tags": {"amenity": "clinic", "healthcare": "clinic", "name": "Ärztehaus", "opening_hours": "\"verschieden Ärzte\""}}, {"type": "node", "id": 8000598805, "lat": 52.4867077, "lon": 13.3215078, "tags": {"addr:city": "Berlin", "addr:country": "DE", "addr:housenumber": "37", "addr:postcode": "10715", "addr:street": "Berliner Straße", "addr:suburb": "Wilmersdorf", "amenity": "clinic", "healthcare": "clinic", "name": "Ärztehaus"}}, {"type": "node", "id": 8245997146, "lat": 52.4862355, "lon": 13.3323975, "tags": {"addr:city": "Berlin", "addr:country": "DE", "addr:housenumber": "18", "addr:postcode": "10715", "addr:street": "Badensche Straße", "addr:suburb": "Wilmersdorf", "amenity": "clinic", "healthcare": "clinic", "healthcare:speciality": "psychiatry", "name": "Panomarana Klinik", "website": "https://www.panoramaklinikberlin.de/"}}, {"type": "node", "id": 8358306416, "lat": 52.5043567, "lon": 13.3410049, "tags": {"addr:city": "Berlin", "addr:housenumber": "67", "addr:postcode": "10787", "addr:street": "Nürnberger Straße", "amenity": "clinic", "healthcare": "clinic", "name": "Ärztehaus am Europacenter", "website": "http://www.fv-aerztehaus.de/index.html"}}, {"type": "node", "id": 8378417924, "lat": 52.4977918, "lon": 13.50974, "tags": {"addr:city": "Berlin", "addr:housename": "Nebenhaus", "addr:housenumber": "20", "addr:postcode": "10319", "addr:street": "Balatonstraße", "amenity": "clinic", "check_date:opening_hours": "2023-04-09", "healthcare": "clinic", "name": "Ärztehaus", "opening_hours:signed": "no", "wheelchair": "yes"}}, {"type": "node", "id": 8435708025, "lat": 52.4971645, "lon": 13.3066377, "tags": {"addr:city": "Berlin", "addr:country": "DE", "addr:housenumber": "2/2A", "addr:postcode": "10709", "addr:street": "Paderborner Straße", "addr:suburb": "Wilmersdorf", "amenity": "clinic", "capacity": "18", "contact:website": "https://www.schlaflaborberlin.de/", "healthcare": "clinic", "healthcare:speciality": "somnology", "name": "Zentrales Schlaflabor", "operator": "ZSL – Zentrales Schlaflabor – Dienstleistungs GmbH"}}, {"type": "node", "id": 8491450219, "lat": 52.533436, "lon": 13.4768042, "tags": {"addr:city": "Berlin", "addr:country": "DE", "addr:housenumber": "201", "addr:postcode": "13055", "addr:street": "Landsberger Allee", "addr:suburb": "Alt-Hohenschönhausen", "amenity": "clinic", "check_date:opening_hours": "2023-02-24", "healthcare": "clinic", "name": "Ärztehaus", "opening_hours": "Mo-Fr 08:00-19:00"}}, {"type": "node", "id": 8662563074, "lat": 52.5116602, "lon": 13.448904, "tags": {"addr:city": "Berlin", "addr:housenumber": "44", "addr:postcode": "10243", "addr:street": "Gubener Straße", "amenity": "clinic", "check_date:opening_hours": "2022-12-08", "healthcare": "clinic", "healthcare:speciality": "paediatrics", "name": "Perspektive Daheim", "note": "Intensivpflegedienst für Kinder und Jugendliche", "opening_hours:signed": "no", "website": "https://www.perspektive-daheim.de"}}, {"type": "node", "id": 9178079418, "lat": 52.5105869, "lon": 13.2863591, "tags": {"amenity": "clinic", "description": "Diverse Praxen u.a. Psychiatrische Privatpraxis Prof. Reischies", "healthcare": "clinic", "name": "Ärztehaus"}}, {"type": "node", "id": 9257846271, "lat": 52.5493363, "lon": 13.3534183, "tags": {"addr:city": "Berlin", "addr:country": "DE", "addr:housenumber": "139", "addr:postcode": "13353", "addr:street": "Müllerstraße", "alt_name": "Ärztehaus Müllerstraße 139", "amenity": "clinic", "check_date:opening_hours": "2023-02-03", "health_facility:type": "clinic", "healthcare": "clinic", "medical_system:western": "yes", "name": "MVZ Wedding", "opening_hours:signed": "no", "operator": "Vivantes", "operator:wikidata": "Q878059", "operator:wikipedia": "de:Vivantes", "phone": "+49 30 4537767", "website": "https://mvz.vivantes.de/arztpraxis-finden/mvz-wedding", "wheelchair": "yes"}}, {"type": "node", "id": 9292210614, "lat": 52.4282314, "lon": 13.5379663, "tags": {"amenity": "clinic", "healthcare": "clinic", "healthcare:speciality": "cardiology", "level": "4", "name": "MVZ Adlershof Vivantes Kardiologie", "operator": "Vivantes", "operator:wikidata": "Q878059", "wheelchair": "yes"}}, {"type": "node", "id": 9523939998, "lat": 52.5266285, "lon": 13.3519124, "tags": {"addr:housenumber": "9", "addr:street": "Turmstraße", "amenity": "clinic", "description": "Das Medizinische Versorgungszentrum MVZ Medizin der Mitte bietet eine haus- und fachärztliche Behandlung sowie ambulante Versorgung mit drei Hausärztinnen und drei fachärztlichen Internisten mit Schwerpunkt Gefäßmedizin.", "healthcare": "clinic", "name": "MVZ Medizin der Mitte", "opening_hours": "Mo-Fr 08:00-18:00", "phone": "+49 30 3966980", "website": "https://www.mvz-mdm.de/"}}, {"type": "node", "id": 9581653784, "lat": 52.5115869, "lon": 13.311026, "tags": {"addr:city": "Berlin", "addr:housenumber": "95-96", "addr:postcode": "10625", "addr:street": "Bismarckstraße", "amenity": "clinic", "brand": "KfH", "brand:wikidata": "Q1740377", "healthcare": "dialysis", "healthcare:speciality": "nephrology", "name": "KfH-Nierenzentrum", "opening_hours": "Mo-Sa 07:30-20:45", "operator": "KfH Kuratorium für Dialyse und Nierentransplantation e.V", "phone": "+49 30 315863", "survey:date": "2022-03-02", "website": "https://www.kfh.de/nierenzentrum/berlin-bismarckstrasse/startseite/"}}, {"type": "node", "id": 9971870799, "lat": 52.513277, "lon": 13.389756, "tags": {"addr:city": "Berlin", "addr:housenumber": "71", "addr:postcode": "10117", "addr:street": "Friedrichstraße", "amenity": "clinic", "healthcare": "clinic", "level": "5", "name": "Meoclinic", "opening_hours": "Mo - Th 08:00-19:00, Fr 08:00-18:00", "wheelchair": "yes"}}, {"type": "node", "id": 10116298591, "lat": 52.4243716, "lon": 13.3506944, "tags": {"addr:city": "Berlin", "addr:housenumber": "131", "addr:postcode": "12249", "addr:street": "Gallwitzallee", "alt_name": "MVZ am St. Marien-Krankenhaus Berlin", "amenity": "clinic", "healthcare": "clinic", "name": "Hausärztlich-internistische Praxis Lankwitz", "operator": "VitaMed GmbH - Medizinisches Versorgungszentrum Cochem-Zell", "website": "https://www.mvz-lankwitz.de/"}}, {"type": "node", "id": 10231199971, "lat": 52.5278444, "lon": 13.3747037, "tags": {"addr:city": "Berlin", "addr:housenumber": "80", "addr:postcode": "10115", "addr:street": "Invalidenstraße", "amenity": "clinic", "check_date:opening_hours": "2023-02-28", "healthcare": "clinic", "name": "Charité Comprehensive Cancer Center", "opening_hours:signed": "no", "short_name": "CCCC", "website": "https://cccc.charite.de/", "wheelchair": "yes"}}, {"type": "node", "id": 10292325696, "lat": 52.5067455, "lon": 13.3285989, "tags": {"addr:city": "Berlin", "addr:housenumber": "85", "addr:postcode": "10623", "addr:street": "Fasanenstraße", "amenity": "clinic", "description": "In der MRT-Akademie erhalten privat Krankenversicherte und Selbstzahler in angenehmer Atmosphäre kompetente Beratung, umfassende Vorsorgeangebote, weitgehende Diagnostik und, falls erforderlich, eine individuelle Therapie.", "email": "info@mrt-akademie.de", "fax": "+49 30 814511888", "healthcare": "clinic", "healthcare:speciality": "mrt;ct;schmerztherapie;beratung;tumorsuche;verlaufskontrolle;zweitmeinung;privatpraxis", "image": "https://mrt-akademie.de/wp-content/uploads/2015/09/mrt-logo01a.png", "name": "MRT-Akademie", "opening_hours": "Mo-Th 08:00-19:00; Fr 08:00-18:00", "operator": "MRT-Akademie", "operator:type": "private", "payment:privat": "yes", "phone": "+49 30 814511880", "website": "https://mrt-akademie.de/de/"}}, {"type": "node", "id": 10680229526, "lat": 52.4930758, "lon": 13.3884974, "tags": {"addr:city": "Berlin", "addr:housenumber": "115", "addr:postcode": "10961", "addr:street": "Gneisenaustraße", "amenity": "clinic", "healthcare": "clinic", "healthcare:speciality": "ophthalmology", "level": "1", "name": "Lasermed Augenarzt Kreuzberg", "operator": "Lasermed", "phone": "++49 (0)30 555 753 111", "website": "https://augenarzt.lasermed.de/berlin/kreuzberg-mehringdamm/"}}, {"type": "node", "id": 10775924108, "lat": 52.5601962, "lon": 13.0898935, "tags": {"amenity": "clinic", "contact:website": "https://praxisgemeinschaft-falkensee.de/", "healthcare": "clinic", "name": "Praxisgemeinschaft Falkensee"}}, {"type": "node", "id": 10829070905, "lat": 52.540939, "lon": 13.4391681, "tags": {"addr:housenumber": "2", "addr:postcode": "10409", "addr:street": "Storkower Straße", "amenity": "clinic", "healthcare": "clinic", "name": "Spreemedizin Berlin MVZ", "name:de": "Spreemedizin MVZ Berlin", "name:en": "Spreemedizin MVZ Berlin", "opening_hours": "Mo-Tu, Th 09:00-13:00, 14:00-17:00; We 09:00-13:00, 14:00-18:00; Fr 09:00-13:00", "website": "https://spreemedizin.de/"}}, {"type": "node", "id": 10975186174, "lat": 52.5076578, "lon": 13.3948073, "tags": {"amenity": "clinic", "healthcare": "clinic", "healthcare:speciality": "general;ophthalmology;orthopaedics;otolaryngology", "name": "Ärztezentrum Axel-Springer-Passage"}}, {"type": "node", "id": 11021391904, "lat": 52.5093177, "lon": 13.5006735, "tags": {"addr:housenumber": "20", "addr:postcode": "10317", "addr:street": "Irenenstraße", "amenity": "clinic", "healthcare": "clinic", "level": "2", "name": "open.med Berlin-Lichtenberg", "opening_hours": "Mo 11:00-15:00; We 14:00-18:00", "operator": "Ärzte der Welt e.V.", "phone": "+49 30 20 60 696 00", "social_facility:for": "homeless;refugee;underprivileged", "website": "https://www.aerztederwelt.org/wem-wir-beistehen/hilfe-fuer-patientinnen"}}, {"type": "node", "id": 11034214308, "lat": 52.514121, "lon": 13.3894666, "tags": {"addr:housenumber": "76", "addr:postcode": "10117", "addr:street": "Friedrichstraße", "amenity": "clinic", "healthcare": "clinic", "healthcare:speciality": "endocrinology", "name": "Endokrinologie Berlin", "name:en": "Endocrinology Berlin", "opening_hours": "Mo-Tu, Th 08:00-13:00, 14:00-18:00; We, Fr 08:00-13:00", "phone": "030 2091562290", "website": "https://www.endokrinologikum-berlin.de/"}}, {"type": "node", "id": 11098046274, "lat": 52.4469507, "lon": 13.3851923, "tags": {"amenity": "clinic", "healthcare": "clinic", "name": "MVZ Mariendorf", "opening_hours": "\"nach Vereinbarung\""}}, {"type": "node", "id": 11148198130, "lat": 52.5368243, "lon": 13.6033947, "tags": {"amenity": "clinic", "healthcare": "clinic", "name": "Ärztezentrum Haus A"}}, {"type": "node", "id": 11148267382, "lat": 52.537904, "lon": 13.6021753, "tags": {"amenity": "clinic", "health_facility:type": "health_centre", "healthcare": "clinic", "medical_system:western": "yes", "name": "Ärztezentrum Haus B"}}, {"type": "node", "id": 11160773805, "lat": 52.6356366, "lon": 13.4939833, "tags": {"addr:housenumber": "19-23", "addr:postcode": "13125", "addr:street": "Wiltbergstraße", "amenity": "clinic", "email": "berlin@loewensteinmedical.com", "healthcare": "clinic", "level": "1", "name": "Schlaf-Atem-Zentrum", "opening_hours": "Mo-Th 08:00-15:00", "operator": "Löwenstein Medical", "operator:type": "private", "phone": "+493085620570", "website": "https://hul.de/standorte/schlaf-atem-zentrum-berlin-buch/"}}]}