{"version": 0.6, "generator": "Overpass API 0.7.61.5 4133829e", "osm3s": {"timestamp_osm_base": "2024-01-02T22:21:00Z", "copyright": "The data included in this document is from www.openstreetmap.org. The data is made available under ODbL."}, "elements": [{"type": "node", "id": 30352328, "lat": 52.5133372, "lon": 13.2842603, "tags": {"addr:city": "Berlin", "addr:country": "DE", "addr:suburb": "Westend", "amenity": "car_sharing", "wheelchair": "yes"}}, {"type": "node", "id": 410135893, "lat": 52.4915174, "lon": 13.4368516, "tags": {"amenity": "car_sharing", "fixme": "Greenwheels hat im Sep.2022 in Deutschland aufgehört. Wer oder was ist jetzt hier?", "operator": "Greenwheels", "operator:wikidata": "Q316782", "operator:wikipedia": "en:Greenwheels", "website": "https://www.greenwheels.com/", "wheelchair": "yes"}}, {"type": "node", "id": 616672198, "lat": 52.536068, "lon": 13.1917177, "tags": {"amenity": "car_sharing", "name": "Sixti Car Club", "operator": "Sixt"}}, {"type": "node", "id": 1334289987, "lat": 52.4695032, "lon": 13.3411199, "tags": {"amenity": "car_sharing", "fixme": "Greenwheels hat im Sep.2022 in Deutschland aufgehört. Wer oder was ist jetzt hier?", "operator": "Greenwheels", "operator:wikidata": "Q316782", "operator:wikipedia": "en:Greenwheels", "website": "http://www.greenwheels.de"}}, {"type": "node", "id": 1826897235, "lat": 52.4997903, "lon": 13.4201248, "tags": {"addr:city": "Berlin", "addr:country": "DE", "addr:housenumber": "133", "addr:postcode": "10999", "addr:street": "Skalitzer Straße", "addr:suburb": "Kreuzberg", "amenity": "car_sharing", "brand": "Stadtmobil", "brand:wikidata": "Q2327629", "brand:wikipedia": "de:Stadtmobil", "name": "stadtmobil", "network": "Stadtmobil Berlin", "operator": "Stadtmobil Berlin GmbH", "operator:wikidata": "Q2327629", "operator:wikipedia": "de:Stadtmobil"}}, {"type": "node", "id": 1826931830, "lat": 52.5051208, "lon": 13.4316834, "tags": {"addr:city": "Berlin", "addr:country": "DE", "addr:housenumber": "121-123", "addr:postcode": "10997", "addr:street": "Manteuffelstraße", "addr:suburb": "Kreuzberg", "amenity": "car_sharing", "brand": "Stadtmobil", "brand:wikidata": "Q2327629", "brand:wikipedia": "de:Stadtmobil", "name": "Stadtmobil", "network": "Stadtmobil Berlin", "operator": "Stadtmobil Berlin GmbH", "wheelchair": "yes"}}, {"type": "node", "id": 3363900043, "lat": 52.5421241, "lon": 13.420326, "tags": {"amenity": "car_sharing", "check_date": "2023-07-06", "opening_hours": "24/7"}}, {"type": "node", "id": 3363902823, "lat": 52.542678, "lon": 13.4189019, "tags": {"amenity": "car_sharing", "brand": "Greenwheels", "brand:wikidata": "Q316782", "brand:wikipedia": "en:Greenwheels", "fixme": "Greenwheels hat im Sep.2022 in Deutschland aufgehört. Wer oder was ist jetzt hier?", "name": "Greenwheels", "operator": "Greenwheels", "operator:wikidata": "Q316782", "operator:wikipedia": "en:Greenwheels", "wheelchair": "yes"}}, {"type": "node", "id": 3875852629, "lat": 52.5449905, "lon": 13.4269668, "tags": {"amenity": "car_sharing", "brand": "Flinkster", "name": "Flinkster", "network": "Flinkster", "operator": "Deutsche Bahn Connect", "operator:wikidata": "Q1152100", "operator:wikipedia": "de:Deutsche Bahn Connect"}}, {"type": "node", "id": 4278854418, "lat": 52.5367486, "lon": 13.4184235, "tags": {"amenity": "car_sharing", "capacity": "3"}}, {"type": "node", "id": 4436548357, "lat": 52.5343108, "lon": 13.381765, "tags": {"amenity": "car_sharing", "network": "Flinkster", "website": "https://www.flinkster.de/kundenbuchung/process.php?proc=station&station_id=400342"}}, {"type": "node", "id": 4605555446, "lat": 52.5229639, "lon": 13.378748, "tags": {"amenity": "car_sharing", "brand": "Flinkster", "capacity": "5", "network": "Flinkster", "note": "Station wurde am 11. Januar 2017 eröffnet (http://web.archive.org/web/20170113112111/http://www.deutschebahn.com/de/presse/pressestart_zentrales_uebersicht/13104256/p20170112.html)", "operator": "Deutsche Bahn Connect GmbH", "operator:wikidata": "Q1152100", "operator:wikipedia": "de:Deutsche Bahn Connect", "start_date": "2017-01"}}, {"type": "node", "id": 5260315892, "lat": 52.5473121, "lon": 13.4076002, "tags": {"amenity": "car_sharing", "brand": "Stadtmobil", "brand:wikidata": "Q2327629", "brand:wikipedia": "de:Stadtmobil", "capacity": "2", "network": "Stadtmobil Berlin", "operator": "Stadtmobil Berlin GmbH", "ref": "Sonnenburger Straße 61 (S+U Schönhauser Allee: 700m)", "supervised": "no", "website": "https://berlin.stadtmobil.de/privatkunden/stationen/station/sonnenburger-strasse-61-s-u-schoenhauser-allee-700m/"}}, {"type": "node", "id": 5303361931, "lat": 52.3864171, "lon": 13.0971904, "tags": {"amenity": "car_sharing", "capacity": "1", "fixme": "Greenwheels hat im Sep.2022 in Deutschland aufgehört. Wer oder was ist jetzt hier?", "operator": "Greenwheels"}}, {"type": "node", "id": 6124260756, "lat": 52.5034886, "lon": 13.4375537, "tags": {"addr:housenumber": "11", "addr:street": "Köpenicker Straße", "amenity": "car_sharing", "name": "Cambio Station Köpenicker", "operator": "cambio CarSharing", "operator:short": "Cambio", "operator:wikidata": "Q1028155", "operator:wikipedia": "de:Cambio CarSharing", "short_name": "Cambio"}}, {"type": "node", "id": 7536994036, "lat": 52.5135935, "lon": 13.4222072, "tags": {"amenity": "car_sharing", "ref_name": "S+U Jannowitzbrücke/Holzmarktstr."}}, {"type": "node", "id": 7915910821, "lat": 52.5287821, "lon": 13.4012144, "tags": {"amenity": "car_sharing", "brand": "Stadtmobil", "brand:wikidata": "Q2327629", "brand:wikipedia": "de:Stadtmobil", "capacity": "2", "name": "stadtmobil", "network": "Stadtmobil Berlin", "operator": "Stadtmobil Berlin GmbH", "operator:type": "private", "operator:wikidata": "Q2327629", "operator:wikipedia": "de:Stadtmobil"}}, {"type": "node", "id": 7995684589, "lat": 52.4796049, "lon": 13.3463921, "tags": {"amenity": "car_sharing", "operator": "cambio CarSharing", "operator:short": "Cambio", "operator:wikidata": "Q1028155", "operator:wikipedia": "de:Cambio CarSharing", "short_name": "Cambio"}}, {"type": "node", "id": 8255683563, "lat": 52.5541797, "lon": 13.2260851, "tags": {"amenity": "car_sharing", "name": "Jelbi-Station Daumstraße/Rhenaniastraße", "operator": "Berliner Verkehrsbetriebe"}}, {"type": "node", "id": 8614201454, "lat": 52.5386786, "lon": 13.2326674, "tags": {"amenity": "car_sharing", "name": "Jelbi-Station U Haselhorst"}}, {"type": "node", "id": 8614204893, "lat": 52.5106897, "lon": 13.5009862, "tags": {"amenity": "car_sharing", "name": "Jelbi-Station S+U Lichtenberg"}}, {"type": "node", "id": 9002051629, "lat": 52.5058683, "lon": 13.5608726, "tags": {"amenity": "car_sharing", "brand": "Jelbi", "brand:remarketed": "greenwheels,Miles,mobilee", "capacity": "4", "check_date": "2021-12-08", "name": "Jelbi", "network": "Jelbi", "opening_hours": "24/7", "operator": "BVG", "website": "https://www.jelbi.de/", "wheelchair": "yes"}}, {"type": "node", "id": 9074640222, "lat": 52.544121, "lon": 13.4181042, "tags": {"addr:city": "Berlin", "addr:housenumber": "46", "addr:postcode": "10437", "addr:street": "Lychener Straße", "addr:suburb": "Prenzlauer Berg", "amenity": "car_sharing", "branch": "Helmholtz", "name": "Cambio", "operator": "cambio CarSharing", "operator:short": "Cambio", "operator:wikidata": "Q1028155", "operator:wikipedia": "de:Cambio CarSharing", "short_name": "Cambio", "supervised": "no"}}, {"type": "node", "id": 10263347366, "lat": 52.4917973, "lon": 13.3791418, "tags": {"access": "customers", "amenity": "car_sharing", "brand": "cambio CarSharing", "brand:wikidata": "Q1028155", "brand:wikipedia": "de:Cambio CarSharing", "operator": "cambio CarSharing", "operator:short": "Cambio", "operator:wikidata": "Q1028155", "short_name": "Cambio", "wikimedia_commons": "File:Carsharing Stellplatz mit Anbieterzuordnung Yorckstraße Berlin Kreuzberg.jpg"}}, {"type": "node", "id": 10271579872, "lat": 52.4867107, "lon": 13.4228501, "tags": {"access": "customers", "amenity": "car_sharing", "brand": "cambio CarSharing", "brand:wikidata": "Q1028155", "brand:wikipedia": "de:Cambio CarSharing", "operator": "cambio CarSharing", "operator:short": "Cambio", "operator:wikidata": "Q1028155", "short_name": "Cambio"}}, {"type": "node", "id": 10293401273, "lat": 52.4885196, "lon": 13.4135196, "tags": {"access": "customers", "amenity": "car_sharing", "brand": "cambio CarSharing", "brand:wikidata": "Q1028155", "operator": "cambio CarSharing", "operator:short": "Cambio", "operator:wikidata": "Q1028155"}}, {"type": "node", "id": 10293414916, "lat": 52.4974999, "lon": 13.4436721, "tags": {"access": "customers", "amenity": "car_sharing", "brand": "cambio CarSharing", "brand:wikidata": "Q1028155", "operator": "cambio CarSharing", "operator:short": "Cambio", "operator:wikidata": "Q1028155"}}, {"type": "node", "id": 10608414647, "lat": 52.5722166, "lon": 13.4281633, "tags": {"addr:city": "Berlin", "addr:country": "DE", "addr:postcode": "13189", "addr:street": "Granitzstraße", "amenity": "car_sharing", "brand": "Flinkster", "capacity": "2", "name": "DB Netz Granitzstraße", "network": "Flinkster", "operator": "Deutsche Bahn Connect GmbH", "operator:wikidata": "Q1152100", "supervised": "yes"}}, {"type": "node", "id": 10969860170, "lat": 52.4755902, "lon": 13.3663847, "tags": {"amenity": "car_sharing", "capacity": "8", "operator": "Miles"}}, {"type": "node", "id": 11268679694, "lat": 52.6695769, "lon": 13.3200366, "tags": {"addr:city": "Hohen Neuendorf", "addr:country": "DE", "addr:housenumber": "2", "addr:postcode": "16562", "addr:street": "Ahornallee", "addr:suburb": "Bergfelde", "amenity": "car_sharing", "capacity": "1", "network": "Flinkster", "operator": "Carsharing Hohen Neuendorf e.V.", "operator:website": "https://www.carsharing-hohen-neuendorf.de/", "website": "https://www.flinkster.de/kundenbuchung/process.php?proc=station&station_id=409681"}}, {"type": "node", "id": 11268687349, "lat": 52.6740032, "lon": 13.2907174, "tags": {"addr:city": "Hohen Neuendorf", "addr:housenumber": "23", "addr:postcode": "16540", "addr:street": "Käthe-Kollwitz-Straße", "amenity": "car_sharing", "operator": "Carsharing Hohen Neuendorf e.V."}}, {"type": "node", "id": 11268687350, "lat": 52.6701275, "lon": 13.2863488, "tags": {"addr:street": "Wilhelm-Külz-Straße", "amenity": "car_sharing", "operator": "Carsharing Hohen Neuendorf e.V."}}]}