{"version": 0.6, "generator": "Overpass API 0.7.61.5 4133829e", "osm3s": {"timestamp_osm_base": "2024-01-02T22:21:00Z", "copyright": "The data included in this document is from www.openstreetmap.org. The data is made available under ODbL."}, "elements": [{"type": "node", "id": 649685604, "lat": 52.4181637, "lon": 13.4487903, "tags": {"addr:city": "Berlin", "addr:country": "DE", "addr:housenumber": "66", "addr:postcode": "12353", "addr:street": "Ringslebenstraße", "addr:suburb": "Buckow", "building": "apartments", "building:levels": "4"}}, {"type": "node", "id": 649685609, "lat": 52.4183356, "lon": 13.4489394, "tags": {"addr:city": "Berlin", "addr:country": "DE", "addr:housenumber": "62", "addr:postcode": "12353", "addr:street": "Am Eichenquast", "addr:suburb": "Buckow", "building": "apartments", "building:levels": "4", "building:material": "concrete", "roof:shape": "flat"}}, {"type": "node", "id": 649685644, "lat": 52.4185693, "lon": 13.4487447, "tags": {"addr:city": "Berlin", "addr:country": "DE", "addr:housenumber": "60", "addr:postcode": "12353", "addr:street": "Am Eichenquast", "addr:suburb": "Buckow", "building": "apartments", "building:levels": "4", "building:material": "concrete", "roof:shape": "flat"}}, {"type": "node", "id": 2274332286, "lat": 52.6347837, "lon": 13.3164541, "tags": {"building": "apartments"}}, {"type": "node", "id": 2865870650, "lat": 52.4194168, "lon": 13.4480527, "tags": {"addr:city": "Berlin", "addr:country": "DE", "addr:housenumber": "1", "addr:postcode": "12353", "addr:street": "Dröpkeweg", "addr:suburb": "Buckow", "building": "apartments", "building:material": "concrete", "roof:shape": "flat", "source": "Geoportal Berlin / Hauskoordinaten"}}, {"type": "node", "id": 2865872491, "lat": 52.4194101, "lon": 13.4477456, "tags": {"addr:city": "Berlin", "addr:country": "DE", "addr:housenumber": "3", "addr:postcode": "12353", "addr:street": "Dröpkeweg", "addr:suburb": "Buckow", "building": "apartments", "building:material": "concrete", "roof:shape": "flat", "source": "Geoportal Berlin / Hauskoordinaten"}}, {"type": "node", "id": 2865872804, "lat": 52.4193489, "lon": 13.4474338, "tags": {"addr:city": "Berlin", "addr:country": "DE", "addr:housenumber": "5", "addr:postcode": "12353", "addr:street": "Dröpkeweg", "addr:suburb": "Buckow", "building": "apartments", "building:material": "concrete", "roof:shape": "flat", "source": "Geoportal Berlin / Hauskoordinaten"}}, {"type": "node", "id": 2865872992, "lat": 52.4192724, "lon": 13.4471268, "tags": {"addr:city": "Berlin", "addr:country": "DE", "addr:housenumber": "7", "addr:postcode": "12353", "addr:street": "Dröpkeweg", "addr:suburb": "Buckow", "building": "apartments", "building:levels": "4", "building:material": "concrete", "roof:shape": "flat", "source": "Geoportal Berlin / Hauskoordinaten"}}, {"type": "node", "id": 6937874157, "lat": 52.5337916, "lon": 13.4255372, "tags": {"addr:city": "Berlin", "addr:country": "DE", "addr:housenumber": "18", "addr:postcode": "10405", "addr:street": "Winsstraße", "addr:suburb": "Prenzlauer Berg", "building": "apartments", "building:levels": "6", "roof:shape": "flat"}}, {"type": "node", "id": 9816141076, "lat": 52.5562737, "lon": 13.2106185, "tags": {"addr:city": "Berlin", "addr:country": "DE", "addr:postcode": "13587", "addr:street": "Am Maselakepark", "addr:suburb": "Hakenfelde", "building": "apartments", "building:flats": "12", "building:levels": "5", "ele": "34", "height": "20"}}, {"type": "node", "id": 10008809707, "lat": 52.5340267, "lon": 13.4260811, "tags": {"addr:city": "Berlin", "addr:country": "DE", "addr:housenumber": "14", "addr:postcode": "10405", "addr:street": "Marienburger Straße", "addr:suburb": "Prenzlauer Berg", "building": "apartments", "building:levels": "6", "roof:shape": "flat"}}, {"type": "node", "id": 10008809708, "lat": 52.5339601, "lon": 13.4262879, "tags": {"addr:city": "Berlin", "addr:country": "DE", "addr:housenumber": "14A", "addr:postcode": "10405", "addr:street": "Marienburger Straße", "addr:suburb": "Prenzlauer Berg", "building": "apartments", "building:levels": "6", "roof:shape": "flat"}}, {"type": "node", "id": 10008809709, "lat": 52.5339096, "lon": 13.4264502, "tags": {"addr:city": "Berlin", "addr:country": "DE", "addr:housenumber": "14B", "addr:postcode": "10405", "addr:street": "Marienburger Straße", "addr:suburb": "Prenzlauer Berg", "building": "apartments", "building:levels": "6"}}, {"type": "node", "id": 10008809710, "lat": 52.5338479, "lon": 13.4266651, "tags": {"addr:city": "Berlin", "addr:country": "DE", "addr:housenumber": "15", "addr:postcode": "10405", "addr:street": "Marienburger Straße", "addr:suburb": "Prenzlauer Berg", "building": "apartments", "building:levels": "6", "roof:shape": "flat"}}, {"type": "node", "id": 10008809711, "lat": 52.5340798, "lon": 13.4258114, "tags": {"addr:city": "Berlin", "addr:country": "DE", "addr:housenumber": "20", "addr:postcode": "10405", "addr:street": "Winsstraße", "addr:suburb": "Prenzlauer Berg", "building": "apartments", "building:levels": "6", "building:material": "brick", "roof:shape": "flat", "wheelchair": "yes"}}, {"type": "node", "id": 10008809712, "lat": 52.5339071, "lon": 13.425635, "tags": {"addr:city": "Berlin", "addr:country": "DE", "addr:housenumber": "19", "addr:postcode": "10405", "addr:street": "Winsstraße", "addr:suburb": "Prenzlauer Berg", "building": "apartments", "building:levels": "6", "roof:shape": "flat"}}, {"type": "node", "id": 10858793468, "lat": 52.5182899, "lon": 13.2735226, "tags": {"addr:housenumber": "16", "addr:street": "Akazienallee", "building": "apartments", "building:levels": "3", "building:material": "plaster", "roof:shape": "hipped"}}]}