{"version": 0.6, "generator": "Overpass API 0.7.61.5 4133829e", "osm3s": {"timestamp_osm_base": "2024-01-02T13:45:02Z", "copyright": "The data included in this document is from www.openstreetmap.org. The data is made available under ODbL."}, "elements": [{"type": "node", "id": 237838613, "lat": 52.4799688, "lon": 13.3384592, "tags": {"addr:city": "Berlin", "addr:country": "DE", "addr:housenumber": "8", "addr:postcode": "10825", "addr:street": "Mettestraße", "addr:suburb": "Schöneberg", "amenity": "school", "contact:facebook": "https://www.facebook.com/people/R%C3%BCckert-Gymnasium/100045653813436/", "email": "sekretariat@rueckert-gymnasium-berlin.de", "fax": "+49 30 902774351", "name": "Rückert-Gymnasium", "opening_hours:office": "Mo-Fr 07:30-13:45", "operator": "Land Berlin", "operator:type": "public", "phone": "+49 30 902777173", "school": "secondary", "website": "https://www.rueckert-gymnasium-berlin.de", "wheelchair": "no", "wikidata": "Q61768767", "wikipedia": "de:Rückert-Gymnasium"}}, {"type": "node", "id": 256912446, "lat": 52.5394411, "lon": 13.2880437, "tags": {"addr:city": "Berlin", "addr:country": "DE", "addr:housenumber": "34-42", "addr:postcode": "13627", "addr:street": "Halemweg", "addr:suburb": "Charlottenburg-Nord", "amenity": "school", "contact:fax": "+49 30 902925336", "contact:phone": "+49 30 9029253 80", "contact:website": "http://www.erwinvonwitzleben-grundschule.de/", "email": "Erwin-von-Witzleben-GS@t-online.de", "name": "Erwin von Witzleben Grundschule", "wheelchair": "limited"}}, {"type": "node", "id": 256913234, "lat": 52.521142, "lon": 13.2416342, "tags": {"addr:city": "Berlin", "addr:country": "DE", "addr:housenumber": "1", "addr:postcode": "14053", "addr:street": "Prinz-Friedrich-Karl-Weg", "addr:suburb": "Westend", "amenity": "school", "contact:email": "kontakt@sportschule-olympiapark-poelchau.de", "contact:fax": "+49 30 30063308", "contact:phone": "+49 30 30063300", "contact:website": "https://www.sportschule-olympiapark.de/", "name": "Sportschule im Olympiapark - Poelchau-Schule"}}, {"type": "node", "id": 256913872, "lat": 52.5376587, "lon": 13.2883255, "tags": {"addr:city": "Berlin", "addr:country": "DE", "addr:housenumber": "22", "addr:postcode": "13627", "addr:street": "Halemweg", "addr:suburb": "Westend", "amenity": "school", "email": "post@anna-freud-osz.de", "fax": "+4930 364178 20", "name": "Anna Freud Schule", "phone": "+4930 364178 10", "website": "https://www.anna-freud-osz.de/", "wheelchair": "no"}}, {"type": "node", "id": 263055655, "lat": 52.437435, "lon": 13.7484636, "tags": {"amenity": "school", "name": "Förderschule"}}, {"type": "node", "id": 268915152, "lat": 52.5553761, "lon": 13.4307335, "tags": {"amenity": "school", "name": "Klax Grundschule Langhansstraße", "note": "Klax Grundschule Langhansstraße", "wheelchair": "no"}}, {"type": "node", "id": 268915405, "lat": 52.4545448, "lon": 13.3814584, "tags": {"addr:housenumber": "13-18", "addr:postcode": "12105", "addr:street": "Viktoriastraße", "addr:suburb": "Tempelhof", "amenity": "school", "grades": "1-6", "name": "Freie Schule in Berlin e.V.", "phone": "+49 30 7520771", "website": "https://freie-schule-in-berlin.de"}}, {"type": "node", "id": 268917477, "lat": 52.3968526, "lon": 13.4043701, "tags": {"addr:city": "Berlin", "addr:housenumber": "18", "addr:postcode": "12305", "addr:street": "Lutherstraße", "addr:suburb": "Lichtenrade", "amenity": "school", "name": "Carl-Zeiss-Oberschule", "note": "Filiale Lutherstraße 18", "website": "https://www.carl-zeiss-oberschule.de"}}, {"type": "node", "id": 272808901, "lat": 52.497182, "lon": 13.4421727, "tags": {"addr:city": "Berlin", "addr:country": "DE", "addr:housenumber": "23a", "addr:postcode": "10997", "addr:street": "Cuvrystraße", "addr:suburb": "Kreuzberg", "amenity": "school", "contact:phone": "+49306116089", "contact:website": "http://www.babylonia.de/", "name": "Babylonia", "wheelchair": "no"}}, {"type": "node", "id": 298750707, "lat": 52.5721259, "lon": 13.199678, "tags": {"addr:city": "Berlin", "addr:country": "DE", "addr:housenumber": "26/27", "addr:postcode": "13587", "addr:street": "Schönwalder Allee", "addr:suburb": "Hakenfelde", "amenity": "school", "name": "Evangelische Schule Spandau (ESS)", "phone": "+49 30 35599050", "website": "https://www.evangelisches-johannesstift.de/", "wheelchair": "yes"}}, {"type": "node", "id": 340239440, "lat": 52.4803608, "lon": 13.3390601, "tags": {"addr:city": "Berlin", "addr:country": "DE", "addr:housenumber": "8", "addr:postcode": "10825", "addr:street": "Mettestraße", "addr:suburb": "Schöneberg", "amenity": "school", "email": "Sekretariat@sternberg.schule.berlin.de", "fax": "+49 30 902776638", "name": "Sternberg Grundschule", "opening_hours:office": "Mo-Fr 08:00-14:00", "operator": "Bezirksamt Tempelhof-Schöneberg", "operator:type": "public", "phone": "+49 30 902777156", "school": "primary", "school:de": "Grundschule", "website": "https://www.sternberg-grundschule.de", "wheelchair": "no"}}, {"type": "node", "id": 360713397, "lat": 52.4717574, "lon": 13.4357615, "tags": {"addr:city": "Berlin", "addr:country": "DE", "addr:housenumber": "15-16", "addr:postcode": "12053", "addr:street": "Jonasstraße", "addr:suburb": "Neukölln", "amenity": "school", "name": "Peter-Petersen-Schule"}}, {"type": "node", "id": 360713401, "lat": 52.4725928, "lon": 13.4354917, "tags": {"addr:city": "Berlin", "addr:country": "DE", "addr:housenumber": "39", "addr:postcode": "12053", "addr:street": "Thomasstraße", "addr:suburb": "Neukölln", "amenity": "school", "name": "Konrad-Agahd-Grundschule"}}, {"type": "node", "id": 495268803, "lat": 52.3874644, "lon": 13.1379577, "tags": {"addr:city": "Potsdam", "addr:country": "DE", "addr:housenumber": "80", "addr:postcode": "14480", "addr:street": "Steinstraße", "amenity": "school", "contact:email": "info@oberlin-berufliche-schulen.de", "contact:fax": "+49 331 669 4355", "contact:phone": "+49 331 669 4310", "contact:website": "https://oberlin-berufliche-schulen.de/", "isced:level": "4", "name": "Oberlin Berufliche Schulen", "name:etymology:wikidata": "Q1323976", "old_name": "Berufliche Schule \"Theodor Hoppe\"", "old_name:etymology:wikipedia": "de:Theodor Hoppe (Pastor)", "operator": "Berufsbildungswerk im Oberlinhaus gGmbH", "operator:type": "private_non_profit", "toilets:wheelchair": "yes", "wheelchair": "yes"}}, {"type": "node", "id": 506133476, "lat": 52.445113, "lon": 13.5170522, "tags": {"amenity": "school", "name": "Berliner Rettungsdienstschule"}}, {"type": "node", "id": 592636066, "lat": 52.5413537, "lon": 13.4146824, "tags": {"addr:city": "Berlin", "addr:country": "DE", "addr:housenumber": "7", "addr:postcode": "10437", "addr:street": "Lychener Straße", "addr:suburb": "Prenzlauer Berg", "amenity": "school", "check_date": "2022-10-14", "contact:email": "berlin@theschooloflife.com", "contact:phone": "+49 30 91514311", "contact:website": "https://www.theschooloflife.com/berlin/", "name": "The School of Life", "opening_hours": "Sa 12:00-17:00"}}, {"type": "node", "id": 613697442, "lat": 52.5353066, "lon": 13.3982097, "tags": {"amenity": "school", "wheelchair": "no"}}, {"type": "node", "id": 630640493, "lat": 52.512379, "lon": 13.4195798, "tags": {"amenity": "school", "name": "Games Academy", "website": "https://www.games-academy.de/", "wheelchair": "yes", "wikidata": "Q1493095", "wikipedia": "de:Games Academy"}}, {"type": "node", "id": 727710608, "lat": 52.5264226, "lon": 13.5311243, "tags": {"addr:city": "Berlin", "addr:country": "DE", "addr:housenumber": "33 B", "addr:postcode": "12681", "addr:street": "Allee der Kosmonauten", "addr:suburb": "Marzahn", "amenity": "school", "name": "bbw Akademie Betriebswirtschaftliche Weiterbildung", "website": "http://www.bbw-gruppe.de/standorte/berlin/marzahn.html"}}, {"type": "node", "id": 850092123, "lat": 52.4430497, "lon": 13.5768735, "tags": {"amenity": "school", "name": "Käpt´n Mosers Wassersportschule"}}, {"type": "node", "id": 867872391, "lat": 52.503441, "lon": 13.4120982, "tags": {"amenity": "school", "name": "Deutsch Praxis", "website": "http://www.deutsch-praxis.de/"}}, {"type": "node", "id": 871633760, "lat": 52.5023614, "lon": 13.413924, "tags": {"amenity": "school", "name": "Yoga/Schiatsu-Zentrum", "wheelchair": "no"}}, {"type": "node", "id": 876244328, "lat": 52.501677, "lon": 13.4213836, "tags": {"amenity": "school", "name": "Atelier für physisches Theater – Internationale Schule für Bewegungsschauspiel", "website": "https://www.apt-absurdacomica.de/"}}, {"type": "node", "id": 985919722, "lat": 52.6256033, "lon": 13.4929984, "tags": {"amenity": "school", "name": "Jugendwerkstatt Buch Aktivierungshilfe", "operator": "WERKSCHULEBERILIN e.V."}}, {"type": "node", "id": 996413480, "lat": 52.5620245, "lon": 13.4135424, "tags": {"amenity": "school", "email": "ting@ting-schule.de", "fax": "+49 30 470045 29", "name": "TING-Schule", "phone": "+49 30 470045 06", "website": "https://www.ting-schule.de/"}}, {"type": "node", "id": 1015728668, "lat": 52.4545683, "lon": 13.2706708, "tags": {"addr:city": "Berlin", "addr:country": "DE", "addr:housenumber": "40", "addr:postcode": "14195", "addr:street": "Hüttenweg", "addr:suburb": "Dahlem", "amenity": "school", "contact:email": "Biesalski-Schule@t-online.de", "contact:phone": "+49 30 902996474", "contact:website": "http://www.biesalski-schule.cidsnet.de", "name": "Biesalski-Schule", "school": "Sonderschule", "source": "Geoportal Berlin / k5_2012_sw_sued.zip", "toilets:wheelchair": "yes", "wheelchair": "yes"}}, {"type": "node", "id": 1057857273, "lat": 52.4833728, "lon": 13.3327206, "tags": {"addr:city": "Berlin", "addr:country": "DE", "addr:housenumber": "33", "addr:postcode": "10715", "addr:street": "Prinzregentenstraße", "addr:suburb": "Wilmersdorf", "amenity": "school", "contact:website": "http://www.ernst-habermann.de/", "name": "Ernst-Habermann-Grundschule", "school": "Grundschule"}}, {"type": "node", "id": 1137671520, "lat": 52.5185412, "lon": 13.3007856, "tags": {"addr:city": "Berlin", "addr:country": "DE", "addr:housenumber": "26", "addr:postcode": "10587", "addr:street": "Lohmeyerstraße", "addr:suburb": "Charlottenburg", "amenity": "school", "contact:website": "https://www.kindermalschuleberlin.de/", "level": "1", "name": "Kindermalschule", "name:en": "Childrens painting school"}}, {"type": "node", "id": 1140710553, "lat": 52.5034349, "lon": 13.3716254, "tags": {"addr:city": "Berlin", "addr:country": "DE", "addr:housenumber": "16", "addr:postcode": "10785", "addr:street": "Am Karlsbad", "addr:suburb": "Tiergarten", "amenity": "school", "name": "CJD Berlin", "phone": "+49 30 7909010", "website": "https://www.cjd-berlin.de/", "wheelchair": "yes", "wheelchair:description": "Berufliches Bildungszentrum"}}, {"type": "node", "id": 1224801662, "lat": 52.4399472, "lon": 13.4359177, "tags": {"amenity": "school", "name": "Alno Küchenstudio", "wheelchair": "yes"}}, {"type": "node", "id": 1407207210, "lat": 52.552085, "lon": 13.4056269, "tags": {"addr:city": "Berlin", "addr:country": "DE", "addr:housenumber": "22", "addr:postcode": "10439", "addr:street": "Driesener Straße", "addr:suburb": "Prenzlauer Berg", "amenity": "school", "email": "abendgymnasium@gmx.de", "fax": "+49 30 4250121", "name": "Abendgymnasium Prenzlauer Berg", "phone": "+49 30 4254218", "website": "https://www.abendgymnasium-berlin.de/", "wheelchair": "no"}}, {"type": "node", "id": 1552045205, "lat": 52.5284845, "lon": 13.3884213, "tags": {"addr:city": "Berlin", "addr:country": "DE", "addr:housenumber": "12", "addr:postcode": "10115", "addr:street": "Novalisstraße", "addr:suburb": "Mitte", "amenity": "school", "name": "Deutsch-Institut Berlin", "short_name": "did"}}, {"type": "node", "id": 1597894107, "lat": 52.4908343, "lon": 13.4213252, "tags": {"amenity": "school", "name": "Islam Vakfi", "operator": "Islam Kolleg Berlin gGmbH", "wheelchair": "limited"}}, {"type": "node", "id": 1658284135, "lat": 52.5083269, "lon": 13.3036973, "tags": {"addr:city": "Berlin", "addr:country": "DE", "addr:housenumber": "40-41", "addr:postcode": "10627", "addr:street": "Pestalozzistraße", "addr:suburb": "Charlottenburg", "amenity": "school", "contact:email": "sekretariat@cwkberlin.de", "contact:fax": "+49 30 902928858", "contact:phone": "+49 30 902928825", "contact:website": "http://charlotte-wolff-kolleg.de/", "lastcheck": "2015-12-27", "name": "Charlotte-Wolff-Kolleg", "wheelchair": "yes", "wheelchair:description": "Aufzug links am Gebäude, WC im 2.Stock; Cafeteria und Schliessfächer nicht rollstuhlgerecht"}}, {"type": "node", "id": 1825200731, "lat": 52.4965481, "lon": 13.3402818, "tags": {"addr:housenumber": "6", "addr:postcode": "10777", "addr:street": "Viktoria-Luise-Platz", "addr:suburb": "Schöneberg", "amenity": "school", "name": "Lette-Akademie", "website": "https://www.lette-akademie.de/"}}, {"type": "node", "id": 1825200732, "lat": 52.4967169, "lon": 13.3404458, "tags": {"addr:housenumber": "6", "addr:postcode": "10777", "addr:street": "Viktoria-Luise-Platz", "addr:suburb": "Schöneberg", "amenity": "school", "name": "Lette-Verein", "opening_hours": "Mo-Fr 08:00-20:00", "phone": "+49 30 21994111", "website": "http://www.letteverein.berlin/", "wikidata": "Q1821142"}}, {"type": "node", "id": 1827035552, "lat": 52.4992808, "lon": 13.41986, "tags": {"addr:city": "Berlin", "addr:country": "DE", "addr:postcode": "10999", "addr:street": "Skalitzer Straße", "addr:suburb": "Kreuzberg", "amenity": "school", "name": "SCHATZ Schulaufgabenzirkel", "operator": "Aktürk Celalettin", "phone": "+49 30 69531389", "toilets:wheelchair": "no", "wheelchair": "no"}}, {"type": "node", "id": 1833519549, "lat": 52.4822428, "lon": 13.3344676, "tags": {"addr:city": "Berlin", "addr:country": "DE", "addr:housenumber": "60", "addr:postcode": "10715", "addr:street": "Prinzregentenstraße", "addr:suburb": "Wilmersdorf", "amenity": "school", "contact:fax": "+49 30 85758923", "contact:phone": "+49 30 85758921", "contact:website": "http://www.oszinddv.de", "name": "OSZ Wirtschaft Leopold-Ullstein-Schule - Abteilung II", "school": "professional_education"}}, {"type": "node", "id": 1833591080, "lat": 52.4821179, "lon": 13.3344536, "tags": {"addr:city": "Berlin", "addr:country": "DE", "addr:housenumber": "60", "addr:postcode": "10715", "addr:street": "Prinzregentenstraße", "addr:suburb": "Wilmersdorf", "amenity": "school", "contact:fax": "+49 30 85758937", "contact:phone": "+49 30 85758939", "contact:website": "http://www.klaere-bloch-schule.de", "name": "Kläre-Bloch-Schule", "school": "professional_education"}}, {"type": "node", "id": 1855387994, "lat": 52.5357196, "lon": 13.6048951, "tags": {"amenity": "school", "name": "Das Lernzentum (Helliwood media & education)", "wheelchair": "yes"}}, {"type": "node", "id": 1867142844, "lat": 52.4967726, "lon": 13.4217523, "tags": {"addr:city": "Berlin", "addr:country": "DE", "addr:housenumber": "42-43", "addr:postcode": "10999", "addr:street": "Paul-Lincke-Ufer", "addr:suburb": "Kreuzberg", "alt_name": "IFP", "amenity": "school", "contact:website": "http://heilen-mit-pflanzen.de", "name": "Institut für Phytotherapie", "wheelchair": "yes"}}, {"type": "node", "id": 2133391708, "lat": 52.5309477, "lon": 13.3999915, "tags": {"addr:city": "Berlin", "addr:country": "DE", "addr:housenumber": "188-190", "addr:postcode": "10119", "addr:street": "Brunnenstraße", "addr:suburb": "Mitte", "amenity": "school", "name": "Neue Schule für Fotografie", "source": "http://www.neue-schule-berlin.com/neueschule/content/kontakt", "wheelchair": "limited"}}, {"type": "node", "id": 2134648578, "lat": 52.4940876, "lon": 13.4463857, "tags": {"amenity": "school", "description": "InBit Institut für Betriebsorganisation und Informationstechnik", "name": "InBit Institut", "phone": "+49 30 53338920"}}, {"type": "node", "id": 2136734352, "lat": 52.6108823, "lon": 13.2479778, "tags": {"addr:city": "Berlin", "addr:country": "DE", "addr:housenumber": "58", "addr:postcode": "13503", "addr:street": "Am Bärensprung", "addr:suburb": "Heiligensee", "amenity": "school", "contact:website": "https://www.ejf.de/arbeitsbereiche/aus-und-fortbildung/berlin/fachschule-fuer-sozialpaedagogik.html", "name": "Fachschule für Sozialpädagogik", "operator": "Evangelisches Jugend- und Fürsorgewerk gemeinnützige AG"}}, {"type": "node", "id": 2180504961, "lat": 52.4824554, "lon": 13.3350661, "tags": {"addr:city": "Berlin", "addr:country": "DE", "addr:housenumber": "24-25", "addr:postcode": "10715", "addr:street": "Babelsberger Straße", "amenity": "school", "contact:website": "https://wangari-maathai-schule.jimdofree.com/", "name": "Wangari Maathai International School", "name:de": "Wangari-Maathai-Internationale-Schule", "school": "Grundschule"}}, {"type": "node", "id": 2232813894, "lat": 52.4935666, "lon": 13.4201501, "tags": {"amenity": "school", "name": "Hermann-Hesse-Gymnasium (Haus 3)", "wheelchair": "no"}}, {"type": "node", "id": 2324229688, "lat": 52.3938808, "lon": 13.0934449, "tags": {"addr:city": "Potsdam", "addr:country": "DE", "addr:housenumber": "21-22", "addr:postcode": "14482", "addr:street": "Karl-Liebknecht-Straße", "amenity": "school", "contact:email": "info@ifm-business.de", "contact:website": "https://ifm-business.de/", "name": "IFM", "wheelchair": "yes"}}, {"type": "node", "id": 2379197943, "lat": 52.5237443, "lon": 13.3429326, "tags": {"addr:city": "Berlin", "addr:country": "DE", "addr:housenumber": "3b", "addr:postcode": "10555", "addr:street": "Stromstraße", "addr:suburb": "Moabit", "amenity": "school", "check_date:opening_hours": "2023-05-17", "description": "Beratung | Weiterbildung/Umschulung | Vermittlung", "level": "3", "name": "indisoft GmbH", "office": "educational_institution", "opening_hours": "Mo-Fr 07:30-17:00", "phone": "+49 30 3904910", "toilets:wheelchair": "yes", "website": "https://www.indisoft-weiterbildung.de/", "wheelchair": "yes"}}, {"type": "node", "id": 2431140182, "lat": 52.5533306, "lon": 13.3653305, "tags": {"addr:city": "Berlin", "addr:country": "DE", "addr:housenumber": "32", "addr:postcode": "13347", "addr:street": "Oudenarder Straße", "addr:suburb": "Wedding", "amenity": "school", "name": "das kleine atelier", "wheelchair": "no"}}, {"type": "node", "id": 2538629447, "lat": 52.5424451, "lon": 13.4414278, "tags": {"addr:city": "Berlin", "addr:country": "DE", "addr:housenumber": "88", "addr:postcode": "10409", "addr:street": "Greifswalder Straße", "addr:suburb": "Prenzlauer Berg", "amenity": "school", "name": "Pepper Mont"}}, {"type": "node", "id": 2538629492, "lat": 52.5425347, "lon": 13.4415246, "tags": {"addr:city": "Berlin", "addr:country": "DE", "addr:housenumber": "88", "addr:postcode": "10409", "addr:street": "Greifswalder Straße", "addr:suburb": "Prenzlauer Berg", "amenity": "school", "capacity": "80", "check_date": "2021-06-21", "contact:email": "peppermont@pfefferwerk.de", "contact:phone": "+49 30 44383962", "contact:website": "https://peppermont.de/", "fee": "yes", "isced:level": "2", "name": "Freie Sekundarschule Peppermont", "operator": "Pfefferwerk Stadtkultur gGmbH"}}, {"type": "node", "id": 2610154858, "lat": 52.557281, "lon": 13.4417282, "tags": {"addr:city": "Berlin", "addr:country": "DE", "addr:housenumber": "2", "addr:postcode": "13086", "addr:street": "Rudolf-Baschant-Straße", "addr:suburb": "Weißensee", "amenity": "school", "entrance": "yes", "name": "Berlin Bilingual School", "source": "Geoportal Berlin / Hauskoordinaten"}}, {"type": "node", "id": 2629122240, "lat": 52.4961309, "lon": 13.384161, "tags": {"amenity": "school", "name": "Taxischule Metropolis", "wheelchair": "yes"}}, {"type": "node", "id": 2665133376, "lat": 52.4972267, "lon": 13.4420839, "tags": {"addr:city": "Berlin", "addr:country": "DE", "addr:housenumber": "20", "addr:postcode": "10997", "addr:street": "Cuvrystraße", "addr:suburb": "Kreuzberg", "amenity": "school", "contact:website": "http://www.bildungsteam.de", "name": "Bildungsteam", "note": "Die Postadresse ist Cuvrystraße 20, das Büro befindet sich aber in der im Gebäude 23A direkt über Babylonia.", "operator": "Bildungsteam Berlin-Brandenburg e.V."}}, {"type": "node", "id": 2952353502, "lat": 52.566071, "lon": 13.3811302, "tags": {"addr:city": "Berlin", "addr:country": "DE", "addr:housenumber": "26", "addr:postcode": "13409", "addr:street": "Kühnemannstraße", "addr:suburb": "Gesundbrunnen", "amenity": "school", "name": "Quinoa Schule", "name:etymology:wikidata": "Q139925", "source": "Geoportal Berlin / Hauskoordinaten"}}, {"type": "node", "id": 3053179146, "lat": 52.4899704, "lon": 13.3795238, "tags": {"amenity": "school", "name": "TAXI Schule"}}, {"type": "node", "id": 3090369566, "lat": 52.5396656, "lon": 13.418127, "tags": {"addr:city": "Berlin", "addr:country": "DE", "addr:housenumber": "32", "addr:postcode": "10435", "addr:street": "Husemannstraße", "addr:suburb": "Prenzlauer Berg", "amenity": "school", "name": "iek", "wheelchair": "no"}}, {"type": "node", "id": 3093478831, "lat": 52.5155186, "lon": 13.3845541, "tags": {"addr:city": "Berlin", "addr:country": "DE", "addr:housenumber": "64-65", "addr:postcode": "10117", "addr:street": "Behrenstraße", "addr:suburb": "Mitte", "amenity": "school", "contact:phone": "+4930 229-94-42", "description": "Schule für Kinder der Botschaftsangestellten", "historic": "building", "image": "File:Berlin, Mitte, Behrenstraße 64-65, Schule der Russischen Botschaft.jpg", "name": "Schule bei der Botschaft der Russischen Föderation", "name:de": "Schule bei der Botschaft der Russischen Föderation", "name:ru": "Средняя общеобразовательная школа с углубленным изучением иностранного языка при Посольстве РФ в ФРГ (Берлин)", "old_name": "Hotel Windsor", "operator": "Botschaft der Russischen Förderation", "start_date": "1840", "surveillance": "outdoor", "website:ru": "http://berlinschool.edusite.ru", "wheelchair": "no", "wikidata": "Q836838", "wikipedia": "de:Russische Botschaft in Berlin"}}, {"type": "node", "id": 3347795761, "lat": 52.4546353, "lon": 13.2698957, "tags": {"addr:city": "Berlin", "addr:country": "DE", "addr:housenumber": "40", "addr:postcode": "14195", "addr:street": "Hüttenweg", "addr:suburb": "Dahlem", "amenity": "school", "name": "Quentin-Blake-Europa-Schule", "wheelchair": "no"}}, {"type": "node", "id": 3465132015, "lat": 52.4880673, "lon": 13.3294623, "tags": {"addr:city": "Berlin", "addr:country": "DE", "addr:housenumber": "26-28", "addr:postcode": "10717", "addr:street": "Landhausstraße", "amenity": "school", "contact:email": "info@svenskaskolan-berlin.de", "contact:facebook": "https://www.facebook.com/pages/Svenska-Skolan-i-Berlin/184314934951103", "contact:website": "http://www.svenskaskolan-berlin.de/", "name": "Svenska Skolan i Berlin", "name:de": "Schwedische Schule in Berlin", "name:sv": "Svenska Skolan i Berlin", "operator": "Svenska kyrkan"}}, {"type": "node", "id": 3644290194, "lat": 52.5122062, "lon": 13.4475016, "tags": {"addr:city": "Berlin", "addr:country": "DE", "addr:housenumber": "2", "addr:postcode": "10243", "addr:street": "Am Comeniusplatz", "addr:suburb": "Friedrichshain", "amenity": "school", "name": "Be The - Therapie bei Lernschwierigkeiten", "wheelchair": "no"}}, {"type": "node", "id": 3666540069, "lat": 52.4951245, "lon": 13.3394889, "tags": {"addr:city": "Berlin", "addr:country": "DE", "addr:housenumber": "62", "addr:postcode": "10777", "addr:street": "Motzstraße", "addr:suburb": "Schöneberg", "amenity": "school", "name": "Yogah Schule", "wheelchair": "no"}}, {"type": "node", "id": 3874377457, "lat": 52.4282154, "lon": 13.2236649, "tags": {"addr:city": "Berlin", "addr:housenumber": "6", "addr:postcode": "14129", "addr:street": "Lissabonallee", "addr:suburb": "Nikolassee", "amenity": "school", "name": "Jugendfreizeiteinrichtung Düppel", "phone": "+49 30 92358620", "toilets:wheelchair": "yes", "website": "http://www.tandembqg.de/index.php?cmssite=68", "wheelchair": "yes"}}, {"type": "node", "id": 4097819340, "lat": 52.5631129, "lon": 13.0924905, "tags": {"amenity": "school", "contact:phone": "+49 3322 3353", "contact:website": "http://www.europaschule-falkensee.de/", "name": "Europaschule am Gutspark"}}, {"type": "node", "id": 4149486091, "lat": 52.5019732, "lon": 13.3919599, "tags": {"addr:city": "Berlin", "addr:country": "DE", "addr:housenumber": "13", "addr:postcode": "10969", "addr:street": "Friedrichstraße", "addr:suburb": "Kreuzberg", "amenity": "school", "contact:email": "02S06@02S06.schule.berlin.de", "contact:phone": "+49 30 50585831", "contact:website": "https://www.liebmann-schule-berlin.de/", "name": "Liebmann-Schule", "toilets:wheelchair": "yes", "wheelchair": "yes"}}, {"type": "node", "id": 4194642895, "lat": 52.6062681, "lon": 13.3421366, "tags": {"addr:city": "Berlin", "addr:country": "DE", "addr:housenumber": "112", "addr:postcode": "13435", "addr:street": "Wittenauer Straße", "addr:suburb": "Wittenau", "amenity": "school", "email": "sekretariatgoetheschulenberlin@gmail.com", "name": "private Goethe Grundschule", "opening_hours": "Mo-Fr 08:00-18:00", "phone": "+4930403 99 849", "website": "http://goethe-grundschule.bifiz.de/"}}, {"type": "node", "id": 4298064770, "lat": 52.5730595, "lon": 13.1948238, "tags": {"addr:city": "Berlin", "addr:postcode": "13587", "addr:street": "Schönwalder Allee", "amenity": "school", "name": "Hort der ESS"}}, {"type": "node", "id": 4368419896, "lat": 52.5040253, "lon": 13.35938, "tags": {"addr:housenumber": "20", "addr:postcode": "10785", "addr:street": "Genthiner Straße", "amenity": "school", "name": "Internationale Lomonossow-Schule", "website": "http://lomonossow-schule.de/#tiergarten"}}, {"type": "node", "id": 4514468855, "lat": 52.6650157, "lon": 13.3773956, "tags": {"amenity": "school", "name": "Käthe-Kollwitz-Grundschule"}}, {"type": "node", "id": 4514472128, "lat": 52.6643683, "lon": 13.3779482, "tags": {"amenity": "school", "name": "Hort"}}, {"type": "node", "id": 4560824228, "lat": 52.5207044, "lon": 13.4329748, "tags": {"addr:city": "Berlin", "addr:country": "DE", "addr:housenumber": "38", "addr:postcode": "10243", "addr:street": "Strausberger Straße", "amenity": "school", "contact:website": "http://www.krea-schulzentrum.de/schulen/gymnasium-berlin/", "name": "KreativitätsGymnasium Berlin", "wheelchair": "no", "wheelchair:description": "keinerlei Barrierefreiheit. Die Kinderwagenrampe am Eingang wird einem Schüler im Rollstuhl nicht reichen, dann folgen gleich 4 Treppenstufen, kein Fahrstuhl, keine barrierefreie Tür, keine barrierfreien Bäder"}}, {"type": "node", "id": 4560824229, "lat": 52.5209736, "lon": 13.4322586, "tags": {"addr:city": "Berlin", "addr:country": "DE", "addr:housenumber": "38", "addr:postcode": "10243", "addr:street": "Strausberger Straße", "amenity": "school", "contact:website": "http://www.krea-schulzentrum.de/", "name": "KreativitätsGrundschule Friedrichshain", "operator": "KreativitätsSchulzentrum Berlin gGmbH", "wheelchair": "no", "wheelchair:description": "keinerlei Barrierefreiheit. Die Kinderwagenrampe am Eingang wird einem Schüler im Rollstuhl nicht reichen, dann folgen gleich 4 Treppenstufen, kein Fahrstuhl, keine barrierefreie Tür, keine barrierfreien Bäder"}}, {"type": "node", "id": 4612831609, "lat": 52.5001343, "lon": 13.3064187, "tags": {"amenity": "school", "name": "Wall Street English"}}, {"type": "node", "id": 4685088089, "lat": 52.5321282, "lon": 13.3802045, "tags": {"addr:postcode": "10115", "amenity": "school", "email": "post@noutangoberlin.de", "name": "Nou Tango Berlin", "opening_hours": "Mo-Fr 18:45-22:30; Sa 14:45-18:15", "website": "https://noutangoberlin.de/"}}, {"type": "node", "id": 4850314524, "lat": 52.4908034, "lon": 13.3774542, "tags": {"addr:housenumber": "68", "addr:postcode": "10965", "addr:street": "Möckernstraße", "amenity": "school", "name": "Cumbancha", "name:de": "Cumbancha", "name:en": "Cumbancha", "website": "https://www.cumbancha.de/"}}, {"type": "node", "id": 4864189821, "lat": 52.5328938, "lon": 13.2797555, "tags": {"addr:postcode": "13627", "amenity": "school", "email": "info@eurasia-institute.com", "name": "EIIE EURASIA Institute for International Education GmbH", "name:zh": "柏林歐亞學院", "opening_hours": "Mo-Fr 08:00-18:00", "phone": "+493043727210", "website": "https://eurasia-institute.com/"}}, {"type": "node", "id": 4932662327, "lat": 52.5279354, "lon": 13.4477802, "tags": {"addr:city": "Berlin", "addr:housenumber": "3", "addr:postcode": "10407", "addr:street": "Cotheniusstraße", "amenity": "school", "name": "Piano Cano", "toilets:wheelchair": "no", "website": "https://piano-cano.de/", "wheelchair": "yes", "wheelchair:description": "Rollstuhlrampe vorhanden"}}, {"type": "node", "id": 5477749794, "lat": 52.4544038, "lon": 13.394612, "tags": {"addr:city": "Berlin", "addr:housenumber": "34-36", "addr:postcode": "12099", "addr:street": "Colditzstraße", "addr:suburb": "Tempelhof", "amenity": "school", "name": "Samuel-Hahnemann-Schule", "operator": "Fachverband Deutscher Heilpraktiker - Landesverband Berlin-Brandenburg e.V."}}, {"type": "node", "id": 5661514223, "lat": 52.4227343, "lon": 13.4468273, "tags": {"addr:city": "Berlin", "addr:housenumber": "12", "addr:postcode": "12353", "addr:street": "Hasenhegerweg", "amenity": "school", "name": "Schule am Hasenhegerweg"}}, {"type": "node", "id": 5661514224, "lat": 52.4224497, "lon": 13.4468112, "tags": {"addr:city": "Berlin", "addr:housenumber": "12", "addr:postcode": "12353", "addr:street": "Hasenhegerweg", "amenity": "school", "name": "Lisa-Tetzner-Grundschule"}}, {"type": "node", "id": 5695079683, "lat": 52.5236819, "lon": 13.4885479, "tags": {"addr:city": "Berlin", "addr:country": "DE", "addr:housenumber": "45 - 49", "addr:postcode": "10365", "addr:street": "Josef-Orlopp-Straße", "addr:suburb": "Lichtenberg", "amenity": "school", "name": "OTA - Tanyildiz Schweißtechnik", "website": "http://www.ota-schweisstechnik.de/"}}, {"type": "node", "id": 5790175872, "lat": 52.5347819, "lon": 13.4273152, "tags": {"addr:city": "Berlin", "addr:housenumber": "14C", "addr:postcode": "10405", "addr:street": "Christburger Straße", "amenity": "school", "denomination": "protestant", "name": "Corrie-ten-Boom-Schule", "operator": "Christburg Campus gGmbH", "religion": "christian"}}, {"type": "node", "id": 5790175875, "lat": 52.5346465, "lon": 13.4278408, "tags": {"addr:city": "Berlin", "addr:housenumber": "14C", "addr:postcode": "10405", "addr:street": "Christburger Straße", "amenity": "school", "denomination": "protestant", "name": "Elisabeth-Abegg-Grundschule", "old_name": "18. POS \"Hans Janocha\"", "operator": "Christburg Campus gGmbH", "religion": "christian"}}, {"type": "node", "id": 5892790086, "lat": 52.3388315, "lon": 13.2738447, "tags": {"amenity": "school", "name": "Schule"}}, {"type": "node", "id": 5907019898, "lat": 52.4858093, "lon": 13.3541252, "tags": {"addr:city": "Berlin", "addr:housenumber": "27", "addr:postcode": "10827", "addr:street": "Hauptstraße", "addr:suburb": "Schöneberg", "amenity": "school", "contact:website": "http://www.europa-gymnasium.eu", "name": "Privates Europa-Gymnasium Berlin", "operator": "Privates Europa-Gymnasium Berlin GmbH", "operator:type": "private", "school": "secondary", "school:DE": "Gymnasium"}}, {"type": "node", "id": 5997094437, "lat": 52.5095435, "lon": 13.2634016, "tags": {"amenity": "school", "name": "Moser Schule Schweizer Gymnasium gGmbH"}}, {"type": "node", "id": 6058583254, "lat": 52.5273506, "lon": 13.4062656, "tags": {"addr:city": "Berlin", "addr:country": "DE", "addr:housenumber": "8", "addr:postcode": "10119", "addr:street": "Mulackstraße", "addr:suburb": "Mitte", "amenity": "school", "operator": "Berlin Cosmopolitan School", "wheelchair": "no"}}, {"type": "node", "id": 6153498939, "lat": 52.4811108, "lon": 13.2887102, "tags": {"addr:city": "Berlin", "addr:housenumber": "125;126", "addr:postcode": "14199", "addr:street": "Hohenzollerndamm", "amenity": "school", "contact:website": "https://www.ivb-berlin.de/", "description": "Psychotherapeutische Aus- und Weiterbildung + Ambulanz für Psychotherapie", "grades": "26", "healthcare": "psychotherapist", "level": "0;1;2", "name": "Institut für Verhaltenstherapie Berlin", "short_name": "IVB"}}, {"type": "node", "id": 6215800460, "lat": 52.5375362, "lon": 13.3976982, "tags": {"addr:city": "Berlin", "addr:housenumber": "45", "addr:postcode": "10115", "addr:street": "Brunnenstraße", "amenity": "school", "craft": "handicraft", "description": "Kunstschule", "name": "Mal- und Zeichenschule Prib", "school": "art", "website": "https://www.kunstschule-prib.de/"}}, {"type": "node", "id": 6251995791, "lat": 52.5505701, "lon": 13.3704694, "tags": {"amenity": "school", "name": "Produktionsschule Mitte", "operator": "Zukunftsbau GmbH", "website": "https://zukunftsbau.de/"}}, {"type": "node", "id": 6410792688, "lat": 52.6331664, "lon": 13.5072943, "tags": {"addr:housenumber": "4 E-H", "addr:postcode": "13125", "addr:street": "Schwanebecker Chaussee", "amenity": "school", "email": "berlin@gesundheit-akademie.de", "name": "Akademie der Gesundheit", "phone": "+49 30 9403060", "toilets:wheelchair": "no", "website": "https://www.gesundheit-akademie.de/", "wheelchair": "limited"}}, {"type": "node", "id": 6422859463, "lat": 52.5533032, "lon": 13.4097119, "tags": {"addr:city": "Berlin", "addr:country": "DE", "addr:housenumber": "7", "addr:postcode": "10439", "addr:street": "Schönfließer Straße", "amenity": "school", "contact:email": "mail@freie-grundschule.de", "contact:phone": "+49 30 44383285", "contact:website": "http://freie-grundschule.de", "name": "Freie Grundschule Pfefferwerk"}}, {"type": "node", "id": 6422859464, "lat": 52.552951, "lon": 13.4096543, "tags": {"amenity": "school", "name": "Freie Sekundarschule PepperMont"}}, {"type": "node", "id": 7014964448, "lat": 52.359424, "lon": 13.0939087, "tags": {"addr:city": "Potsdam", "addr:country": "DE", "addr:housenumber": "23-25", "addr:postcode": "14478", "addr:street": "Liefelds Grund", "amenity": "school", "contact:email": "info@rappelkiste-potsdam.de", "contact:fax": "+49 331 273 3039", "contact:phone": "+49 331 273 3034", "contact:website": "https://www.rappelkiste-potsdam.de/aktive-schule/", "family_centre": "yes", "institution:support": "movement", "isced:level": "1", "level": "1", "lunch": "yes", "max_age": "12", "min_age": "6", "name": "Aktive Schule Potsdam", "operator": "Rappelkiste Potsdam e. V.", "operator:type": "association", "start_date": "2004"}}, {"type": "node", "id": 7133350404, "lat": 52.5886224, "lon": 13.2824239, "tags": {"addr:city": "Berlin", "addr:country": "DE", "addr:housenumber": "26-31", "addr:postcode": "13507", "addr:street": "Treskowstraße", "addr:suburb": "Tegel", "amenity": "school", "contact:fax": "+49 30 43557099", "contact:phone": "+49 30 43557090", "name": "Julius-Leber-Oberschule", "wheelchair": "no"}}, {"type": "node", "id": 7133350405, "lat": 52.5881558, "lon": 13.2827444, "tags": {"addr:city": "Berlin", "addr:country": "DE", "addr:housenumber": "26-31", "addr:postcode": "13507", "addr:street": "Treskowstraße", "addr:suburb": "Tegel", "amenity": "school", "contact:fax": "+49 30 43774369", "contact:phone": "+49 30 4339792", "name": "Franz-Marc-Grundschule", "wheelchair": "no"}}, {"type": "node", "id": 7685796317, "lat": 52.4866263, "lon": 13.3164868, "tags": {"addr:city": "Berlin", "addr:country": "DE", "addr:housenumber": "53", "addr:postcode": "10713", "addr:street": "Berliner Straße", "amenity": "school", "description": "Kosmetikschule", "grades": "Erwachsene", "name": "Prestige Kosmetikakademie", "operator": "Lucyna Dzikowski", "operator:type": "private", "website": "https://www.prestige-akad.de/"}}, {"type": "node", "id": 7774237459, "lat": 52.481561, "lon": 13.3196702, "tags": {"addr:city": "Berlin", "addr:country": "DE", "addr:housenumber": "1", "addr:postcode": "10713", "addr:street": "Paretzer Straße", "addr:suburb": "Wilmersdorf", "amenity": "school", "name": "Grund-Bildungs-Zentrum Berlin", "website": "https://grundbildung-berlin.de"}}, {"type": "node", "id": 8050485559, "lat": 52.5014874, "lon": 13.3920468, "tags": {"addr:city": "Berlin", "addr:country": "DE", "addr:housenumber": "13", "addr:postcode": "10969", "addr:street": "Friedrichstraße", "addr:suburb": "Kreuzberg", "amenity": "school", "contact:email": "sekretariat@galilei.schule.berlin.de", "contact:phone": "+49 30 50585811", "contact:website": "http://www.galilei-grundschule.de/", "name": "Galilei Grundschule"}}, {"type": "node", "id": 8589000133, "lat": 52.5402175, "lon": 13.3589568, "tags": {"addr:city": "Berlin", "addr:housenumber": "13", "addr:postcode": "13353", "addr:street": "Tegeler Straße", "amenity": "school", "name": "Kristall Grundschule", "operator": "Technische Jugendfreizeit- und Bildungsgesellschaft", "website": "https://www.kristall-grundschule.de"}}, {"type": "node", "id": 8748235116, "lat": 52.4867036, "lon": 13.4257624, "tags": {"addr:city": "Berlin", "addr:country": "DE", "addr:housenumber": "76", "addr:postcode": "12043", "addr:street": "Hobrechtstraße", "amenity": "school", "contact:email": "sekretariat@theodor-storm.schule.berlin.de", "contact:phone": "+49 30 60690180", "isced:level": "1", "name": "Theodor-Storm-Grundschule"}}, {"type": "node", "id": 8907860456, "lat": 52.5846554, "lon": 13.4023268, "tags": {"amenity": "school", "name": "Naturschule am Brosepark"}}, {"type": "node", "id": 9215908289, "lat": 52.4186282, "lon": 13.5378599, "tags": {"amenity": "school", "name": "Grundschule am Berg"}}, {"type": "node", "id": 9502964060, "lat": 52.4953754, "lon": 13.3099724, "tags": {"amenity": "school", "name": "Berliner Schule für Zen Shiatsu", "website": "https://www.zen-shiatsu-schule.de/"}}, {"type": "node", "id": 9674270517, "lat": 52.5427625, "lon": 13.5365868, "tags": {"addr:housenumber": "4 / Haus 10", "addr:postcode": "12681", "addr:street": "Georg-Knorr-Straße", "amenity": "school", "name": "SENECA INTENSIV Studios", "website": "https://seneca-intensiv.de/"}}, {"type": "node", "id": 9737166477, "lat": 52.5143176, "lon": 13.3013341, "tags": {"amenity": "school", "name": "Backschule Charlotte"}}, {"type": "node", "id": 9777048055, "lat": 52.5262549, "lon": 13.3959795, "tags": {"amenity": "school", "grades": "1-6", "name": "Grundschule am Koppemplatz Standort Auguststr"}}, {"type": "node", "id": 9953624692, "lat": 52.6127734, "lon": 13.2474075, "tags": {"addr:city": "Berlin", "addr:housenumber": "211", "addr:postcode": "13503", "addr:street": "Ruppiner Chaussee", "amenity": "school", "description": "Gemeinschaftsschule in freier Trägerschaft", "grades": "1-10", "name": "Demokratische Schule X", "operator": "Demokratische Bildung Berlin e.V.", "operator:type": "private_non_profit", "website": "https://www.demokratische-schule-x.de/"}}, {"type": "node", "id": 10273324300, "lat": 52.546377, "lon": 13.5508288, "tags": {"amenity": "school", "name": "Peter-Pan-Grundschule"}}, {"type": "node", "id": 10671322645, "lat": 52.4593632, "lon": 13.323479, "tags": {"amenity": "school", "contact:email": "tutor@freiejs.de", "contact:phone": "+49 30 8459 1720", "contact:website": "www.freie-journalistenschule.de", "name": "fjs - freie journalisten schule", "wikidata": "Q1453968"}}, {"type": "node", "id": 10719032094, "lat": 52.5011469, "lon": 13.4293941, "tags": {"addr:city": "Berlin", "addr:housenumber": "26", "addr:postcode": "10997", "addr:street": "Pücklerstraße", "amenity": "school", "contact:phone": "+49 30 54482123‬", "contact:website": "https://wir-raum.net/", "name": "Wir-Raum GFK", "operator": "Filip Malinowski", "operator:type": "private"}}, {"type": "node", "id": 10788214205, "lat": 52.5329551, "lon": 13.453285, "tags": {"addr:postcode": "10407", "amenity": "school", "name": "Ironhack Berlin", "opening_hours": "Mo-Fr 09:00-18:00", "website": "https://www.ironhack.com/de/en"}}, {"type": "node", "id": 11060589005, "lat": 52.5220834, "lon": 13.5798614, "tags": {"amenity": "school", "name": "Grundschule an der Wuhle"}}, {"type": "node", "id": 11060597012, "lat": 52.5216824, "lon": 13.5805919, "tags": {"amenity": "school", "name": "Sporthalle - Grundschule an der Wuhle"}}, {"type": "node", "id": 11191369537, "lat": 52.5549661, "lon": 13.3893155, "tags": {"addr:housenumber": "30", "addr:postcode": "13357", "addr:street": "Stettiner Straße", "amenity": "school", "contact:instagram": "bsci_berlincomicschool", "name": "Berlin Comics Schule", "name:de": "Berlin School for Comics and Illustration", "name:en": "Berlin School for Comics and Illustration", "website": "https://comicschoolberlin.de/"}}, {"type": "node", "id": 11197523749, "lat": 52.5230665, "lon": 13.3439077, "tags": {"amenity": "school", "name": "Seminarschiff", "wheelchair": "no"}}, {"type": "node", "id": 11198242339, "lat": 52.4450342, "lon": 13.6308577, "tags": {"amenity": "school", "name": "Surfpaddelschule"}}, {"type": "node", "id": 11267498757, "lat": 52.4376391, "lon": 13.2631061, "tags": {"addr:country": "DE", "addr:postcode": "14169", "addr:street": "clayalle", "addr:suburb": "Zehlendorf", "amenity": "school", "name": "Freie Schule Anne Sophie", "website:menu": "https://www.freie-schule-anne-sophie.de/de/berlin/start_b/start_b.php"}}, {"type": "node", "id": 11287862770, "lat": 52.4685185, "lon": 13.4533132, "tags": {"addr:city": "Berlin", "addr:housenumber": "19", "addr:postcode": "12055", "addr:street": "Lahnstraße", "amenity": "school", "email": "info@b-trend-setting.de", "internet_access": "wlan", "internet_access:fee": "customers", "internet_access:ssid": "bts Gast", "level": "1", "name": "b-trend-setting", "operator": "b-trend-setting gGmbH", "operator:type": "private", "phone": "+49 (30) 9210 2898 0", "school:DE": "Berufsschule", "website": "https://www.b-trend-setting.de/"}}, {"type": "node", "id": 11357840631, "lat": 52.4988468, "lon": 13.4363004, "tags": {"addr:city": "Berlin", "addr:housenumber": "26", "addr:postcode": "10997", "addr:street": "Lübbener Straße", "amenity": "school", "email": "kontakt@shiatsu-schule.de", "image": "https://www.shiatsu-schule.de/wp-content/uploads/shiatsu_schule.jpg", "level": "0", "name": "Shiatsu Schule Kreuzberg", "operator": "Shiatsu Schule Kreuzberg", "operator:type": "private_non_profit", "website": "https://shiatsu-schule.de"}}, {"type": "node", "id": 11425591669, "lat": 52.5455422, "lon": 13.4174416, "tags": {"addr:housenumber": "30-31", "addr:postcode": "10437", "addr:street": "Pappelallee", "amenity": "school", "name": "Elinor-Ostrom-Schule (2. Schulstandort)", "phone": "03034339611", "website": "https://www.oszeos.de/"}}]}