{"version": 0.6, "generator": "Overpass API 0.7.61.5 4133829e", "osm3s": {"timestamp_osm_base": "2024-01-02T22:21:00Z", "copyright": "The data included in this document is from www.openstreetmap.org. The data is made available under ODbL."}, "elements": [{"type": "node", "id": 29040731, "lat": 52.5347753, "lon": 13.3587758, "tags": {"amenity": "place_of_worship", "name": "Sultan Ahmed Camii", "religion": "muslim", "wheelchair": "yes"}}, {"type": "node", "id": 29209127, "lat": 52.495182, "lon": 13.390379, "tags": {"amenity": "place_of_worship", "religion": "christian", "wheelchair": "limited"}}, {"type": "node", "id": 248702772, "lat": 52.6010205, "lon": 13.2966171, "tags": {"amenity": "place_of_worship", "denomination": "protestant", "name": "Martin-Luther-Kapelle", "religion": "christian"}}, {"type": "node", "id": 262876026, "lat": 52.3712135, "lon": 13.6128519, "tags": {"amenity": "place_of_worship", "name": "Evangelisch-methodistische Kirche", "religion": "christian"}}, {"type": "node", "id": 289795838, "lat": 52.5225069, "lon": 13.1954192, "tags": {"addr:city": "Berlin", "addr:country": "DE", "addr:housenumber": "9-11", "addr:postcode": "13595", "addr:street": "Weißenburger Straße", "addr:suburb": "Wilhelmstadt", "amenity": "place_of_worship", "contact:phone": "+49 30 3632055", "contact:website": "http://www.sankt-wilhelm-spandau.de", "denomination": "catholic", "name": "St. Wilhelm", "religion": "christian"}}, {"type": "node", "id": 292201931, "lat": 52.4475005, "lon": 13.623567, "tags": {"addr:city": "Berlin", "addr:country": "DE", "addr:housenumber": "135", "addr:postcode": "12587", "addr:street": "Bölschestraße", "addr:suburb": "Friedrichshagen", "amenity": "place_of_worship", "denomination": "protestant", "name": "Stadtmission Gemeinde Friedrichshagen", "operator": "Berliner Stadtmission", "religion": "christian", "website": "https://www.berliner-stadtmission.de/gem-frhagen"}}, {"type": "node", "id": 332997622, "lat": 52.5471682, "lon": 13.2371169, "tags": {"addr:city": "Berlin", "addr:country": "DE", "addr:housename": "Evangelische Weihnachtskirche", "addr:housenumber": "54-58", "addr:postcode": "13599", "addr:street": "Haselhorster Damm", "addr:suburb": "Haselhorst", "amenity": "place_of_worship", "denomination": "protestant", "name": "Evangelische Weihnachtskirche", "religion": "christian", "service_times": "Su 10:00", "website": "https://www.ev-weihnachtskirche.de"}}, {"type": "node", "id": 333459517, "lat": 52.4889329, "lon": 13.3936149, "tags": {"addr:city": "Berlin", "addr:housenumber": "22", "addr:postcode": "10961", "addr:street": "Bergmannstraße", "amenity": "place_of_worship", "denomination": "baptist", "name": "Evangelisch Freikirchliche Gemeinde Kreuzberg", "religion": "christian", "service_times": "Su 11:00", "website": "https://www.efg-kreuzberg.de/", "wheelchair": "limited", "wheelchair:description": "Entrance:NO, within building:limited"}}, {"type": "node", "id": 336571772, "lat": 52.4441803, "lon": 13.2410362, "tags": {"addr:city": "Berlin", "addr:country": "DE", "addr:housenumber": "40", "addr:postcode": "14163", "addr:street": "Argentinische Allee", "addr:suburb": "Zehlendorf", "amenity": "place_of_worship", "denomination": "seventh_day_adventist", "name": "Adventgemeinde Waldfriede", "religion": "christian", "source": "Geoportal Berlin / k5_2012_sw_sued.zip", "website": "http://www.adventgemeinde-waldfriede.de/"}}, {"type": "node", "id": 355960992, "lat": 52.5165081, "lon": 13.3779152, "tags": {"addr:city": "Berlin", "addr:country": "DE", "addr:housenumber": "8", "addr:postcode": "10117", "addr:street": "Pariser Platz", "addr:suburb": "Mitte", "amenity": "place_of_worship", "contact:email": "raum-der-stille@berlin.de", "contact:website": "http://www.raum-der-stille-im-brandenburger-tor.de/", "description": "Meditationsraum", "name": "Raum der Stille", "name:ru": "Комната тишины", "opening_hours": "Jan Mo-Su,PH 11:00-16:00; Feb Mo-Su,PH 11:00-17:00; Mar-Oct Mo-Su,PH 11:00-18:00; Nov Mo-Su,PH 11:00-17:00; Dec Mo-Su,PH 11:00-16:00", "place_of_worship": "room", "religion": "multifaith", "start_date": "1994", "wheelchair": "no"}}, {"type": "node", "id": 395708753, "lat": 52.5645585, "lon": 13.3963359, "tags": {"addr:city": "Berlin", "addr:country": "DE", "addr:housename": "Lutherhaus", "addr:housenumber": "11", "addr:postcode": "13187", "addr:street": "Pradelstraße", "addr:suburb": "Pankow", "amenity": "place_of_worship", "check_date": "2023-08-12", "denomination": "lutheran", "name": "Evangelische Kirchengemeinde Martin Luther", "religion": "christian", "source": "local_knowledge", "website": "https://www.luther-nordend.de/", "wheelchair": "no"}}, {"type": "node", "id": 441734644, "lat": 52.4759311, "lon": 13.44285, "tags": {"addr:city": "Berlin", "addr:country": "DE", "addr:housenumber": "28", "addr:postcode": "12043", "addr:street": "Richardstraße", "addr:suburb": "Neukölln", "amenity": "place_of_worship", "contact:email": "kontakt@bibel-baptisten-berlin.de", "contact:website": "http://bibel-baptisten-berlin.de/", "denomination": "baptist", "name": "Freie evangelische Bibel-Baptisten-Gemeinde", "operator": "Freie evangelische Bibel-Baptisten-Gemeinde e.V.", "religion": "christian", "service_times": "Su 11:00 open \"Gottesdienst\"; We 19:00 open \"Gebetskreis\"; Fr 18:00 open \"Bibelkreis\"", "wheelchair": "limited"}}, {"type": "node", "id": 474359499, "lat": 52.4567902, "lon": 13.5821835, "tags": {"amenity": "place_of_worship", "check_date": "2023-07-29", "denomination": "seventh_day_adventist", "name": "Adventgemeinde Köpenick", "name:de": "Adventgemeinde Köpenick", "name:en": "Adventist Church", "religion": "christian"}}, {"type": "node", "id": 494093353, "lat": 52.5177789, "lon": 13.4563223, "tags": {"amenity": "place_of_worship", "check_date": "2023-10-31", "name": "Galiläa-Kirche", "note": "tag:denomination nicht benutzt, da hier keine Gottesdienste mehr stattfinden", "religion": "christian", "wheelchair": "limited"}}, {"type": "node", "id": 535628093, "lat": 52.4981271, "lon": 13.4012798, "tags": {"amenity": "place_of_worship", "check_date": "2022-11-16", "level": "0", "name": "Inssan-Moschee", "name:fa": "مسجد انسان", "religion": "muslim", "wheelchair": "limited"}}, {"type": "node", "id": 540969924, "lat": 52.520803, "lon": 13.3899554, "tags": {"addr:city": "Berlin", "addr:country": "DE", "addr:housenumber": "20", "addr:postcode": "10117", "addr:street": "Planckstraße", "addr:suburb": "Mitte", "amenity": "place_of_worship", "denomination": "quaker", "email": "info@quaeker-berlin.de", "name": "Quaker Meeting", "opening_hours": "Su 11:00-12:00", "phone": "+49 30 2082284", "religion": "christian", "website": "http://quaeker-berlin.de/"}}, {"type": "node", "id": 601062306, "lat": 52.6417777, "lon": 13.4965275, "tags": {"addr:city": "Berlin", "addr:country": "DE", "addr:housenumber": "61", "addr:postcode": "13125", "addr:street": "Röbellweg", "addr:suburb": "Buch", "amenity": "place_of_worship", "name": "Mater Dolorosa Kirche", "phone": "+49309409420", "religion": "christian", "website": "http://www.katholische-kirche-berlin-buch.de/", "wheelchair": "yes"}}, {"type": "node", "id": 676083788, "lat": 52.5397508, "lon": 13.3820567, "tags": {"addr:city": "Berlin", "addr:country": "DE", "addr:housenumber": "86", "addr:postcode": "13355", "addr:street": "Ackerstraße", "addr:suburb": "Gesundbrunnen", "amenity": "place_of_worship", "contact:phone": "+49 30 4137621", "email": "info@fgs-tempel.de", "fax": "+49 30 4138723", "name": "Foguang-Shan Tempel", "religion": "buddhist", "website": "http://fgs-tempel.de", "wheelchair": "no"}}, {"type": "node", "id": 701838306, "lat": 52.5751911, "lon": 13.3499542, "tags": {"addr:city": "Berlin", "addr:country": "DE", "addr:housenumber": "32", "addr:postcode": "13407", "addr:street": "Alt-Reinickendorf", "addr:suburb": "Reinickendorf", "amenity": "place_of_worship", "denomination": "baptist", "name": "Evangelisch-Freikirchliche Gemeinde K.d.ö.R.", "phone": "+4930498733 89", "religion": "christian", "service_times": "Su 10:00", "website": "https://www.efg-reinickendorf.de/", "wheelchair": "yes"}}, {"type": "node", "id": 945925159, "lat": 52.4867779, "lon": 13.4207705, "tags": {"addr:city": "Berlin", "addr:country": "DE", "addr:housenumber": "106", "addr:postcode": "10967", "addr:street": "Hasenheide", "addr:suburb": "Neukölln", "amenity": "place_of_worship", "check_date": "2023-11-18", "construction": "yes", "contact:email": "info@hindutempelberlin.de", "contact:website": "https://www.hindutempleberlin.de/", "name": "Sri Ganesha Hindu Tempel", "opening_hours": "Mo-Su 16:00-18:00", "operator": "Sri Ganesha Hindu Tempel e. V.", "religion": "hindu", "wheelchair": "no", "wikidata": "Q2315172", "wikimedia_commons": "Category:Sri Ganesha Hindu Tempel in Berlin", "wikipedia": "de:Sri-Ganesha-Hindu-Tempel Berlin"}}, {"type": "node", "id": 948654862, "lat": 52.4085446, "lon": 13.4812755, "tags": {"addr:city": "Berlin", "addr:country": "DE", "addr:housenumber": "22-28", "addr:postcode": "12355", "addr:street": "Geflügelsteig", "addr:suburb": "Rudow", "amenity": "place_of_worship", "denomination": "lutheran", "name": "Gemeindezentrum ev. Kirchengemeinde Rudow", "religion": "christian", "wheelchair": "limited"}}, {"type": "node", "id": 977654857, "lat": 52.6185361, "lon": 13.48765, "tags": {"amenity": "place_of_worship", "religion": "christian", "wheelchair": "yes"}}, {"type": "node", "id": 1026420272, "lat": 52.5504382, "lon": 13.2696435, "tags": {"amenity": "place_of_worship", "denomination": "protestant"}}, {"type": "node", "id": 1135452610, "lat": 52.5618242, "lon": 13.1990851, "tags": {"addr:city": "Berlin", "addr:country": "DE", "addr:housenumber": "6", "addr:postcode": "13587", "addr:street": "Cautiusstraße", "addr:suburb": "Hakenfelde", "amenity": "place_of_worship", "denomination": "catholic", "name": "Katholische Gemeinde St. Lambertus", "phone": "+49303378509", "religion": "christian", "wheelchair": "yes"}}, {"type": "node", "id": 1232194996, "lat": 52.4585319, "lon": 13.3277379, "tags": {"addr:city": "Berlin", "addr:country": "DE", "addr:housenumber": "92", "addr:postcode": "12169", "addr:street": "Bergstraße", "addr:suburb": "Steglitz", "amenity": "place_of_worship", "contact:phone": "+49 30 804 09090", "denomination": "evangelical", "description": "Evangelische Freikirche", "name": "Thomas Gemeinde"}}, {"type": "node", "id": 1256840401, "lat": 52.5363614, "lon": 13.3995255, "tags": {"addr:city": "Berlin", "addr:country": "DE", "addr:housenumber": "31", "addr:postcode": "10115", "addr:street": "Anklamer Straße", "addr:suburb": "Mitte", "alt_name": "BfP Christuskirche", "amenity": "place_of_worship", "contact:email": "buero@christuskirche-berlin.de", "contact:facebook": "http://www.facebook.com/christuskircheberlin.de", "contact:fax": "+49 30 47375949", "contact:phone": "+49 30 91206070", "contact:website": "http://www.christuskirche-berlin.de/", "denomination": "pentecostal", "name": "ChristusKirche Berlin-Mitte", "religion": "christian", "service_times": "Su 10:00+", "wikidata": "Q15108777", "wikimedia_commons": "Category:Christuskirche (Berlin-Mitte)", "wikipedia": "de:Christuskirche (Berlin-Mitte)"}}, {"type": "node", "id": 1274338417, "lat": 52.6175317, "lon": 13.3110728, "tags": {"addr:city": "Berlin", "addr:country": "DE", "addr:housenumber": "24", "addr:postcode": "13467", "addr:street": "Wachsmuthstraße", "addr:suburb": "Hermsdorf", "amenity": "place_of_worship", "name": "Ev. Kirchengem. Hermsdorf", "note": "Apostel-Paulus-Kirche", "phone": "+49304050866", "religion": "christian", "website": "https://www.ekibh.de/", "wheelchair": "yes"}}, {"type": "node", "id": 1309021897, "lat": 52.5122972, "lon": 13.4654696, "tags": {"addr:city": "Berlin", "addr:country": "DE", "addr:housenumber": "25", "addr:postcode": "10247", "addr:street": "Kinzigstraße", "addr:suburb": "Friedrichshain", "amenity": "place_of_worship", "name": "Buddhistisches Zentrum Bodhicharya Deutschland e.V.", "religion": "buddhist", "source": "http://bodhicharya.de/"}}, {"type": "node", "id": 1313117575, "lat": 52.5263666, "lon": 13.3634646, "tags": {"addr:city": "Berlin", "addr:country": "DE", "addr:housenumber": "68", "addr:postcode": "10557", "addr:street": "Lehrter Straße", "addr:suburb": "Moabit", "amenity": "place_of_worship", "contact:phone": "+4930690333", "denomination": "protestant", "description": "Andachtsraum der Gemeinde im Zentrum", "name": "Stadtmission Gemeinde im Zentrum am Hauptbahnhof", "operator": "Berliner Stadtmission", "religion": "christian", "toilets:wheelchair": "yes", "website": "https://www.berliner-stadtmission.de/gem-zah", "wheelchair": "yes"}}, {"type": "node", "id": 1370499165, "lat": 52.4552861, "lon": 13.3160909, "tags": {"amenity": "place_of_worship", "denomination": "methodist", "name": "Kirche des Nazareners", "religion": "christian", "wikidata": "Q1189165", "wikipedia": "de:Kirche des Nazareners"}}, {"type": "node", "id": 1392943281, "lat": 52.4716845, "lon": 13.3275731, "tags": {"addr:city": "Berlin", "addr:country": "DE", "addr:housenumber": "7", "addr:postcode": "12161", "addr:street": "Friedrich-Wilhelm-Platz", "addr:suburb": "Friedenau", "amenity": "place_of_worship", "check_date": "2023-09-29", "denomination": "protestant", "name": "Evangelische Gemeinschaft Friedenau", "religion": "christian", "website": "https://www.gemeinschaft-friedenau.de/wp/", "wheelchair": "no"}}, {"type": "node", "id": 1404465171, "lat": 52.5235611, "lon": 13.2012548, "tags": {"addr:city": "Berlin", "addr:housenumber": "35", "addr:postcode": "13595", "addr:street": "Weißenburger Straße", "amenity": "place_of_worship", "denomination": "jehovahs_witness", "name": "Königreichssaal Jehovas Zeugen", "religion": "christian", "service_times": "We, Th 19:00-20:45, Su 11:00-12:45, 14:30-16:15", "toilets:wheelchair": "no", "website": "https://www.jw.org/de/", "wheelchair": "yes"}}, {"type": "node", "id": 1404484782, "lat": 52.5276681, "lon": 13.1824095, "tags": {"addr:city": "Berlin", "addr:country": "DE", "addr:housenumber": "32E", "addr:postcode": "13581", "addr:street": "Seeburger Straße", "addr:suburb": "Wilhelmstadt", "amenity": "place_of_worship", "denomination": "jehovahs_witness", "name": "Königreichssaal Jehovas Zeugen", "religion": "christian", "service_times": "Tu-Th 19:00-20:45, Sa 10:00-11:45, Su 10:00-11:45", "service_times:pl": "We 19:00-20:5, Su 14:00-15:45", "service_times:ru": "Th 19:00-20:45, Su 14:00-15:45", "website": "https://www.jw.org/de/", "wheelchair": "yes"}}, {"type": "node", "id": 1505231652, "lat": 52.4436435, "lon": 13.5739658, "tags": {"amenity": "place_of_worship", "denomination": "protestant", "name": "Schloßkirche", "religion": "christian", "wheelchair": "limited", "wikidata": "Q2244593", "wikimedia_commons": "Category:Schlosskirche Köpenick (Berlin)"}}, {"type": "node", "id": 1556403863, "lat": 52.5527163, "lon": 13.4403343, "tags": {"amenity": "place_of_worship", "denomination": "baptist", "name": "Baptisten-Gemeinde", "religion": "christian", "service_times": "Su 10:00", "website": "http://www.efg-weissensee.org/", "wheelchair": "no"}}, {"type": "node", "id": 1602071051, "lat": 52.5659379, "lon": 13.3945595, "tags": {"addr:city": "Berlin", "addr:country": "DE", "addr:postcode": "13187", "addr:street": "Wollankstraße", "addr:suburb": "Pankow", "amenity": "place_of_worship", "check_date": "2023-07-16", "denomination": "roman_catholic", "name": "Franziskanerkloster", "religion": "christian", "wheelchair": "yes", "wheelchair:description": "Suppenküche", "wikidata": "Q73011704", "wikimedia_commons": "Category:Franziskanerkloster Berlin-Pankow"}}, {"type": "node", "id": 1813041607, "lat": 52.5059403, "lon": 13.3457893, "tags": {"amenity": "place_of_worship", "name": "St. Franziskus - Kapelle", "religion": "christian"}}, {"type": "node", "id": 1891429795, "lat": 52.5751024, "lon": 13.2752084, "tags": {"addr:city": "Berlin", "addr:housenumber": "112-114", "addr:postcode": "13507", "addr:street": "Billerbecker Weg", "amenity": "place_of_worship", "denomination": "protestant", "name": "Stadtmission Gemeinde Tegel", "operator": "Berliner Stadtmission", "religion": "christian", "website": "https://www.berliner-stadtmission.de/gem-tegel"}}, {"type": "node", "id": 1895341034, "lat": 52.5324743, "lon": 13.3515831, "tags": {"amenity": "place_of_worship", "denomination": "apostolic", "name": "Apostolische Gemeinde Berlin", "religion": "christian"}}, {"type": "node", "id": 1903040914, "lat": 52.5860016, "lon": 13.3990095, "tags": {"addr:city": "Berlin", "addr:country": "DE", "addr:housenumber": "61", "addr:postcode": "13156", "addr:street": "Eichenstraße", "addr:suburb": "Niederschönhausen", "amenity": "place_of_worship", "check_date": "2023-08-03", "denomination": "seventh_day_adventist", "name": "Adventgemeinde Pankow", "religion": "christian", "website": "http://www.sta-berlin-pankow.de/STA_Pankow/Startseite.html", "wheelchair": "yes"}}, {"type": "node", "id": 1976696605, "lat": 52.4718577, "lon": 13.445666, "tags": {"addr:city": "Berlin", "addr:country": "DE", "addr:housenumber": "11", "addr:postcode": "12055", "addr:street": "Schöneweider Straße", "addr:suburb": "Neukölln", "amenity": "place_of_worship", "name": "Gazi Osman Pasa Moschee eV", "religion": "muslim", "wheelchair": "limited"}}, {"type": "node", "id": 2145256562, "lat": 52.4925385, "lon": 13.4125654, "tags": {"addr:postcode": "10967", "amenity": "place_of_worship", "name": "Buddhistisches Tor Berlin", "religion": "buddhist", "toilets:wheelchair": "yes", "website": "https://buddhistisches-tor-berlin.de/", "wheelchair": "yes"}}, {"type": "node", "id": 2281044959, "lat": 52.4767583, "lon": 13.4419312, "tags": {"addr:city": "Berlin", "addr:country": "DE", "addr:housenumber": "97", "addr:postcode": "12043", "addr:street": "Richardstraße", "amenity": "place_of_worship", "check_date": "2023-11-23", "denomination": "reformed", "name": "Evangelische Reformierte Bethlehemsgemeinde", "religion": "christian", "wheelchair": "yes"}}, {"type": "node", "id": 2299953817, "lat": 52.551148, "lon": 13.3564321, "tags": {"addr:city": "Berlin", "addr:country": "DE", "addr:housenumber": "17A", "addr:postcode": "13347", "addr:street": "Amsterdamer Straße", "addr:suburb": "Wedding", "amenity": "place_of_worship", "name": "Sultan Abdulhamid Han Moschee", "religion": "muslim"}}, {"type": "node", "id": 2303055234, "lat": 52.548976, "lon": 13.3658262, "tags": {"amenity": "place_of_worship", "check_date": "2023-08-11", "name": "International Christian Revival Church", "religion": "christian"}}, {"type": "node", "id": 2412265590, "lat": 52.5008249, "lon": 13.4216124, "tags": {"amenity": "place_of_worship", "name": "International Zen Temple", "religion": "buddhist", "website": "https://www.international-zen-temple.de/"}}, {"type": "node", "id": 2439362666, "lat": 52.5134409, "lon": 13.4723349, "tags": {"addr:city": "Berlin", "addr:country": "DE", "addr:housenumber": "96", "addr:postcode": "10247", "addr:street": "Frankfurter Allee", "addr:suburb": "Friedrichshain", "amenity": "place_of_worship", "denomination": "protestant", "name": "Stadtmission Gemeinde Frankfurter Allee", "operator": "Berliner Stadtmission", "phone": "+49 30 2948292", "religion": "christian", "website": "https://www.berliner-stadtmission.de/gem-ffa"}}, {"type": "node", "id": 2478866162, "lat": 52.5265817, "lon": 13.1838279, "tags": {"addr:city": "Berlin", "addr:country": "DE", "addr:housenumber": "65", "addr:postcode": "13581", "addr:street": "Seeburger Straße", "addr:suburb": "Wilhelmstadt", "amenity": "place_of_worship", "denomination": "shia", "email": "jenali1@hotmail.de", "name": "Markaz Rasulallah e.V.", "name:ar": "مسجد مركز رسول الله", "operator": "Islamische Gemeinschaft der schiitischen Gemeinden Deutschlands e.V. (IGS)", "religion": "muslim", "source": "Geoportal Berlin / Hauskoordinaten;http://www.igs-deutschland.org/die-igs/moscheekarte"}}, {"type": "node", "id": 2501779747, "lat": 52.5539109, "lon": 13.386745, "tags": {"addr:city": "Berlin", "addr:country": "DE", "addr:housenumber": "45", "addr:postcode": "13357", "addr:street": "Stettiner Straße", "addr:suburb": "Gesundbrunnen", "alt_name": "Immanuel-Kapelle", "amenity": "place_of_worship", "denomination": "protestant", "name": "Stadtmission Gemeinde Wedding", "operator": "Berliner Stadtmission", "phone": "+49 30 43779173", "religion": "christian", "source": "Geoportal Berlin / Hausumringe", "website": "https://www.berliner-stadtmission.de/gem-wedding"}}, {"type": "node", "id": 2529484537, "lat": 52.5329001, "lon": 13.3519377, "tags": {"addr:city": "Berlin", "addr:country": "DE", "addr:housename": "IWKZ e.V.", "addr:housenumber": "1", "addr:postcode": "10557", "addr:street": "Feldzeugmeisterstraße", "addr:suburb": "Moabit", "alt_name": "Masjid Al-Falah", "amenity": "place_of_worship", "denomination": "sunni", "name": "Indonesisches Weisheits- & Kulturzentrum", "note": "Indonesian", "religion": "muslim", "website": "https://iwkz.de/"}}, {"type": "node", "id": 2625794374, "lat": 52.5653374, "lon": 13.4068043, "tags": {"addr:city": "Berlin", "addr:country": "DE", "addr:housenumber": "35", "addr:postcode": "13187", "addr:street": "Florastraße", "addr:suburb": "Pankow", "amenity": "place_of_worship", "check_date": "2023-10-29", "denomination": "protestant", "name": "Paulus-Gemeinde Berlin-Pankow e.V.", "religion": "christian", "website": "http://www.paulusgemeinde-pankow.de/", "wheelchair": "no"}}, {"type": "node", "id": 2699488273, "lat": 52.5958406, "lon": 13.3601004, "tags": {"amenity": "place_of_worship", "denomination": "protestant", "name": "Evangelisch Apostolische Johannes Gemeinde", "religion": "christian"}}, {"type": "node", "id": 2759261083, "lat": 52.4860503, "lon": 13.4273767, "tags": {"addr:city": "Berlin", "addr:country": "DE", "addr:housenumber": "18", "addr:postcode": "12047", "addr:street": "Sonnenallee", "amenity": "place_of_worship", "denomination": "sunni", "name": "Hamidiye Camii", "name:en": "Hamidiye Mosque", "name:ku": "Mizgefta Hemîdiye", "religion": "muslim", "wheelchair": "yes"}}, {"type": "node", "id": 2822957669, "lat": 52.4784894, "lon": 13.4388682, "tags": {"addr:city": "Berlin", "addr:country": "DE", "addr:housenumber": "110", "addr:postcode": "12043", "addr:street": "Richardstraße", "addr:suburb": "Neukölln", "amenity": "place_of_worship", "denomination": "shia", "email": "info@oniki-imam-yolu.com", "name": "Alevitischer Kulturverein Berlin e.V. Oniki Imam Yolu/Weg der Zwölf Imame", "name:ar": "مسجد طريقة الأئمة الاثني عشر (أليفيتشر كولترفيرين برلين أونيكي إمام يولو)", "operator": "Islamische Gemeinschaft der schiitischen Gemeinden Deutschlands e.V. (IGS)", "phone": "+49 30 36463881", "religion": "muslim", "source": "Geoportal Berlin / Hauskoordinaten;http://www.igs-deutschland.org/die-igs/moscheekarte", "website": "http://www.oniki-imam-yolu.com/"}}, {"type": "node", "id": 2848134843, "lat": 52.4247877, "lon": 13.4025532, "tags": {"addr:city": "Berlin", "addr:country": "DE", "addr:housenumber": "24", "addr:postcode": "12107", "addr:street": "Im Lesachtal", "addr:suburb": "Mariendorf", "amenity": "place_of_worship", "denomination": "shia", "name": "Islamisches Imam Hassan Werk e.V.", "name:ar": "مسجد عمل الإسلامي الإمام الحسن", "operator": "Islamische Gemeinschaft der schiitischen Gemeinden Deutschlands e.V. (IGS)", "religion": "muslim", "source": "Geoportal Berlin / Hauskoordinaten;http://www.igs-deutschland.org/die-igs/moscheekarte"}}, {"type": "node", "id": 2865873505, "lat": 52.4283802, "lon": 13.4554551, "tags": {"addr:city": "Berlin", "addr:country": "DE", "addr:housenumber": "8", "addr:postcode": "12351", "addr:street": "Martin-Luther-King-Weg", "addr:suburb": "Gropiusstadt", "amenity": "place_of_worship", "denomination": "protestant", "name": "Martin Luther King Kirche", "religion": "christian", "source": "Geoportal Berlin / Hauskoordinaten;survey", "website": "https://www.kirche-gropiusstadt.de"}}, {"type": "node", "id": 2867830690, "lat": 52.5604095, "lon": 13.2090936, "tags": {"addr:city": "Berlin", "addr:country": "DE", "addr:housenumber": "4", "addr:postcode": "13587", "addr:street": "Chamissostraße", "addr:suburb": "Hakenfelde", "amenity": "place_of_worship", "religion": "christian", "source": "Geoportal Berlin / Hauskoordinaten"}}, {"type": "node", "id": 2876493701, "lat": 52.395433, "lon": 13.159289, "tags": {"addr:city": "Berlin", "addr:housenumber": "9", "addr:postcode": "14109", "addr:street": "Kremnitzufer", "amenity": "place_of_worship", "denomination": "lutheran", "name": "Weidenkirche", "note": "Mit Blätterdach. Nicht regenfest.", "religion": "christian", "source": "Dakota 20", "website": "https://www.weidenkirche-berlin.de/standort.html"}}, {"type": "node", "id": 3039050111, "lat": 52.5568446, "lon": 13.4666789, "tags": {"addr:city": "Berlin", "addr:country": "DE", "addr:housenumber": "209", "addr:postcode": "13088", "addr:street": "Berliner Allee", "addr:suburb": "Weißensee", "amenity": "place_of_worship", "contact:facebook": "https://www.facebook.com/pages/Krishna-Tempel-Berlin-ISKCON-eV/136321179794326", "denomination": "hare_krishna", "name": "Jagannatha Tempel Berlin", "operator": "ISKCON Berlin", "religion": "hindu", "source": "Geoportal Berlin / Hauskoordinaten", "website": "http://www.tempelberlin.de/", "wheelchair": "limited"}}, {"type": "node", "id": 3039050989, "lat": 52.5486002, "lon": 13.4568597, "tags": {"addr:city": "Berlin", "addr:country": "DE", "addr:housenumber": "75", "addr:postcode": "13088", "addr:street": "Bizetstraße", "addr:suburb": "Weißensee", "amenity": "place_of_worship", "check_date": "2023-09-20", "denomination": "protestant", "name": "Stadtmission Gemeinde Bizetstraße", "operator": "Berliner Stadtmission", "religion": "christian", "source": "Geoportal Berlin / Hauskoordinaten", "website": "https://www.berliner-stadtmission.de/gem-bizetstrasse"}}, {"type": "node", "id": 3145126656, "lat": 52.4716001, "lon": 13.3368317, "tags": {"amenity": "place_of_worship", "check_date": "2023-09-17", "name": "Valide Sultan Camii", "operator": "Friedenauer Kulturverein zur Integration & Bildung e. V. in Berlin", "religion": "muslim", "source": "survey", "wheelchair": "no"}}, {"type": "node", "id": 3167606461, "lat": 52.4616075, "lon": 13.4177462, "tags": {"addr:housenumber": "11", "addr:street": "Schwanheimer Straße", "amenity": "place_of_worship", "denomination": "serbian_orthodox", "name": "Serbisch-orthodoxe Christi-Auferstehungs-Kirche", "religion": "christian"}}, {"type": "node", "id": 3332061408, "lat": 52.5587606, "lon": 13.3746465, "tags": {"addr:city": "Berlin", "addr:country": "DE", "addr:housenumber": "32A", "addr:postcode": "13359", "addr:street": "Drontheimer Straße", "addr:suburb": "Gesundbrunnen", "amenity": "place_of_worship", "contact:phone": "+49 30 49500803", "denomination": "sunni", "level": "4", "name": "Interkulturelles Zentrum für Dialog und Bildung e.V.", "name:ar": "المركز الثقافي للحوار والتاهيل", "opening_hours": "sunrise-sunset", "religion": "muslim", "service_times": "sunrise-sunset", "source": "Geoportal Berlin / Hauskoordinaten", "website": "https://izdb-berlin.de/"}}, {"type": "node", "id": 3401492942, "lat": 52.4829515, "lon": 13.3494207, "tags": {"addr:city": "Berlin", "addr:country": "DE", "addr:housenumber": "48", "addr:postcode": "10827", "addr:street": "Hauptstraße", "addr:suburb": "Wilmersdorf", "amenity": "place_of_worship", "denomination": "catholic", "name": "Alt-Katholische Gemeinde Berlin", "note": "Gemeindezentrum (parish hall)", "phone": "+49 (0) 30 85 40 94 35", "religion": "christian", "service_times": "Mittwoch \t      18:00–20:30  \t Donnerstag \t      Geschlossen  \t Freitag \t      Geschlossen  \t Samstag \t      Geschlossen  \t Sonntag \t      10:30–12:00  \t Montag \t      Geschlossen  \t Dienstag \t      Geschlossen", "website": "http://berlin.alt-katholisch.de/"}}, {"type": "node", "id": 3410334471, "lat": 52.5116982, "lon": 13.4110167, "tags": {"addr:city": "Berlin", "addr:housenumber": "32", "addr:postcode": "10179", "addr:street": "Wallstraße", "addr:suburb": "Mitte", "amenity": "place_of_worship", "denomination": "baptist", "email": "public.relations@gbiberlin.org", "name": "Gereja Bethel Indonesia Jemaat Bethany", "religion": "christian", "service_times": "Su 11:00", "website": "https://www.gbiberlin.org/", "wheelchair": "no"}}, {"type": "node", "id": 3411032742, "lat": 52.4095908, "lon": 13.405787, "tags": {"amenity": "place_of_worship", "denomination": "baptist", "name": "Evangelisch-Freikirchliche Gemeinde", "religion": "christian"}}, {"type": "node", "id": 3411055106, "lat": 52.4278755, "lon": 13.3211132, "tags": {"amenity": "place_of_worship", "check_date": "2023-08-17", "denomination": "baptist", "name": "Bethel-Gemeinde", "religion": "christian", "service_times": "Su 10:00", "website": "https://www.efg-bethel.de/"}}, {"type": "node", "id": 3411066489, "lat": 52.435351, "lon": 13.3850013, "tags": {"amenity": "place_of_worship", "denomination": "Brüder", "name": "Evangelisch-Freikirchliche Gemeinde", "religion": "christian", "service_times": "Su 10:00", "website": "https://www.efg-freibergstrasse.de/", "wheelchair": "yes"}}, {"type": "node", "id": 3411082818, "lat": 52.5455401, "lon": 13.5656101, "tags": {"amenity": "place_of_worship", "denomination": "baptist", "name": "Evangelisch-Freikirchliche Gemeinde", "religion": "christian", "service_times": "Su 10:00", "website": "http://www.efg-marzahn.de"}}, {"type": "node", "id": 3411168898, "lat": 52.4670315, "lon": 13.5105961, "tags": {"amenity": "place_of_worship", "denomination": "baptist", "name": "Evangelisch-Freikirchliche Gemeinde", "religion": "christian", "service_times": "Su 10:00", "website": "https://www.kirche-deulstrasse.de/"}}, {"type": "node", "id": 3411207173, "lat": 52.4667373, "lon": 13.5098933, "tags": {"amenity": "place_of_worship", "denomination": "methodist", "name": "Friedenskirche", "religion": "christian", "service_times": "Su 09:30", "website": "https://friedenskirche.net/", "wheelchair": "yes"}}, {"type": "node", "id": 3411265895, "lat": 52.4633355, "lon": 13.52337, "tags": {"amenity": "place_of_worship", "check_date": "2023-09-14", "denomination": "Brüder", "name": "Evangelisch-Freikirchliche Neues Leben Gemeinde", "religion": "christian", "service_times": "Su 10:30", "website": "https://efg-neues-leben.de/", "wheelchair": "no"}}, {"type": "node", "id": 3411369680, "lat": 52.5445845, "lon": 13.4114087, "tags": {"addr:city": "Berlin", "addr:country": "DE", "addr:housenumber": "9", "addr:postcode": "10437", "addr:street": "Cantianstraße", "addr:suburb": "Prenzlauer Berg", "amenity": "place_of_worship", "denomination": "baptist", "name": "Evangelisch-Freikirchliche Gemeinde \"Zoar\"", "religion": "christian", "service_times": "Su 10:00", "website": "http://www.efg-zoar.de/", "wheelchair": "yes"}}, {"type": "node", "id": 3411476712, "lat": 52.4941039, "lon": 13.3510938, "tags": {"amenity": "place_of_worship", "denomination": "Brüder", "name": "Evangelisch-Freikirchliche Gemeinde", "religion": "christian", "service_times": "Su 10:45", "website": "https://www.efg-hohenstaufenstr.de/"}}, {"type": "node", "id": 3411527446, "lat": 52.54734, "lon": 13.2053108, "tags": {"amenity": "place_of_worship", "contact:email": "j.brandes@baptisten-spandau.de", "contact:email_1": "d.luettgens@baptisten-spandau.de", "contact:website": "http://www.baptisten-spandau.de/", "denomination": "baptist", "name": "Evangelisch-Freikirchliche Gemeinde Berlin-Spandau", "religion": "christian", "service_times": "Su 10:00", "toilets:wheelchair": "yes", "website": "https://www.baptisten-spandau.de/", "wheelchair": "limited"}}, {"type": "node", "id": 3411616993, "lat": 52.5872326, "lon": 13.2874309, "tags": {"amenity": "place_of_worship", "denomination": "baptist", "name": "Evangelisch-Freikirchliche Bethel-Gemeinde", "religion": "christian", "service_times": "Su 10:00", "website": "http://www.kirche-im-haus.de", "wheelchair": "no"}}, {"type": "node", "id": 3411706623, "lat": 52.551225, "lon": 13.3773848, "tags": {"addr:city": "Berlin", "addr:housenumber": "10", "addr:postcode": "13357", "addr:street": "Buttmannstraße", "amenity": "place_of_worship", "denomination": "Brüder", "name": "Evangelisch-Freikirchliche Gemeinde", "religion": "christian", "service_times": "Su 10:30", "website": "https://www.bruedergemeinde-berlin.de/", "wheelchair": "no"}}, {"type": "node", "id": 3411726933, "lat": 52.4810184, "lon": 13.3225114, "tags": {"addr:city": "Berlin", "addr:country": "DE", "addr:housenumber": "20a", "addr:postcode": "10715", "addr:street": "Hildegardstraße", "addr:suburb": "Wilmersdorf", "amenity": "place_of_worship", "contact:website": "http://www.efg-wilmersdorf.de/", "denomination": "Brüder", "name": "Evangelisch-Freikirchliche Gemeinde", "religion": "christian", "service_times": "Su 10:30"}}, {"type": "node", "id": 3448408580, "lat": 52.4789102, "lon": 13.3471464, "tags": {"amenity": "place_of_worship", "contact:facebook": "https://www.facebook.com/ggberlin", "denomination": "protestant", "email": "greatergrace@freenet.de", "name": "Greater Grace Evangelische Freikirche", "operator": "Adrian Edler;Stephan Stein", "protestant": "frei-evangelisch", "religion": "christian", "website": "http://ggberlin.org"}}, {"type": "node", "id": 3564660911, "lat": 52.360322, "lon": 13.4254631, "tags": {"amenity": "place_of_worship", "denomination": "united_methodist", "name": "Paulus Gemeinde", "religion": "christian"}}, {"type": "node", "id": 3667655313, "lat": 52.5276476, "lon": 13.2071089, "tags": {"addr:city": "Berlin", "addr:housenumber": "5", "addr:postcode": "13597", "addr:street": "Tiefwerderweg", "addr:suburb": "Spandau", "amenity": "place_of_worship", "contact:website": "http://www.adventgemeinde-spandau.de/", "denomination": "adventist", "name": "Adventgemeinde Spandau", "religion": "christian"}}, {"type": "node", "id": 3737533306, "lat": 52.5594755, "lon": 13.3772248, "tags": {"addr:city": "Berlin", "addr:country": "DE", "addr:housenumber": "16", "addr:postcode": "13359", "addr:street": "Drontheimer Straße", "addr:suburb": "Gesundbrunnen", "amenity": "place_of_worship", "denomination": "sunni", "name": "Bilal Moschee", "operator": "Masjid-E-Bilal DMK e.V.", "religion": "muslim"}}, {"type": "node", "id": 3781899815, "lat": 52.3414101, "lon": 13.4055748, "tags": {"addr:city": "Blankenfelde-Mahlow", "addr:country": "DE", "addr:housenumber": "15", "addr:postcode": "15827", "addr:street": "Wilhelm-Raabe-Straße", "addr:suburb": "Blankenfelde", "amenity": "place_of_worship", "denomination": "protestant", "name": "Kirchsaal", "religion": "christian", "wheelchair": "limited"}}, {"type": "node", "id": 3786111363, "lat": 52.4974645, "lon": 13.3310637, "tags": {"amenity": "place_of_worship", "name": "Shaolin Tempel", "religion": "buddhist", "website": "http://www.shaolin-tempel.eu/shaolin/index.php/de/shaolin-tempel"}}, {"type": "node", "id": 3834064759, "lat": 52.5160494, "lon": 13.2942714, "tags": {"addr:city": "Berlin", "addr:country": "DE", "addr:housenumber": "27", "addr:postcode": "14059", "addr:street": "Nehringstraße", "addr:suburb": "Charlottenburg", "amenity": "place_of_worship", "denomination": "sunni", "name": "Osman Gazi Camii", "religion": "muslim", "source": "Geoportal Berlin / Hauskoordinaten"}}, {"type": "node", "id": 3838822221, "lat": 52.4899073, "lon": 13.4251285, "tags": {"addr:city": "Berlin", "addr:country": "DE", "addr:housenumber": "4", "addr:postcode": "12047", "addr:street": "Lenaustraße", "amenity": "place_of_worship", "check_date": "2023-10-10", "church": "Freie evangelische Gemeinde", "denomination": "evangelical", "name": "Kreuzbergprojekt", "religion": "christian"}}, {"type": "node", "id": 4009581509, "lat": 52.551925, "lon": 13.3828026, "tags": {"addr:city": "Berlin", "addr:country": "DE", "addr:housenumber": "21", "addr:postcode": "13357", "addr:street": "Badstraße", "addr:suburb": "Gesundbrunnen", "amenity": "place_of_worship", "name": "Al-Iman-Moschee", "religion": "muslim", "wheelchair": "yes"}}, {"type": "node", "id": 4033002786, "lat": 52.5129872, "lon": 13.5231746, "tags": {"addr:city": "Berlin", "addr:country": "DE", "addr:housenumber": "1", "addr:postcode": "10315", "addr:street": "Seddiner Straße", "addr:suburb": "Friedrichsfelde", "amenity": "place_of_worship", "denomination": "protestant", "name": "Stadtmission Gemeinde Friedrichsfelde Ost", "operator": "Berliner Stadtmission", "religion": "christian", "website": "https://www.berliner-stadtmission.de/gem-friedrich-ost"}}, {"type": "node", "id": 4033039485, "lat": 52.5606059, "lon": 13.4123837, "tags": {"addr:city": "Berlin", "addr:housenumber": "44", "addr:postcode": "13189", "addr:street": "Berliner Straße", "amenity": "place_of_worship", "denomination": "protestant", "name": "Stadtmission Gemeinde Pankow", "operator": "Berliner Stadtmission", "religion": "christian", "website": "https://www.berliner-stadtmission.de/gem-pankow", "wheelchair": "yes"}}, {"type": "node", "id": 4033046356, "lat": 52.4971471, "lon": 13.2957393, "tags": {"addr:city": "Berlin", "addr:country": "DE", "addr:housenumber": "46", "addr:postcode": "10711", "addr:street": "Joachim-Friedrich-Straße", "amenity": "place_of_worship", "denomination": "protestant", "email": "gemeinde-wilmersdorf@berliner-stadtmission.de", "name": "Stadtmission Gemeinde Wilmersdorf", "operator": "Berliner Stadtmission", "phone": "+49 30 30 34 54 50", "religion": "christian", "website": "https://www.berliner-stadtmission.de/gem-wilmersdorf"}}, {"type": "node", "id": 4033054438, "lat": 52.5265782, "lon": 13.5029394, "tags": {"addr:city": "Berlin", "addr:housenumber": "84", "addr:postcode": "10365", "addr:street": "Herzbergstraße", "amenity": "place_of_worship", "denomination": "protestant", "name": "Junge Kirche Berlin - Lichtenberg", "operator": "Berliner Stadtmission", "religion": "christian", "website": "https://www.junge-kirche-berlin.de/"}}, {"type": "node", "id": 4040784008, "lat": 52.5008178, "lon": 13.4183984, "tags": {"amenity": "place_of_worship", "contact:website": "http://www.ikc-berlin.de", "name": "Islamisches Kulturzentrum der Bosniaken in Berlin", "name:bs": "Islamski Kulturni Centar Bosnjaka u Berlinu", "religion": "muslim"}}, {"type": "node", "id": 4061948098, "lat": 52.5590748, "lon": 13.3786406, "tags": {"addr:city": "Berlin", "addr:country": "DE", "addr:housenumber": "129", "addr:postcode": "13359", "addr:street": "Koloniestraße", "addr:suburb": "Gesundbrunnen", "amenity": "place_of_worship", "name": "Haci Bayram Moschee e.V.", "religion": "muslim", "website": "http://haci-bayram-moschee.de"}}, {"type": "node", "id": 4134243271, "lat": 52.5255887, "lon": 13.3130524, "tags": {"addr:street": "Kaiserin-Augusta-Allee", "amenity": "place_of_worship", "denomination": "spiritist", "name": "Studien- und Arbeitsgruppe Joanna de Angelis", "name:pt": "Grupo de Estudos e Trabalho Joanna de Ângelis", "religion": "christian", "short_name": "SAJA e.V.", "website": "http://www.sajaberlin.de/"}}, {"type": "node", "id": 4134251486, "lat": 52.534466, "lon": 13.3985341, "tags": {"amenity": "place_of_worship", "denomination": "spiritist", "name": "Studienkreis Allan Kardec", "religion": "christian", "website": "http://www.allankardec-berlin.de/"}}, {"type": "node", "id": 4139472262, "lat": 52.554119, "lon": 13.3855593, "tags": {"addr:city": "Berlin", "addr:country": "DE", "addr:housenumber": "90", "addr:postcode": "13357", "addr:street": "Bellermannstraße", "addr:suburb": "Gesundbrunnen", "amenity": "place_of_worship", "check_date": "2023-07-16", "name": "Akşemseddin Camii", "religion": "muslim"}}, {"type": "node", "id": 4207499766, "lat": 52.5142393, "lon": 13.301847, "tags": {"addr:city": "Berlin", "addr:housenumber": "87", "addr:postcode": "10585", "addr:street": "Kaiser-Friedrich-Straße", "addr:suburb": "Charlottenburg", "alt_name": "Evangelisch-methodistische Kirche Englischsprachige Internationale Gemeinde Berlin", "amenity": "place_of_worship", "denomination": "united_methodist", "email": "united.methodists@googlemail.com", "name": "UMC English Language International Congregation Berlin", "religion": "christian", "service_times": "Su 17:15", "website": "http://www.methodist-berlin.de"}}, {"type": "node", "id": 4207985891, "lat": 52.5142654, "lon": 13.3018953, "tags": {"addr:city": "Berlin", "addr:housenumber": "87", "addr:postcode": "10585", "addr:street": "Kaiser-Friedrich-Straße", "addr:suburb": "Charlottenburg", "amenity": "place_of_worship", "denomination": "united_methodist", "email": "berlin-charlottenburg@emk.de", "name": "Evangelisch-methodistische Kirchengemeinde Berlin-Charlottenburg", "phone": "+49 33208 23425", "religion": "christian", "service_times": "Su 10:30", "short_name": "EmK Berlin-Charlottenburg", "website": "http://www.emk-berlin-charlottenburg.de"}}, {"type": "node", "id": 4252410793, "lat": 52.432953, "lon": 13.322537, "tags": {"addr:city": "Berlin", "addr:housenumber": "15b", "addr:postcode": "12207", "addr:street": "Promenadenstraße", "amenity": "place_of_worship", "denomination": "mennonite", "email": "berlin@mennoniten.de", "name": "Berliner Mennoniten-Gemeinde", "religion": "christian", "service_times": "Su 10:00", "website": "http://www.berliner-mennoniten-gemeinde.de"}}, {"type": "node", "id": 4278114891, "lat": 52.4310706, "lon": 13.3655904, "tags": {"amenity": "place_of_worship", "name": "Friedensheim"}}, {"type": "node", "id": 4317329215, "lat": 52.5424565, "lon": 13.2058287, "tags": {"amenity": "place_of_worship", "name": "Hoca Ahmet Yesevi Camii", "religion": "muslim"}}, {"type": "node", "id": 4331571609, "lat": 52.5020615, "lon": 13.4799712, "tags": {"addr:city": "Berlin", "addr:country": "DE", "addr:housenumber": "19", "addr:postcode": "10317", "addr:street": "Nöldnerstraße", "addr:suburb": "Rummelsburg", "amenity": "place_of_worship", "contact:email": "kalyanamitta@mailbox.org", "contact:mobile": "+49 176 31499142", "contact:website": "https://www.wat-sacca.de/", "name": "Wat Sacca", "opening_hours": "Sa 11:00-21:00; We 18:00-20:00", "religion": "buddhist"}}, {"type": "node", "id": 4362191535, "lat": 52.593826, "lon": 13.447549, "tags": {"addr:street": "Ilsenburgstraße", "amenity": "place_of_worship", "name": "Friedhof von ehem. Insassen des NS-Zwangsarbeiterlagers Blankenburg"}}, {"type": "node", "id": 4381394730, "lat": 52.5436199, "lon": 13.3663176, "tags": {"amenity": "place_of_worship", "name": "Eyüp Sultan Moschee", "religion": "muslim"}}, {"type": "node", "id": 4419026895, "lat": 52.4975351, "lon": 13.3665182, "tags": {"amenity": "place_of_worship", "check_date": "2023-09-26", "denomination": "protestant", "name": "Lutherkirchengemeinde", "name:de": "Lutherkirchengemeinde", "religion": "christian"}}, {"type": "node", "id": 4486714441, "lat": 52.4857586, "lon": 13.3544782, "tags": {"addr:city": "Berlin", "addr:country": "DE", "addr:housenumber": "27", "addr:postcode": "10827", "addr:street": "Hauptstraße", "addr:suburb": "Schöneberg", "addr:unit": "Aufgang E, 3. OG", "amenity": "place_of_worship", "books": "religion", "contact:email": "kcberlin@kabbalah.com", "contact:facebook": "www.facebook.com/Kabbala.Deutsch", "contact:phone": "+493078713580", "contact:website": "http://berlin.kabbalah.com/", "name": "Kabbalah Center Berlin", "opening_hours": "Mo-Th 12:00-16:00; Fr 12:00-14:00", "religion": "jewish", "shop": "books"}}, {"type": "node", "id": 4777467917, "lat": 52.5488708, "lon": 13.3693086, "tags": {"addr:city": "Berlin", "addr:country": "DE", "addr:housenumber": "38-39", "addr:postcode": "13347", "addr:street": "Reinickendorfer Straße", "addr:suburb": "Gesundbrunnen", "amenity": "place_of_worship", "name": "Yunus Emre Moschee", "operator": "DiTiB", "religion": "muslim", "source": "Geoportal Berlin / Hausumringe"}}, {"type": "node", "id": 4817551642, "lat": 52.5279959, "lon": 13.3415596, "tags": {"addr:city": "Berlin", "addr:housenumber": "4", "addr:postcode": "10551", "addr:street": "Wilhelmshavener Straße", "amenity": "place_of_worship", "denomination": "experimential", "email": "zuhause@lifeberlin.org", "name": "LIFE e.V.", "religion": "christian", "service_times": "Frühgebet Montag & Freitag um 7:45 Uhr, Lobpreis und Gebet Freitags um 19:30 - 21:00 Uhr", "website": "https://lifeberlin.org", "wheelchair": "limited"}}, {"type": "node", "id": 4879970440, "lat": 52.4983623, "lon": 13.4283306, "tags": {"amenity": "place_of_worship", "name": "Zentralmoschee", "name:tr": "Merkez Camii", "operator": "Türkisch-Islamische Union der Anstalt für Religion", "religion": "muslim"}}, {"type": "node", "id": 4899779632, "lat": 52.5534058, "lon": 13.3804495, "tags": {"amenity": "place_of_worship"}}, {"type": "node", "id": 4926337191, "lat": 52.4885844, "lon": 13.2775636, "tags": {"amenity": "place_of_worship", "name": "Johannische Kirche", "religion": "christian"}}, {"type": "node", "id": 4934501323, "lat": 52.6360786, "lon": 13.3773413, "tags": {"amenity": "place_of_worship", "denomination": "roman_catholic", "name": "Katholische Kirchengemeinde St. Franziskus, St. Kathainen", "phone": "+49 30 346550242", "religion": "christian", "website": "https://www.katharinenschildow.de/"}}, {"type": "node", "id": 5034289021, "lat": 52.5521145, "lon": 13.412401, "tags": {"addr:city": "Berlin", "addr:housenumber": "45", "addr:postcode": "10439", "addr:street": "Paul-Robeson-Straße", "amenity": "place_of_worship", "denomination": "christ_scientist", "name": "Christliche Wissenschaft", "phone": "+49 30 81016842", "religion": "christian", "website": "http://www.christian-science-berlin.de/gemeinden.html", "wheelchair": "limited"}}, {"type": "node", "id": 5057966521, "lat": 52.4940136, "lon": 13.3895642, "tags": {"addr:housenumber": "4", "addr:street": "Baruther Straße", "amenity": "place_of_worship", "denomination": "new_apostolic", "name": "Neuapostolische Kirche", "name:de": "Neuapostolische Kirche", "name:en": "Neuapostolische Kirche", "religion": "christian", "toilets:wheelchair": "no", "wheelchair": "no", "wikidata": "Q71317955", "wikimedia_commons": "Category:Neuapostolische Kirche (Berlin-Kreuzberg)", "wikipedia": "de:Neuapostolische Kirche (Berlin-Kreuzberg)"}}, {"type": "node", "id": 5102322080, "lat": 52.4829894, "lon": 13.452399, "tags": {"addr:city": "Berlin", "addr:country": "DE", "addr:housenumber": "51-52", "addr:postcode": "12059", "addr:street": "Harzer Straße", "addr:suburb": "Neukölln", "amenity": "place_of_worship", "denomination": "shia", "email": "m.amer@web.de", "name": "Al-Torath e.V.", "name:ar": "مسجد التوراث", "operator": "Islamische Gemeinschaft der schiitischen Gemeinden Deutschlands e.V. (IGS)", "religion": "muslim"}}, {"type": "node", "id": 5102337476, "lat": 52.5000169, "lon": 13.4434141, "tags": {"addr:city": "Berlin", "addr:housenumber": "4", "addr:postcode": "10997", "addr:street": "Falckensteinstraße", "amenity": "place_of_worship", "contact:email": "bajouk@t-online.de", "denomination": "shia", "name": "Deutsch-libanesische Al-Balagh e.V.", "name:ar": "مسجد البلاغ الألمانية لبناني", "name:de": "Deutsch-libanesische Al-Balagh e.V.", "operator": "Islamische Gemeinschaft der schiitischen Gemeinden Deutschlands e.V. (IGS)", "religion": "muslim", "source": "http://www.igs-deutschland.org/die-igs/moscheekarte"}}, {"type": "node", "id": 5354908060, "lat": 52.5499382, "lon": 13.4056115, "tags": {"amenity": "place_of_worship", "name": "Evangelische Gemeinschaft", "religion": "christian", "website": "https://www.gemeinschaft-prenzlauer-berg.de/", "wheelchair": "no"}}, {"type": "node", "id": 5355879057, "lat": 52.4562173, "lon": 13.3155658, "tags": {"addr:housenumber": "12a", "addr:street": "Rothenburgstraße", "amenity": "place_of_worship", "description": "English speaking & multi-cultural", "name": "International Baptist Church", "opening_hours": "Su 12:30-14:00", "religion": "christian"}}, {"type": "node", "id": 5359144778, "lat": 52.5036843, "lon": 13.2868454, "tags": {"addr:city": "Berlin", "addr:country": "DE", "addr:housenumber": "26", "addr:postcode": "14057", "addr:street": "Herbartstraße", "addr:suburb": "Charlottenburg", "amenity": "place_of_worship", "name": "Synagoge Herbartstraße", "operator": "Sukkat Schalom e.V.", "religion": "jewish", "website": "http://www.sukkat-schalom.de/synagoge.html"}}, {"type": "node", "id": 5749586419, "lat": 52.591834, "lon": 13.3020519, "tags": {"addr:city": "Berlin", "addr:country": "DE", "addr:housenumber": "127", "addr:postcode": "13509", "addr:street": "Gorkistraße", "addr:suburb": "Tegel", "amenity": "place_of_worship", "description": "Ev.-methodistischen Kirche", "name": "Erlöserkirche", "religion": "christian", "wikidata": "Q67434017", "wikimedia_commons": "Category:Erlöserkirche (Berlin-Tegel)"}}, {"type": "node", "id": 5760441944, "lat": 52.4879805, "lon": 13.3587829, "tags": {"amenity": "place_of_worship", "name": "Emir Sultan", "operator": "Emir Sultan Kulturhaus e.V", "religion": "muslim"}}, {"type": "node", "id": 5969944136, "lat": 52.4742836, "lon": 13.4405261, "tags": {"addr:housenumber": "179", "addr:street": "Karl-Marx-Straße", "amenity": "place_of_worship", "name": "Tekke-i Kadiriyye Mescidi", "religion": "muslim"}}, {"type": "node", "id": 5969958074, "lat": 52.5489283, "lon": 13.3601581, "tags": {"addr:housenumber": "6", "addr:street": "Turiner Straße", "amenity": "place_of_worship", "check_date": "2023-04-08", "name": "Mehmed Zahid Kotku Tekkesi", "religion": "muslim", "wheelchair": "no"}}, {"type": "node", "id": 5969997512, "lat": 52.5154304, "lon": 13.2873143, "tags": {"addr:housenumber": "31", "addr:street": "Sophie-Charlotten-Straße", "amenity": "place_of_worship", "name": "Seituna Moschee", "religion": "muslim", "website": "https://seituna-berlin.de/"}}, {"type": "node", "id": 5970017362, "lat": 52.4917345, "lon": 13.3691149, "tags": {"addr:housenumber": "15", "addr:street": "Katzlerstraße", "amenity": "place_of_worship", "name": "Ditib Anadolu Camii", "phone": "+49 30 21756157", "religion": "muslim"}}, {"type": "node", "id": 5970060886, "lat": 52.5391431, "lon": 13.3887078, "tags": {"addr:housenumber": "3", "addr:street": "Jasmunder Straße", "amenity": "place_of_worship", "name": "Ashab-i Kehf Camii", "religion": "muslim"}}, {"type": "node", "id": 5970082401, "lat": 52.4787946, "lon": 13.4211838, "tags": {"addr:city": "Berlin", "addr:housenumber": "12", "addr:postcode": "12049", "addr:street": "Selchower Straße", "amenity": "place_of_worship", "name": "Baitul Mukarram Masjid e.V.", "religion": "muslim", "wheelchair": "no"}}, {"type": "node", "id": 5976073569, "lat": 52.4827352, "lon": 13.4317356, "tags": {"addr:city": "Berlin", "addr:housenumber": "58", "addr:postcode": "12043", "addr:street": "Karl-Marx-Straße", "amenity": "place_of_worship", "name": "Xhamia Isa Beuy Moschee", "religion": "muslim"}}, {"type": "node", "id": 5976087510, "lat": 52.5487201, "lon": 13.2023837, "tags": {"addr:city": "Berlin", "addr:country": "DE", "addr:housenumber": "17", "addr:postcode": "13585", "addr:street": "Lynarstraße", "amenity": "place_of_worship", "name": "Spandau Yeni Camii", "religion": "muslim"}}, {"type": "node", "id": 5976092238, "lat": 52.5004818, "lon": 13.3608288, "tags": {"addr:housenumber": "37", "addr:street": "Kurfürstenstraße", "amenity": "place_of_worship", "name": "Semerkant Moschee", "religion": "muslim"}}, {"type": "node", "id": 5976101318, "lat": 52.4965099, "lon": 13.3850921, "tags": {"addr:city": "Berlin", "addr:housenumber": "35", "addr:postcode": "10963", "addr:street": "Obentrautstraße", "amenity": "place_of_worship", "name": "Orhan Gazi Camii", "religion": "muslim"}}, {"type": "node", "id": 5976130396, "lat": 52.4715918, "lon": 13.4293871, "tags": {"addr:city": "Berlin", "addr:housenumber": "177", "addr:postcode": "12051", "addr:street": "Hermannstraße", "amenity": "place_of_worship", "check_date": "2023-08-15", "name": "Neukölln Camii", "religion": "muslim", "wheelchair": "limited"}}, {"type": "node", "id": 5980150601, "lat": 52.4905131, "lon": 13.4240271, "tags": {"amenity": "place_of_worship", "name": "Muradiye Camii - Türkisch-Islamischer Kulturverein e.V.", "religion": "muslim"}}, {"type": "node", "id": 5980162241, "lat": 52.5247106, "lon": 13.3132266, "tags": {"addr:housenumber": "5", "addr:street": "Goslarer Platz", "amenity": "place_of_worship", "name": "Moschee Al-Salam", "religion": "muslim"}}, {"type": "node", "id": 5980184803, "lat": 52.4656222, "lon": 13.4321418, "tags": {"addr:housenumber": "120", "addr:street": "Hermannstraße", "amenity": "place_of_worship", "check_date": "2023-09-01", "name": "Mimar Sinan Camii", "religion": "muslim", "wheelchair": "limited"}}, {"type": "node", "id": 5988221849, "lat": 52.4575259, "lon": 13.3950503, "tags": {"amenity": "place_of_worship", "denomination": "sunni", "name": "Ibrahim-al-Khalil-Moschee", "religion": "muslim", "wheelchair": "no", "wikidata": "Q23785369", "wikipedia": "de:Ibrahim-al-Khalil-Moschee"}}, {"type": "node", "id": 6147582386, "lat": 52.5525475, "lon": 13.4452454, "tags": {"addr:city": "Berlin", "addr:country": "DE", "addr:housenumber": "28", "addr:postcode": "13086", "addr:street": "Charlottenburger Straße", "addr:suburb": "Weißensee", "amenity": "place_of_worship", "check_date": "2023-09-23", "contact:email": "berlin@diamondway-center.org", "contact:facebook": "https://www.facebook.com/BuddhistischesZentrumBerlin/", "contact:phone": "+49 30 92157680", "contact:website": "https://www.diamantweg-buddhismus.de/berlin", "denomination": "vajrayana", "name": "Buddhistisches Zentrum Berlin", "operator": "Buddhistische Zentren Ost der Karma Kagyü Linie e.V.", "religion": "buddhist"}}, {"type": "node", "id": 6168035493, "lat": 52.5623258, "lon": 13.3636495, "tags": {"addr:housenumber": "128", "addr:street": "Holländerstraße", "amenity": "place_of_worship", "name": "Ditib Koca Sinan Camii", "religion": "muslim"}}, {"type": "node", "id": 6181021263, "lat": 52.5286225, "lon": 13.3837938, "tags": {"amenity": "place_of_worship", "name": "Kapelle", "religion": "christian"}}, {"type": "node", "id": 6288821537, "lat": 52.546539, "lon": 13.3495215, "tags": {"addr:city": "Berlin", "addr:housenumber": "39", "addr:postcode": "13353", "addr:street": "Brüsseler Straße", "amenity": "place_of_worship", "name": "Al Firdaus Moschee", "religion": "muslim"}}, {"type": "node", "id": 6416786756, "lat": 52.6287111, "lon": 13.6730515, "tags": {"addr:city": "Werneuchen", "addr:housenumber": "40", "addr:street": "Löhmer Dorfstraße", "amenity": "place_of_worship", "denomination": "protestant", "name": "Dorfkirche Löhme", "religion": "christian", "website": "http://www.dorfkirche-loehme.de/", "wikidata": "Q101579106"}}, {"type": "node", "id": 6451805759, "lat": 52.5170517, "lon": 13.2791877, "tags": {"addr:city": "Berlin", "addr:country": "DE", "addr:housenumber": "85", "addr:postcode": "14050", "addr:street": "Soorstraße", "addr:suburb": "Westend", "amenity": "place_of_worship", "name": "Dharma Mati", "religion": "buddhist"}}, {"type": "node", "id": 6479789902, "lat": 52.4967907, "lon": 13.3664292, "tags": {"addr:city": "Berlin", "addr:country": "DE", "addr:housenumber": "71-72", "addr:postcode": "10783", "addr:street": "Bülowstraße", "addr:suburb": "Schöneberg", "amenity": "place_of_worship", "name": "American Church in Berlin", "religion": "christian", "short_name": "ACB", "website": "https://www.americanchurchberlin.de/"}}, {"type": "node", "id": 6501792288, "lat": 52.5675373, "lon": 13.3310917, "tags": {"amenity": "place_of_worship", "name": "Sikh tempel"}}, {"type": "node", "id": 6573713854, "lat": 52.5136549, "lon": 13.2589531, "tags": {"amenity": "place_of_worship", "denomination": "catholic", "name": "Kirche Mariae Verkündigung", "religion": "christian"}}, {"type": "node", "id": 6587735838, "lat": 52.5693535, "lon": 13.4460908, "tags": {"amenity": "place_of_worship", "check_date": "2023-08-13", "name": "Wat Buddhavihara Berlin", "religion": "buddhist", "wikidata": "Q47062582", "wikipedia": "de:Wat Buddhavihara"}}, {"type": "node", "id": 6609901764, "lat": 52.5498509, "lon": 13.3698805, "tags": {"addr:city": "Berlin", "addr:country": "DE", "addr:housenumber": "4", "addr:postcode": "13357", "addr:street": "Gottschedstraße", "addr:suburb": "Gesundbrunnen", "amenity": "place_of_worship", "contact:email": "berlin@kwanumzen.de", "contact:phone": "+49 30 46605090", "contact:website": "https://kwanumzen.de/berlin", "denomination": "zen", "level": "3", "name": "Zen Zentrum Berlin", "note": "Aufgang 5 (Hoftor rechts)", "operator": "Kwan Um Zen Schule Deutschland e.V.", "religion": "buddhist", "subject:wikidata": "Q1760423", "subject:wikipedia": "de:Kwan Um Zen Schule", "wheelchair": "no"}}, {"type": "node", "id": 6666493460, "lat": 52.4817242, "lon": 13.4290588, "tags": {"addr:city": "Berlin", "addr:country": "DE", "addr:housenumber": "93", "addr:postcode": "12053", "addr:street": "Reuterstraße", "addr:suburb": "Neukölln", "amenity": "place_of_worship", "name": "Imam Riza Moschee", "name:fa": "مسجد امام رضا", "religion": "muslim"}}, {"type": "node", "id": 6813621285, "lat": 52.4341427, "lon": 13.3623924, "tags": {"amenity": "place_of_worship", "name": "Äthiopisch-Orthodoxe Gemeinde Berlin", "religion": "christian"}}, {"type": "node", "id": 7105141868, "lat": 52.5351382, "lon": 13.4277849, "tags": {"addr:city": "Berlin", "addr:country": "DE", "addr:housenumber": "13", "addr:postcode": "10405", "addr:street": "Christburger Straße", "addr:suburb": "Prenzlauer Berg", "alt_name": "Philippus-Gemeinde e.V.", "amenity": "place_of_worship", "contact:email": "info@philippus-berlin.de", "contact:fax": "+49 30 49854754", "contact:phone": "+49 30 49854709", "contact:website": "https://www.philippus-berlin.de/", "denomination": "protestant", "name": "Philippus-Gemeinde", "network": "Mülheimer Verband FeG e.V.", "religion": "christian", "service_times": "Su 10:30+"}}, {"type": "node", "id": 7239671339, "lat": 52.4727133, "lon": 13.4413119, "tags": {"addr:housenumber": "197", "addr:street": "Karl-Marx-Straße", "amenity": "place_of_worship", "name": "Evangelische Kirchengemeinde Rixdorf", "religion": "christian", "wheelchair": "limited"}}, {"type": "node", "id": 7245424102, "lat": 52.4759459, "lon": 13.4427478, "tags": {"addr:city": "Berlin", "addr:country": "DE", "addr:housenumber": "28", "addr:postcode": "12043", "addr:street": "Richardstraße", "addr:suburb": "Neukölln", "amenity": "place_of_worship", "contact:email": "BerlinMesihinKilisesi@gmail.com", "contact:facebook": "https://www.facebook.com/BerlinMesihinKilisesi", "contact:website": "http://berlinmesihinkilisesi.weebly.com/", "denomination": "protestant", "description": "türkischsprachige Gottesdienste und Treffen in den Räumen der Freie evangelische Bibel-Baptisten-Gemeinde", "name": "Berlin Mesihin Kilisesi", "opening_hours": "Mo,Th 10:00-12:30; Su 15:00-17:30", "religion": "christian", "service_times": "Su 15:00", "start_date": "2019-12-01"}}, {"type": "node", "id": 7305754087, "lat": 52.5596656, "lon": 13.3821255, "tags": {"addr:city": "Berlin", "addr:housenumber": "72", "addr:postcode": "13359", "addr:street": "Soldiner Straße", "amenity": "place_of_worship", "name": "Mescidi Aksa Camii", "religion": "muslim", "wheelchair": "yes"}}, {"type": "node", "id": 7330188834, "lat": 52.4956849, "lon": 13.2978011, "tags": {"amenity": "place_of_worship", "denomination": "protestant", "name": "Reset Charlottenburg", "opening_hours": "Su 10:30+", "religion": "christian", "website": "https://www.reset-charlottenburg.com", "wheelchair": "limited"}}, {"type": "node", "id": 7548667986, "lat": 52.5620819, "lon": 13.3813897, "tags": {"addr:city": "Berlin", "addr:country": "DE", "addr:housenumber": "106", "addr:postcode": "13359", "addr:street": "Koloniestraße", "addr:suburb": "Gesundbrunnen", "amenity": "place_of_worship", "contact:website": "https://imamsadik.business.site/", "name": "İmam Cafer Sadık Camii", "name:ar": "مسجد امام جعفر صادق", "name:tr": "İmam Cafer Sadık Camii", "operator": "Imam Djafar Sadegh Moschee und Solidarität e.V.", "religion": "muslim", "wheelchair": "yes"}}, {"type": "node", "id": 7548668191, "lat": 52.5643593, "lon": 13.3702349, "tags": {"amenity": "place_of_worship", "name": "Turgut Alp Camii", "religion": "muslim", "wheelchair": "no"}}, {"type": "node", "id": 7554137778, "lat": 52.4706483, "lon": 13.3347061, "tags": {"addr:city": "Berlin", "addr:housenumber": "63", "addr:postcode": "12159", "addr:street": "Rheinstraße", "amenity": "place_of_worship", "name": "Happy Science", "opening_hours": "Tu-Su 11:00-20:00", "phone": "+49 30 78957477", "religion": "happy_science", "website": "https://www.happy-science.de/", "wheelchair": "no"}}, {"type": "node", "id": 7598149820, "lat": 52.4755949, "lon": 13.3288299, "tags": {"addr:city": "Berlin", "addr:country": "DE", "addr:housenumber": "137", "addr:postcode": "12161", "addr:street": "Bundesallee", "addr:suburb": "Friedenau", "amenity": "place_of_worship", "denomination": "pentecostal", "name": "Reset Berlin", "religion": "christian", "service_times": "Su 10:30", "wheelchair": "yes"}}, {"type": "node", "id": 7601365299, "lat": 52.554464, "lon": 13.3444459, "tags": {"addr:city": "Berlin", "addr:country": "DE", "addr:housenumber": "119", "addr:postcode": "13349", "addr:street": "Müllerstraße", "addr:suburb": "Wedding", "amenity": "place_of_worship", "name": "Sülemaniye Camii", "operator": "Kulturverein zur Integration und Bildung in Wedding e.V.", "religion": "muslim"}}, {"type": "node", "id": 7695790045, "lat": 52.4749464, "lon": 13.3204476, "tags": {"addr:city": "Berlin", "addr:country": "DE", "addr:housenumber": "21", "addr:postcode": "14197", "addr:street": "Laubacher Straße", "addr:suburb": "Friedenau", "amenity": "place_of_worship", "check_date": "2023-07-26", "name": "Zentrum für Meditation und tibetischen Yoga", "operator": "Ligmincha Deutschland e.V.", "religion": "buddhist", "website": "https://dev.ligmincha.de/de/berlin/"}}, {"type": "node", "id": 7747350429, "lat": 52.4714072, "lon": 13.344014, "tags": {"amenity": "place_of_worship", "check_date": "2023-07-31", "name": "The Chapel of Prayer Christian Ministry", "religion": "christian", "wheelchair": "yes"}}, {"type": "node", "id": 8042869045, "lat": 52.4621584, "lon": 13.3435488, "tags": {"amenity": "place_of_worship", "name": "Apostelamt Jesu Christi", "religion": "christian", "website": "https://kirche-ajc.de/kirchenaemter/berlin/kirchengemeinde-berlin-thorwaldsenstrasse/"}}, {"type": "node", "id": 8044529220, "lat": 52.5090458, "lon": 13.32215, "tags": {"amenity": "place_of_worship", "check_date": "2023-12-05", "name": "Shiva-Ganesha-Tempel", "religion": "hindu"}}, {"type": "node", "id": 8345888598, "lat": 52.4293515, "lon": 13.3362114, "tags": {"addr:city": "Berlin", "addr:housenumber": "11", "addr:postcode": "12249", "addr:street": "Zietenstraße", "amenity": "place_of_worship", "denomination": "united_methodist", "name": "Kreuzkirche Lankwitz", "religion": "christian", "website": "https://www.kreuzkirche-lankwitz.de/", "wikidata": "Q69090638"}}, {"type": "node", "id": 8384940144, "lat": 52.4680699, "lon": 13.3912348, "tags": {"addr:city": "Berlin", "addr:country": "DE", "addr:housenumber": "32-34", "addr:postcode": "12099", "addr:street": "Ringbahnstraße", "addr:suburb": "Tempelhof", "amenity": "place_of_worship", "denomination": "nondenominational", "internet_access": "yes", "level": "2", "name": "ICF Berlin Tempelhof", "opening_hours": "Su 09:30-20:00", "opening_hours:covid19": "closed", "religion": "christian", "service_times": "Su 10:00, 12:00, 18:00", "website": "https://www.icf-berlin.de/", "wheelchair": "yes"}}, {"type": "node", "id": 8435917976, "lat": 52.5223755, "lon": 13.1659198, "tags": {"addr:city": "Berlin", "addr:country": "DE", "addr:housenumber": "22E", "addr:postcode": "13593", "addr:street": "Obstallee", "addr:suburb": "Staaken", "amenity": "place_of_worship", "denomination": "protestant", "name": "Evangelische Kirchengemeinde Staaken", "religion": "christian", "toilets:wheelchair": "no", "wheelchair": "limited", "wikidata": "Q15116749", "wikimedia_commons": "Category:Gemeinwesenzentrum Berlin-Staaken", "wikipedia": "de:Kirche im Gemeinwesenzentrum Heerstraße Nord (Berlin-Staaken)"}}, {"type": "node", "id": 8458615128, "lat": 52.4789941, "lon": 13.439441, "tags": {"addr:city": "Berlin", "addr:country": "DE", "addr:housenumber": "112", "addr:postcode": "12043", "addr:street": "Richardstraße", "addr:suburb": "Neukölln", "amenity": "place_of_worship", "contact:facebook": "https://www.facebook.com/Ditib-Yeni-Camii-in-Berlin-736726623077778/", "name": "Ditib Berlin Yeni Cami", "religion": "muslim"}}, {"type": "node", "id": 8570055807, "lat": 52.5985999, "lon": 13.3433569, "tags": {"addr:city": "Berlin", "addr:housenumber": "25", "addr:postcode": "13435", "addr:street": "Eichhorster Weg", "addr:suburb": "Märkisches Viertel", "amenity": "place_of_worship", "level": "0", "name": "Al-Khayr Moschee", "operator": "Tschetschenisches Kulturzentrum e. V.", "religion": "muslim", "start_date": "2015", "website": "https://www.masjid-al-khayr.de/"}}, {"type": "node", "id": 8594871395, "lat": 52.5142334, "lon": 13.3023897, "tags": {"addr:city": "Berlin", "addr:country": "DE", "addr:housenumber": "13", "addr:postcode": "10585", "addr:street": "Gierkezeile", "amenity": "place_of_worship", "contact:email": "info@gierkezeile.de", "contact:website": "https://www.gierkezeile.de", "denomination": "protestant", "name": "Gemeinde Gierkezeile", "religion": "christian", "service_times": "Su 10:30"}}, {"type": "node", "id": 8739849517, "lat": 52.5869801, "lon": 13.2934894, "tags": {"addr:city": "Berlin", "addr:country": "DE", "addr:housenumber": "7", "addr:postcode": "13509", "addr:street": "Trettachzeile", "addr:suburb": "Borsigwalde", "amenity": "place_of_worship", "contact:website": "https://www.ditib-tegel-selimiye.de/", "name": "Tegel Selimiye Camii", "operator": "DİTİB - Tegel Selimiye Türkisch Islamische Gemeinde zu Tegel e.V.", "religion": "muslim"}}, {"type": "node", "id": 8786525286, "lat": 52.3894866, "lon": 13.3934854, "tags": {"addr:city": "Berlin", "addr:housenumber": "88", "addr:postcode": "12307", "addr:street": "Wünsdorfer Straße", "amenity": "place_of_worship", "denomination": "protestant", "name": "Evangelische Salem-Gemeinde", "religion": "christian", "website": "https://www.salem-gemeinde.de/"}}, {"type": "node", "id": 8976623075, "lat": 52.5091947, "lon": 13.4313468, "tags": {"amenity": "place_of_worship", "name": "Andreas-Kirchsaal", "operator": "Evangelische Kirchengemeinde St. Markus Friedrichshain", "website": "https://www.st-markus.berlin/newpagedafe8e15#AndreasKirchsaal"}}, {"type": "node", "id": 9354973732, "lat": 52.5047514, "lon": 13.5818309, "tags": {"addr:city": "Berlin", "addr:housenumber": "5", "addr:postcode": "12621", "amenity": "place_of_worship", "contact:deezer": "https://deezer.com/show/658662", "contact:facebook": "Leuchtturm.info", "contact:instagram": "leuchtturm.info", "contact:spotify": "https://open.spotify.com/show/2N9ve9RnxIjqPBAaJePeXv", "contact:youtube": "https://www.youtube.com/channel/UCoM2dIaOmABYFrlaqkHVdzg", "denomination": "evangelical", "email": "info@leuchtturm.info", "name": "Evangelische Freikirche Leuchtturm", "operator": "Evangelische Freikirche Leuchtturm e. V.", "phone": "+49 30 221843663", "religion": "christian", "service_times": "Su 10:30-12:00", "start_date": "2021-12", "website": "https://www.leuchtturm.info/"}}, {"type": "node", "id": 9592974541, "lat": 52.5394635, "lon": 13.5779309, "tags": {"amenity": "place_of_worship"}}, {"type": "node", "id": 9592974542, "lat": 52.5394723, "lon": 13.5777427, "tags": {"amenity": "place_of_worship"}}, {"type": "node", "id": 9610861154, "lat": 52.5680221, "lon": 13.3671997, "tags": {"amenity": "place_of_worship", "religion": "christian"}}, {"type": "node", "id": 9689643017, "lat": 52.4801734, "lon": 13.4324713, "tags": {"addr:housenumber": "12", "addr:postcode": "12053", "addr:street": "Neckarstraße", "amenity": "place_of_worship", "name": "Buddhismus in Berlin e.V.", "website": "http://www.berlin-buddhismus.de/"}}, {"type": "node", "id": 9794512245, "lat": 52.465579, "lon": 13.3107756, "tags": {"addr:city": "Berlin", "addr:country": "DE", "addr:housenumber": "24", "addr:postcode": "12163", "addr:street": "Forststraße", "addr:suburb": "Steglitz", "amenity": "place_of_worship", "name": "Gemeinde Christi Breitenbachplatz", "religion": "christian", "website": "http://www.gemeinde-christi-berlin.de/"}}, {"type": "node", "id": 10027402644, "lat": 52.56015, "lon": 13.2084891, "tags": {"addr:city": "Berlin", "addr:country": "DE", "addr:housenumber": "23", "addr:postcode": "13587", "addr:street": "Streitstraße", "addr:suburb": "Hakenfelde", "amenity": "place_of_worship", "contact:website": "https://miao-fa.de/", "name": "Miao Fa Zentrum", "religion": "buddhist", "source": "Geoportal Berlin / Hauskoordinaten", "wheelchair": "no"}}, {"type": "node", "id": 10599872965, "lat": 52.5192755, "lon": 13.2907681, "tags": {"amenity": "place_of_worship", "contact:facebook": "https://de-de.facebook.com/ensarcamiiberlin/", "name": "Ensar Camii", "operator": "Ensar Camii e.V.", "religion": "muslim"}}, {"type": "node", "id": 10863033622, "lat": 52.3776256, "lon": 13.0957145, "tags": {"addr:city": "Potsdam", "addr:housenumber": "24", "addr:postcode": "14478", "addr:street": "Schilfhof", "amenity": "place_of_worship", "denomination": "pentecostal", "name": "Victory Center Potsdam", "religion": "christian", "service_times": "Sonntags 10:30 Uhr"}}, {"type": "node", "id": 10863033623, "lat": 52.5809262, "lon": 13.3360945, "tags": {"addr:city": "Berlin", "addr:housenumber": "14", "addr:postcode": "13437", "addr:street": "Blunckstraße", "amenity": "place_of_worship", "denomination": "pentecostal", "name": "Berlin Full Gospel Church", "religion": "christian"}}, {"type": "node", "id": 10863195254, "lat": 52.5131113, "lon": 13.2847589, "tags": {"addr:city": "Berlin", "addr:housenumber": "72", "addr:postcode": "14059", "addr:street": "Knobelsdorffstraße", "amenity": "place_of_worship", "denomination": "pentecostal", "name": "Centre Chrétien Agape e.V.", "religion": "christian", "service_times": "Su 14:00"}}, {"type": "node", "id": 11072479451, "lat": 52.422699, "lon": 13.3968698, "tags": {"addr:city": "Berlin", "addr:housenumber": "347", "addr:postcode": "12107", "addr:street": "Mariendorfer Damm", "amenity": "place_of_worship", "denomination": "jehovahs_witness", "religion": "christian", "service_times": "Tu-Th 19:00-20:45, Su 10:00-11:45, 14.00-15:45", "website": "https://www.jw.org/de/"}}, {"type": "node", "id": 11078106301, "lat": 52.437351, "lon": 13.5714853, "tags": {"addr:city": "Berlin", "addr:housenumber": "104", "addr:postcode": "12557", "addr:street": "Grünauer Straße", "amenity": "place_of_worship", "denomination": "jehovahs_witness", "name": "Königreichssaal Jehovas Zeugen", "religion": "christian", "service_times": "We-Th 19:00-20:45, Su 10:00-11:45,17:00-18:45"}}, {"type": "node", "id": 11078119221, "lat": 52.5498591, "lon": 13.3839192, "tags": {"addr:city": "Berlin", "addr:housenumber": "3", "addr:postcode": "13357", "addr:street": "Hochstraße", "amenity": "place_of_worship", "building": "yes", "building:levels": "1", "denomination": "jehovahs_witness", "name": "Königreichsaal Jehovas Zeugen", "religion": "christian", "roof:colour": "grey", "roof:shape": "flat", "service_times": "Tu,Th, Fr 19:00-20:45, Sa 18:00-19:45,Su 13:00-14:45,", "service_times:ar": "We 19:00-20:45, Sa 18:00-19:45", "service_times:bg": "Th 19:00-20:45, Su 13:00-14:4", "service_times:en": "We 19:00-20:45,Su 10:00-11:45", "service_times:es": "Tu 19:00-20:45, Su 10:00-11:45", "service_times:fr": "Tu 19:00-20:45, Sa 18:00-19:45", "service_times:gsg": "Mo 19:00-20:45, Sa 10:00-11:45", "service_times:hy": "We 19:00-20:45, Sa 15:00-16:45", "service_times:pl": "Th 19:00-20:45, Sa 15:00-16:45", "service_times:pt": "Mo 19:00-20:45, Sa 15:00-16:45", "service_times:rsl": "Mo 19:00-20:45, Sa 10:00-11:45", "service_times:ru": "Mo 19:00-20:45, Sa 15:00-16.45", "service_times:tr": "Fr 19:00-20:45, Su 13:00-14:45", "service_times:vi": "Th 19:00-20:45, Sa 18:00-19:45", "service_times:zh": "Fr 19:00-20:45, Su 13:00-14:45", "source": "Geoportal Berlin / ALKIS", "website": "https://www.jw.org/de/"}}, {"type": "node", "id": 11078121906, "lat": 52.608821, "lon": 13.4746032, "tags": {"addr:city": "Berlin", "addr:housenumber": "3", "addr:postcode": "13125", "addr:street": "Straße 34", "amenity": "place_of_worship", "denomination": "jehovahs_witness", "name": "Königreichssaal Jehovas Zeugen", "religion": "christian", "service_times": "Th 19:00-20:45, Su 10:00-11:45", "website": "https://www.jw.org/de/"}}, {"type": "node", "id": 11214170388, "lat": 52.5640554, "lon": 13.4612618, "tags": {"addr:city": "Berlin", "addr:housenumber": "12", "addr:postcode": "13088", "addr:street": "An der Industriebahn", "amenity": "place_of_worship", "denomination": "pentecostal", "name": "diekreative", "religion": "christian", "service_times": "Su 10:30-13:00", "website": "https://diekreative.org"}}, {"type": "node", "id": 11258323951, "lat": 52.5260433, "lon": 13.3357611, "tags": {"amenity": "place_of_worship", "name": "Ibn Rushd-Goethe Moschee", "religion": "muslim", "website": "https://www.ibn-rushd-goethe-moschee.de"}}, {"type": "node", "id": 11379293585, "lat": 52.6012255, "lon": 13.3394516, "tags": {"addr:housenumber": "58", "addr:street": "Eichhorster Weg", "amenity": "place_of_worship", "building": "yes", "denomination": "protestant", "name": "Ev. Felsen-Kirchengemeinde", "religion": "christian", "source": "Geoportal Berlin / Hausumringe"}}, {"type": "node", "id": 11379989012, "lat": 52.4285195, "lon": 13.4557435, "tags": {"addr:city": "Berlin", "addr:housenumber": "6", "addr:postcode": "12351", "addr:street": "Martin-Luther-King-Weg", "amenity": "place_of_worship", "denomination": "protestant", "email": "buero@kirche-gropiusstadt.de", "name": "Ev.Kirchengemeinde in der Gropiusstadt Standort Martin Luther King", "phone": "+49306668 9221", "religion": "christian", "website": "https/kirche-gropiusstadt.de"}}]}