{"version": 0.6, "generator": "Overpass API 0.7.61.5 4133829e", "osm3s": {"timestamp_osm_base": "2024-01-02T13:45:02Z", "copyright": "The data included in this document is from www.openstreetmap.org. The data is made available under ODbL."}, "elements": [{"type": "node", "id": 268915249, "lat": 52.4958963, "lon": 13.3431711, "tags": {"addr:city": "Berlin", "addr:housenumber": "1", "addr:postcode": "10777", "addr:street": "Viktoria-Luise-Platz", "amenity": "childcare", "max_age": "6 yrs", "min_age": "5 month", "name": "ev. Kita Viktoria-Luise", "opening_hours": "Mo-Fr 07:00-17:00", "operator": "Evangelischer Kitaverband Mitte-West", "operator:type": "religious", "website": "https://www.kitaverband-mw.de/page/88/kita-viktoria-luise", "wheelchair": "yes"}}, {"type": "node", "id": 268915924, "lat": 52.4737847, "lon": 13.4471204, "tags": {"addr:city": "Berlin", "addr:country": "DE", "addr:housenumber": "2", "addr:postcode": "12055", "addr:street": "Zwiestädter Straße", "addr:suburb": "Neukölln", "amenity": "childcare", "name": "EKT - Puck e.V."}}, {"type": "node", "id": 268916030, "lat": 52.483402, "lon": 13.433799, "tags": {"addr:city": "Berlin", "addr:housenumber": "114", "addr:postcode": "12043", "addr:street": "Donaustraße", "amenity": "childcare", "name": "Kinderladen Yong (EKT)", "operator": "Kinderladen Yong e.V.", "website": "https://www.kila-yong.de/"}}, {"type": "node", "id": 268916196, "lat": 52.534826, "lon": 13.4264393, "tags": {"addr:city": "Berlin", "addr:housenumber": "24", "addr:postcode": "10405", "addr:street": "Winsstraße", "addr:suburb": "Prenzlauer Berg", "amenity": "childcare", "name": "Ev. Kita Winsstraße", "operator": "Stephanus gGmbH", "operator:type": "religious", "phone": "+49 30 4424804", "website": "https://www.stephanus.org/stiftung/tochtergesellschaften/stephanus-ggmbh/bildung/evangelische-kindertagesstaette-winsstrasse/startseite/", "wheelchair": "no"}}, {"type": "node", "id": 268917015, "lat": 52.475111, "lon": 13.4491094, "tags": {"addr:housenumber": "39", "addr:street": "Böhmische Straße", "amenity": "childcare", "name": "Kita Böhmische Straße", "operator": "Unionshilfswerk Sozialeinrichtungen gGmbH"}}, {"type": "node", "id": 475325547, "lat": 52.4608843, "lon": 13.4340584, "tags": {"addr:city": "Berlin", "addr:country": "DE", "addr:housenumber": "8", "addr:postcode": "12347", "addr:street": "Germaniapromenade", "addr:suburb": "Britz", "amenity": "childcare", "name": "Sprache verbindet e. V., Kita Kinderplaneten", "note": "Ehemalige Schleckerfiliale", "wheelchair": "yes"}}, {"type": "node", "id": 489927889, "lat": 52.5146307, "lon": 13.3252488, "tags": {"addr:city": "Berlin", "addr:country": "DE", "addr:housenumber": "8", "addr:postcode": "10587", "addr:street": "Marchstraße", "addr:suburb": "Charlottenburg", "amenity": "childcare", "email": "kitaTU@stw.berlin", "name": "Kita an der Technischen Universität Berlin", "opening_hours": "Mo-We, Fr 07:30-18:00; Th 07:30-16:00", "operator": "studierendenWERK BERLIN", "phone": "+49 30 93939 - 8450", "website": "https://www.stw.berlin/kitas/kita-an-der-technischen-universität-berlin.html"}}, {"type": "node", "id": 832835232, "lat": 52.553616, "lon": 13.3659264, "tags": {"addr:city": "Berlin", "addr:housenumber": "63", "addr:postcode": "13347", "addr:street": "Reinickendorfer Straße", "age_group": "1-6", "amenity": "childcare", "check_date:opening_hours": "2021-12-10", "childcare:capacity": "25", "kindergarten": "yes", "name": "Umpa Lumpa", "opening_hours": "Tu,Th 14:00-16:00", "operator:type": "private", "website": "https://umpa-lumpa.de", "wheelchair": "limited", "wheelchair:step_height": "15"}}, {"type": "node", "id": 1118738985, "lat": 52.5674245, "lon": 13.2054719, "tags": {"addr:city": "Berlin", "addr:country": "DE", "addr:housenumber": "12", "addr:postcode": "13587", "addr:street": "Helen-Keller-Weg", "addr:suburb": "Hakenfelde", "amenity": "childcare", "source": "Geoportal Berlin / Hauskoordinaten"}}, {"type": "node", "id": 2285961891, "lat": 52.4595639, "lon": 13.3791987, "tags": {"addr:city": "Berlin", "addr:country": "DE", "addr:housenumber": "39", "addr:postcode": "12103", "addr:street": "Friedrich-Franz-Straße", "addr:suburb": "Tempelhof", "amenity": "childcare", "email": "tiponi@stadtindianer.org", "name": "Kita Tiponi II", "opening_hours": "Mo-Fr 07:00-17:00", "operator": "IKT Stadtindianer e.V.", "operator:type": "private_non_profit"}}, {"type": "node", "id": 2303808176, "lat": 52.5500594, "lon": 13.3678814, "tags": {"addr:housenumber": "81", "addr:street": "Reinickendorfer Straße", "amenity": "childcare", "name": "Kita Bienchen", "phone": "+49 30 20144990", "website": "https://kita-kitabienchen.de", "wheelchair": "yes"}}, {"type": "node", "id": 2641528075, "lat": 52.5879864, "lon": 13.4116452, "tags": {"addr:city": "Berlin", "addr:country": "DE", "addr:housename": "Pankower Nest", "addr:housenumber": "27 B", "addr:postcode": "13156", "addr:street": "Beuthstraße", "addr:suburb": "Niederschönhausen", "amenity": "childcare", "name": "Pankower Nest"}}, {"type": "node", "id": 2692239894, "lat": 52.4507626, "lon": 13.7541016, "tags": {"addr:city": "Woltersdorf", "addr:country": "DE", "addr:housenumber": "11", "addr:postcode": "15569", "addr:street": "Seestraße", "amenity": "childcare", "name": "Kita Kinderparadies"}}, {"type": "node", "id": 2821286100, "lat": 52.4379625, "lon": 13.4476531, "tags": {"addr:city": "Berlin", "addr:country": "DE", "addr:housenumber": "173", "addr:postcode": "12359", "addr:street": "Fritz-Reuter-Allee", "addr:suburb": "Britz", "amenity": "childcare", "check_date": "2023-10-28", "name": "Kita Erdmännchen I", "phone": "+49 30 66528780"}}, {"type": "node", "id": 2867833113, "lat": 52.5612499, "lon": 13.2081129, "tags": {"addr:city": "Berlin", "addr:country": "DE", "addr:housenumber": "59", "addr:postcode": "13587", "addr:street": "Streitstraße", "addr:suburb": "Hakenfelde", "amenity": "childcare", "name": "Kita Elfenbein", "source": "Geoportal Berlin / Hauskoordinaten"}}, {"type": "node", "id": 2952352723, "lat": 52.5737444, "lon": 13.3583103, "tags": {"addr:city": "Berlin", "addr:country": "DE", "addr:housenumber": "4", "addr:postcode": "13407", "addr:street": "Lindauer Allee", "addr:suburb": "Reinickendorf", "amenity": "childcare", "check_date": "2023-07-17", "description": "35 Kinder im Alter von 0 bis 6 Jahren werden von 4 Erzieher/Innen betreut.", "email": "Luftballon2008@gmx.de", "name": "Kita Luftballon", "opening_hours": "Mo-Fr 07:00-17:00", "phone": "+49 177 6177072", "source": "Geoportal Berlin / Hauskoordinaten", "website": "https://www.kitaluftballon.de/"}}, {"type": "node", "id": 2952353394, "lat": 52.5680837, "lon": 13.3569877, "tags": {"addr:city": "Berlin", "addr:country": "DE", "addr:housenumber": "33", "addr:postcode": "13407", "addr:street": "Genfer Straße", "addr:suburb": "Reinickendorf", "amenity": "childcare", "email": "kita-fuechse@hotmail.de", "fax": "+49 30 66775255", "name": "Kita Die kleinen Füchse", "operator": "Nice Bildung e.V.", "phone": "+49 30 23912305", "source": "Geoportal Berlin / Hauskoordinaten", "website": "http://www.nice-bildung.de/"}}, {"type": "node", "id": 3213713658, "lat": 52.5175592, "lon": 13.4242216, "tags": {"addr:city": "Berlin", "addr:country": "DE", "addr:housenumber": "22", "addr:postcode": "10179", "addr:street": "Neue Blumenstraße", "addr:suburb": "Mitte", "amenity": "childcare", "name": "Kinderhaus Berlin-Mitte", "source": "http://www.kinderhaus-berlin.info/"}}, {"type": "node", "id": 3310059976, "lat": 52.5704222, "lon": 13.5175499, "tags": {"addr:city": "Berlin", "addr:housenumber": "43", "addr:postcode": "13059", "addr:street": "Grevesmühlener Straße", "addr:suburb": "Neu-Hohenschönhausen", "amenity": "childcare", "name": "Leos Hütte"}}, {"type": "node", "id": 3602681045, "lat": 52.5058318, "lon": 13.4801226, "tags": {"amenity": "childcare", "check_date": "2023-07-20", "name": "Fine Turbine"}}, {"type": "node", "id": 3919485004, "lat": 52.4409953, "lon": 13.3145519, "tags": {"amenity": "childcare"}}, {"type": "node", "id": 4095932189, "lat": 52.5524769, "lon": 13.3568407, "tags": {"addr:city": "Berlin", "addr:housenumber": "62", "addr:postcode": "13347", "addr:street": "Seestraße", "amenity": "childcare", "check_date": "2023-07-31", "name": "Kita Plapperfisch", "operator": "Yasemin Gürel-Dortay", "website": "http://kita-plapperfisch.de"}}, {"type": "node", "id": 4139409989, "lat": 52.5575415, "lon": 13.3779418, "tags": {"addr:city": "Berlin", "addr:country": "DE", "addr:housenumber": "139", "addr:postcode": "13359", "addr:street": "Koloniestraße", "addr:suburb": "Gesundbrunnen", "amenity": "childcare", "name": "Wir werden immer größer"}}, {"type": "node", "id": 4223494992, "lat": 52.5129132, "lon": 13.4479672, "tags": {"addr:housenumber": "51", "addr:postcode": "10243", "addr:street": "Gubener Straße", "amenity": "childcare", "check_date": "2023-11-14", "name": "Kita Playground"}}, {"type": "node", "id": 4223507993, "lat": 52.5125605, "lon": 13.451178, "tags": {"addr:housenumber": "26", "addr:postcode": "10245", "addr:street": "Grünberger Straße", "amenity": "childcare", "check_date": "2023-04-07", "name": "Kita Junior 1"}}, {"type": "node", "id": 4251827103, "lat": 52.517966, "lon": 13.4627077, "tags": {"amenity": "childcare", "check_date": "2023-09-24", "name": "Kita Rumpelbande"}}, {"type": "node", "id": 4341056691, "lat": 52.636253, "lon": 13.4912422, "tags": {"access": "yes", "amenity": "childcare", "leisure": "playground", "name": "Moorwiese", "opening_hours": "We-Sa 13:30-18:30", "wheelchair": "yes"}}, {"type": "node", "id": 4529086591, "lat": 52.3676095, "lon": 13.6022274, "tags": {"addr:housenumber": "39", "addr:postcode": "15732", "addr:street": "Rudolf-Breitscheid-Straße", "amenity": "childcare", "name": "Naturkita", "name:de": "Naturkita", "name:en": "Naturkita", "website": "https://www.naturkita.de/"}}, {"type": "node", "id": 4831523451, "lat": 52.5669682, "lon": 13.3968516, "tags": {"addr:city": "Berlin", "addr:housenumber": "11", "addr:postcode": "13187", "addr:street": "Wollankstraße", "amenity": "childcare", "name": "Kinderladen PiwiNest"}}, {"type": "node", "id": 4912977844, "lat": 52.5525925, "lon": 13.4196963, "tags": {"addr:city": "Berlin", "addr:housenumber": "33", "addr:postcode": "10437", "addr:street": "Greifenhagener Straße", "amenity": "childcare", "name": "Kita SEHsternTaler", "opening_hours": "Mo-Fr 07:00-17:00", "operator": "SEHstern e. V.", "website": "https://sehstern-ev.de/kitas/kita-sehsterntaler"}}, {"type": "node", "id": 4920611563, "lat": 52.5089424, "lon": 13.4967466, "tags": {"addr:city": "Berlin", "addr:housenumber": "85", "addr:postcode": "10317", "addr:street": "Eitelstraße", "amenity": "childcare", "check_date": "2023-05-18", "name": "Kita Vitale Großstadtmäuse III"}}, {"type": "node", "id": 5094128260, "lat": 52.3729317, "lon": 13.2598224, "tags": {"addr:city": "Teltow", "addr:country": "DE", "addr:housenumber": "35/36", "addr:postcode": "14513", "addr:street": "Güterfelderstraße", "addr:suburb": "Ruhlsdorf", "amenity": "childcare", "name": "Kita „Am Röthepfuhl“", "operator": "MenschensKinder Teltow", "operator:type": "public", "phone": "+49 3328 41651", "website": "https://www.mekiteltow.de/kita-am-roethepfuhl/"}}, {"type": "node", "id": 5233009250, "lat": 52.5744518, "lon": 13.3552293, "tags": {"amenity": "childcare", "check_date": "2023-07-10", "description": "Die Einrichtung verfügt über 50 Betreuungsplätze für Kinder ab dem 1. Lebenjahr bis zur Einschulung. Auch Kinder mit Integrations-Status können betreut werden.", "email": "info@kinderinsel-alt-reinickendorf.de", "fax": "+49 5221 17242640", "fixme": "Bitte das Geländer einzeichnen.", "name": "Kita Kinderinsel Alt-Reinickendorf", "opening_hours": "Mo-Fr 07:30-17:00", "operator": "Die Kinderinseln Berlin Nord gUG", "phone": "+49 30 80932767", "website": "https://www.kinderinsel-alt-reinickendorf.de/startseite.html"}}, {"type": "node", "id": 5239562224, "lat": 52.5187, "lon": 13.4615017, "tags": {"addr:city": "Berlin", "addr:housenumber": "24", "addr:postcode": "10247", "addr:street": "Bänschstraße", "amenity": "childcare", "check_date": "2023-05-24", "check_date:opening_hours": "2021-11-18", "description": "Integrationskita", "name": "Kita Salabanda 24", "opening_hours": "Mo-Fr 08:00-17:00", "operator": "Salabanda gGmbH"}}, {"type": "node", "id": 5289857023, "lat": 52.5200132, "lon": 13.1975091, "tags": {"addr:city": "Berlin", "addr:postcode": "13595", "addr:street": "Pichelsdorfer Straße", "amenity": "childcare", "name": "Silberflöte"}}, {"type": "node", "id": 5289857024, "lat": 52.5183142, "lon": 13.1973577, "tags": {"addr:city": "Berlin", "addr:housenumber": "53", "addr:postcode": "13595", "addr:street": "Pichelsdorfer Straße", "amenity": "childcare", "name": "Pichelsdorfer Zwerge"}}, {"type": "node", "id": 5407416269, "lat": 52.4857096, "lon": 13.3719986, "tags": {"amenity": "childcare", "name": "Lok18", "operator": "Täks"}}, {"type": "node", "id": 5983770228, "lat": 52.4782552, "lon": 13.4392656, "tags": {"amenity": "childcare", "check_date": "2023-05-24", "name": "Mosaikraupen", "operator": "Lebenswelt Kindertagesstätte Neukölln gGmbH"}}, {"type": "node", "id": 6111118987, "lat": 52.5718191, "lon": 13.4088191, "tags": {"addr:city": "Berlin", "addr:housenumber": "6-8", "addr:postcode": "13187", "addr:street": "Ossietzkystraße", "amenity": "childcare", "name": "Kita Pankepiraten", "opening_hours": "Mo-Fr 08:00-17:00", "operator": "SKiB gemeinnützige UG (haftungsbeschränkt)", "operator:type": "private", "website": "http://skib.berlin/pankepiraten/"}}, {"type": "node", "id": 6115240482, "lat": 52.4888335, "lon": 13.4137913, "tags": {"addr:city": "Berlin", "addr:housenumber": "19A", "addr:postcode": "10967", "addr:street": "Fichtestraße", "amenity": "childcare", "check_date": "2023-06-05", "name": "Kinder Werk Stadt", "operator": "Kinder Werk Stadt e.V.", "website": "http://kinderwerkstadt.net"}}, {"type": "node", "id": 6123191672, "lat": 52.5233753, "lon": 13.3899883, "tags": {"addr:city": "Berlin", "addr:housenumber": "5-9", "addr:postcode": "10117", "addr:street": "Ziegelstraße", "amenity": "childcare", "email": "KitaHU@stw.berlin", "name": "Kita an der Humboldt-Universität „Die Lupe“", "opening_hours": "Mo, Tu, Th, Fr 07:30-18:00; We 07:30-16:00", "operator": "studierendenWERK BERLIN", "phone": "+49 30 93939 - 8620", "website": "https://www.stw.berlin/kitas/kita-an-der-humboldt-universität.html"}}, {"type": "node", "id": 6284831003, "lat": 52.5600125, "lon": 13.416, "tags": {"addr:city": "Berlin", "addr:country": "DE", "addr:housenumber": "15", "addr:postcode": "13189", "addr:street": "Elsa-Brändström-Straße", "addr:suburb": "Pankow", "amenity": "childcare", "contact:phone": "+49 30 47061875", "contact:website": "https://www.jungesgemüse-berlin.de/", "email": "buero@jungesgemuese-berlin.de", "name": "Junges Gemüse", "operator": "Junges Gemüse e.V.", "phone": "+49 30 47061875", "website": "https://www.jungesgemüse-berlin.de/"}}, {"type": "node", "id": 7095755744, "lat": 52.5342616, "lon": 13.4321168, "tags": {"addr:city": "Berlin", "addr:housenumber": "5", "addr:postcode": "10407", "addr:street": "Pasteurstraße", "amenity": "childcare", "check_date": "2023-05-07", "name": "Kita Schnick & Schnack", "website": "https://kita-schnickschnack.de/"}}, {"type": "node", "id": 7450070792, "lat": 52.5483371, "lon": 13.3634353, "tags": {"addr:housenumber": "16", "addr:street": "Prinz-Eugen-Straße", "amenity": "childcare", "check_date": "2022-11-08", "level": "0", "name": "Kita Tipi", "wheelchair": "no"}}, {"type": "node", "id": 7683113440, "lat": 52.4732269, "lon": 13.43958, "tags": {"amenity": "childcare", "name": "Kita Paradiesvögel"}}, {"type": "node", "id": 7746191694, "lat": 52.5835082, "lon": 13.3655333, "tags": {"amenity": "childcare", "check_date": "2023-06-19", "name": "Pankebären"}}, {"type": "node", "id": 7746191886, "lat": 52.5877593, "lon": 13.3612696, "tags": {"amenity": "childcare", "name": "Wilhelmsruher Kinder"}}, {"type": "node", "id": 7803708935, "lat": 52.4636108, "lon": 13.4275382, "tags": {"amenity": "childcare", "check_date": "2023-08-16", "fixme": "Details unbekannt", "name": "kita jomme Lisa nest"}}, {"type": "node", "id": 7872288869, "lat": 52.5498728, "lon": 13.4124393, "tags": {"addr:city": "Berlin", "addr:housenumber": "3", "addr:postcode": "10439", "addr:street": "Dänenstraße", "amenity": "childcare", "email": "tagespflege-jessika-thomas@web.de", "name": "Kindertagespflege Jessika & Thomas Brakutt", "opening_hours": "Mo-Fr 08:30-15:00", "operator": "Jessika Brakutt", "operator:type": "private", "phone": "+49 152 26985291", "preschool": "yes", "social_facility": "day_care", "social_facility:for": "child", "website": "https://www.kindertagespflege-jessika-thomas.de/"}}, {"type": "node", "id": 8615958079, "lat": 52.5651332, "lon": 13.2095465, "tags": {"amenity": "childcare", "name": "Kinder Vision"}}, {"type": "node", "id": 8913626618, "lat": 52.4560784, "lon": 13.6110748, "tags": {"amenity": "childcare", "check_date": "2023-10-28", "name": "Kita Glückszelle"}}, {"type": "node", "id": 8968938732, "lat": 52.5403131, "lon": 13.3538361, "tags": {"amenity": "childcare"}}, {"type": "node", "id": 8989819195, "lat": 52.4830204, "lon": 13.3823512, "tags": {"addr:city": "Berlin", "addr:housenumber": "15", "addr:postcode": "12101", "addr:street": "Manfred-von-Richthofen-Straße", "amenity": "childcare", "name": "Inselreich", "source": "survey", "survey:date": "2021-08-04"}}, {"type": "node", "id": 9107506889, "lat": 52.5265626, "lon": 13.532992, "tags": {"addr:city": "Berlin", "addr:postcode": "12681", "addr:street": "Marzahner Chaussee", "amenity": "childcare", "name": "Kita Wirbelwind", "operator": "AWO pro:mensch gGmbH"}}, {"type": "node", "id": 9187654266, "lat": 52.4722114, "lon": 13.4323749, "tags": {"addr:city": "Berlin", "addr:country": "DE", "addr:housenumber": "61", "addr:postcode": "12053", "addr:street": "Thomasstraße", "addr:suburb": "Neukölln", "amenity": "childcare", "description": "Großtagespflege", "name": "Mini Mumm"}}, {"type": "node", "id": 9405048071, "lat": 52.5497108, "lon": 13.463351, "tags": {"addr:city": "Berlin", "addr:housenumber": "124", "addr:postcode": "13088", "addr:street": "Bizetstraße", "amenity": "childcare", "email": "kinder-am-weissensee@gmx.de", "name": "Kindertagespflege am Weissen See", "phone": "+493023321031"}}, {"type": "node", "id": 9509419310, "lat": 52.4963699, "lon": 13.3221821, "tags": {"amenity": "childcare", "name": "El Caracol"}}, {"type": "node", "id": 9974872231, "lat": 52.475421, "lon": 13.447151, "tags": {"addr:city": "Berlin", "addr:country": "DE", "addr:housenumber": "29", "addr:postcode": "12055", "addr:street": "Hertzbergstraße", "addr:suburb": "Neukölln", "amenity": "childcare", "name": "Kindertagesstätte Königskinder"}}, {"type": "node", "id": 10177798094, "lat": 52.5231435, "lon": 13.3012226, "tags": {"addr:city": "Berlin", "addr:housenumber": "9", "addr:postcode": "10589", "addr:street": "Mierendorffstraße", "addr:suburb": "Charlottenburg", "amenity": "childcare", "kindergarten": "yes", "level": "0", "name": "Kindergarten Kükenbande", "opening_hours": "Mo-Fr 07:30-16:30", "phone": "+49 30 53043562", "website": "www.kuekenbande.de"}}, {"type": "node", "id": 10177809036, "lat": 52.5232674, "lon": 13.2998612, "tags": {"addr:city": "Berlin", "addr:housenumber": "2", "addr:postcode": "10589", "addr:street": "Tegeler Weg", "addr:suburb": "Charlottenburg", "age_group": "0-6", "amenity": "childcare", "email": "hauptstadtfuechse@web.de", "kindergarten": "yes", "level": "0", "name": "Hauptstadtfüchse", "operator:type": "private", "phone": "+49 30 55074520"}}, {"type": "node", "id": 10294862861, "lat": 52.5300888, "lon": 13.3979473, "tags": {"addr:city": "Berlin", "addr:housenumber": "3a", "addr:postcode": "10115", "addr:street": "Ackerstraße", "amenity": "childcare", "name": "Emil Kirschkern", "operator": "Kirschkern e.V."}}, {"type": "node", "id": 10591768326, "lat": 52.5359877, "lon": 13.4313053, "tags": {"addr:city": "Berlin", "addr:housenumber": "2", "addr:postcode": "10405", "addr:street": "Chodowieckistraße", "amenity": "childcare", "email": "kita.sternenwiese@gmx.de", "name": "Kita Sternenwiese", "phone": "+49 30 26565333", "website": "https://www.vfbb-pankow.de/"}}, {"type": "node", "id": 10686885225, "lat": 52.5267191, "lon": 13.326632, "tags": {"amenity": "childcare", "name": "Kita Safina II", "operator": "Hadewe-Integra gGmbH", "website": "http://www.hadewe-integra.de/"}}, {"type": "node", "id": 10735906212, "lat": 52.5313543, "lon": 13.3345127, "tags": {"addr:city": "Berlin", "addr:housenumber": "22", "addr:postcode": "10551", "addr:street": "Emdener Straße", "amenity": "childcare", "name": "Kinder-Tagesbetreuung Nika", "operator": "Bagheri"}}, {"type": "node", "id": 10964920305, "lat": 52.5428895, "lon": 13.7444557, "tags": {"addr:housenumber": "6", "addr:street": "Herbert-Behrens-Hangeler-Weg", "amenity": "childcare", "name": "Kindertagesstätte Storchennest"}}, {"type": "node", "id": 11029941827, "lat": 52.5317455, "lon": 13.5165077, "tags": {"addr:city": "Berlin", "addr:housenumber": "143a", "addr:postcode": "10315", "addr:street": "Rhinstraße", "addr:suburb": "Lichtenberg", "amenity": "childcare", "check_date": "2023-08-12", "email": "info@rhinspatzenkids.de", "entrance": "yes", "kindergarten": "yes", "level": "0", "name": "KITA Rhinspatzen Berlin", "nursery": "yes", "opening_hours": "Mo-Fr 07:00-18:00", "operator": "KITA „Rhinspatzen Berlin“ gGmbH", "operator:type": "private", "phone": "+49 30 5263200", "website": "https://rhinspatzenkids.de/", "wheelchair": "yes"}}, {"type": "node", "id": 11134391970, "lat": 52.5153408, "lon": 13.3063657, "tags": {"amenity": "childcare", "check_date": "2023-08-21", "name": "Kita Schlumpfhausen"}}, {"type": "node", "id": 11159218305, "lat": 52.5713587, "lon": 13.403919, "tags": {"addr:postcode": "13187", "addr:street": "Pestalozzistraße", "amenity": "childcare", "name": "Kita Paradiesvögel"}}, {"type": "node", "id": 11263576953, "lat": 52.555632, "lon": 13.5600893, "tags": {"amenity": "childcare", "name": "Kita Händchenklein", "website": "https://www.kita-haendchenklein.de/"}}, {"type": "node", "id": 11266544273, "lat": 52.4740515, "lon": 13.4498469, "tags": {"addr:city": "Berlin", "addr:country": "DE", "addr:housenumber": "46", "addr:postcode": "12055", "addr:street": "Schudomastraße", "addr:suburb": "Neukölln", "amenity": "childcare"}}, {"type": "node", "id": 11406274410, "lat": 52.5450608, "lon": 13.3638827, "tags": {"addr:city": "Berlin", "addr:housenumber": "40", "addr:postcode": "13347", "addr:street": "Gerichtstraße", "amenity": "childcare", "name": "Kita Wunderland", "opening_hours": "Mo-Fr 08:00–17:00", "website": "http://www.kita-mitte.berlin/"}}, {"type": "node", "id": 11406312584, "lat": 52.5489176, "lon": 13.3652326, "tags": {"addr:city": "Berlin", "addr:housenumber": "24", "addr:postcode": "13347", "addr:street": "Maxstraße", "amenity": "childcare", "name": "Kita Die kleinen Grünschnäbel", "opening_hours": "Mo-Fr 07:00-17:00", "operator": "Kita Die kleinen Grünschnäbel UG", "operator:type": "private", "website": "https://www.diekleinengruenschnaebel.de/"}}, {"type": "node", "id": 11434724951, "lat": 52.5655378, "lon": 13.4057974, "tags": {"amenity": "childcare"}}]}