{"version": 0.6, "generator": "Overpass API 0.7.62.8 e802775f", "osm3s": {"timestamp_osm_base": "2025-08-20T14:18:30Z", "copyright": "The data included in this document is from www.openstreetmap.org. The data is made available under ODbL."}, "elements": [{"type": "node", "id": 29071031, "lat": 52.5312448, "lon": 13.3475136, "tags": {"addr:city": "Berlin", "addr:country": "DE", "addr:housenumber": "33", "addr:postcode": "10559", "addr:street": "Perleberger Straße", "addr:suburb": "Moabit", "amenity": "library", "check_date": "2025-07-10", "check_date:opening_hours": "2025-07-10", "description": "Mo.-Fr. 11.00 - 19.30 Uhr, Sa. 10.00 - 14.00 Uhr", "name": "Bruno-Lösche-Bibliothek", "opening_hours": "Mo-Fr 10:00-19:30; Sa 10:00-14:00", "ref:isil": "DE-B707", "toilets:wheelchair": "no", "website": "http://www.berlin.de/stadtbibliothek-mitte/bibliotheken/bruno-loesche-bibliothek/", "wheelchair": "yes", "wheelchair:description": "Hat eine Rampe durch die Aktion www.tausendundeinerampe.de", "wikidata": "Q28681449", "wikimedia_commons": "Category:Bruno-Lösche-Bücherei", "wikipedia": "de:Bruno-Lösche-Bibliothek"}}, {"type": "node", "id": 60848456, "lat": 52.5307772, "lon": 13.4708382, "tags": {"addr:city": "Berlin", "addr:country": "DE", "addr:housenumber": "14", "addr:postcode": "10369", "addr:street": "Anton-Saefkow-Platz", "amenity": "library", "check_date:opening_hours": "2025-03-04", "contact:phone": "+4930902963773", "name": "Anton-Saefkow-Bibliothek", "opening_hours": "Sa 09:00-18:00; Mo,Tu 09:00-19:00; We 13:00-19:00; Th,Fr 09:00-18:00", "website": "http://www.berlin.de/ba-lichtenberg/auf-einen-blick/buergerservice/bildung/artikel.298020.php", "wheelchair": "yes", "wikidata": "Q28738330"}}, {"type": "node", "id": 203557001, "lat": 52.5281578, "lon": 13.538715, "tags": {"addr:city": "Berlin", "addr:country": "DE", "addr:housenumber": "4", "addr:postcode": "12681", "addr:street": "Helene-Weigel-Platz", "addr:suburb": "Marzahn", "amenity": "library", "name": "Stadtteilbibliothek Erich Weinert", "opening_hours": "Mo,Tu,Th 14:00-18:00; We,Fr 09:00-13:00; Su,PH off; 2024 May 10,2024 Jun 12,2024 Oct 04,2024 Nov 08,2024 Dec 23,2024 Dec 27,2024 Dec 30 off", "phone": "+49 30 5429251", "website": "https://www.berlin.de/bibliotheken-mh/bibliotheken/stadtteilbibliothek-erich-weinert/", "wheelchair": "limited", "wheelchair:description": "Zugang ohne Stufen", "wikidata": "Q110626815"}}, {"type": "node", "id": 256922190, "lat": 52.5375039, "lon": 13.2871861, "tags": {"addr:city": "Berlin", "addr:country": "DE", "addr:housenumber": "18", "addr:postcode": "13627", "addr:street": "Halemweg", "addr:suburb": "Charlottenburg-Nord", "amenity": "library", "description": "WLAN frei für 30 Minuten", "internet_access": "wlan", "internet_access:fee": "no", "internet_access:operator": "QSC AG", "name": "Stadtteilbibliothek Halemweg", "ref:isil": "none", "wheelchair": "yes", "wikidata": "Q55153230"}}, {"type": "node", "id": 257708789, "lat": 52.5361334, "lon": 13.2013864, "tags": {"addr:city": "Berlin", "addr:country": "DE", "addr:housenumber": "13", "addr:postcode": "13597", "addr:street": "Carl-Schurz-Straße", "addr:suburb": "Spandau", "amenity": "library", "contact:email": "bibliothek@ba-spandau.berlin.de", "contact:phone": "+49 30 90279 5537", "contact:website": "https://www.berlin.de/stadtbibliothek-spandau/bibliotheken/bezirkszentralbibliothek/", "internet_access": "wlan", "name": "Bezirkszentralbibliothek Spandau", "opening_hours": "Mo-Fr 11:00-19:00;\nMo-Fr 10:00-11:00 \"ohne Fachpersonal\";\nSa 10:00-15:00;\nSa 15:00-18:00 \"ohne Fachpersonal\";\nSo 10:00-18:00 \"ohne Fachpersonal\";", "wheelchair": "yes", "wikidata": "Q15848809", "wikipedia": "de:Stadtbibliothek Spandau"}}, {"type": "node", "id": 262879310, "lat": 52.3744293, "lon": 13.6199028, "tags": {"addr:city": "Eichwalde", "addr:country": "DE", "addr:housenumber": "54", "addr:postcode": "15732", "addr:street": "Grünauer Straße", "amenity": "library", "check_date:opening_hours": "2023-11-18", "name": "Gemeindebibliothek Eichwalde", "opening_hours": "Mo 10:00-16:00; Tu 10:00-13:00,14:00-19:00; Th 10:00-13:00,14:00-18:00; Fr 10:00-14:00", "wheelchair": "yes"}}, {"type": "node", "id": 263679066, "lat": 52.54722, "lon": 13.556704, "tags": {"addr:city": "Berlin", "addr:country": "DE", "addr:housenumber": "52-54", "addr:postcode": "12679", "addr:street": "Marzahner Promenade", "addr:suburb": "Marzahn", "amenity": "library", "contact:phone": "+49 30 54704154", "contact:website": "https://www.berlin.de/bibliotheken-mh/bibliotheken/bezirkszentralbibliothek-mark-twain/", "garden:type": "roof_garden", "name": "Bezirkszentralbibliothek Mark Twain", "note": "Weltacker-Club-Mitglied", "opening_hours": "Mo,Tu,Th,Fr 10:00-19:30; We 14:00-19:30; Sa 10:00-14:00", "ref:isil": "DE-B2228", "website": "https://www.berlin.de/bibliotheken-mh/", "wheelchair": "yes", "wheelchair:description": "Die obere Etage der Bibliothek ist über Umwege durch das Treppenhaus erreichbar.", "wikidata": "Q28681443", "wikimedia_commons": "Category:Bezirkszentralbibliothek Mark Twain"}}, {"type": "node", "id": 264776935, "lat": 52.5068092, "lon": 13.369701, "tags": {"addr:housenumber": "37", "addr:postcode": "10785", "addr:street": "Potsdamer Straße", "amenity": "library", "check_date:opening_hours": "2022-10-03", "internet_access": "wlan", "name": "Ibero-Amerikanisches Institut", "opening_hours": "Mo-Sa 08:00-22:00", "operator": "Stiftung Preußischer Kulturbesitz", "ref:isil": "DE-204", "toilets:wheelchair": "no", "website": "https://www.iai.spk-berlin.de/", "wheelchair": "limited", "wheelchair:description:de": "Veranstaltungsraum Símon Bolívar-Saal nicht zugänglich per Fahrstuhl, Anmeldung erforderlich, keine behindertengerechte Toilette", "wikidata": "Q28737641"}}, {"type": "node", "id": 266540876, "lat": 52.5316059, "lon": 13.3986959, "tags": {"addr:city": "Berlin", "addr:country": "DE", "addr:housenumber": "181", "addr:postcode": "10119", "addr:street": "Brunnenstraße", "addr:suburb": "Mitte", "amenity": "library", "internet_access": "wlan", "internet_access:fee": "no", "name": "Bezirkszentralbibliothek Philipp Schaeffer", "opening_hours": "Mo-Fr 10:00-19:30; Sa 10:00-14:00; Su,PH off", "phone": "+49309018-24444", "ref:isil": "DE-B456", "toilets:wheelchair": "yes", "website": "http://www.berlin.de/stadtbibliothek-mitte/bibliotheken/bezirkszentralbibliothek-philipp-schaeffer/", "wheelchair": "yes", "wheelchair:description": "Has raised platform and lower floor with steps in childrens section on basement. In other words, it has been made less accessible by design.", "wikidata": "Q28657184", "wikimedia_commons": "Category:Philipp-Schaeffer-Bibliothek", "wikipedia": "de:Bezirkszentralbibliothek Philipp Schaeffer"}}, {"type": "node", "id": 266629485, "lat": 52.5055546, "lon": 13.6127893, "tags": {"addr:city": "Berlin", "addr:country": "DE", "addr:housenumber": "24-26", "addr:postcode": "12623", "addr:street": "Alt-Mahlsdorf", "addr:suburb": "Mahlsdorf", "amenity": "library", "email": "bibl.service@ba-mh.berlin.de", "internet_access": "wlan", "name": "Stadtteilbibliothek Mahlsdorf", "opening_hours": "Mo 13:00-17:00, Tu,Th 13:00-19:00, We,Fr 10:00-14:00; PH off; 2024 May 10,2024 Jun 12,2024 Oct 04,2024 Nov 08,2024 Dec 23,2024 Dec 27,2024 Dec 30 off", "phone": "+49 30 5676866", "website": "https://www.berlin.de/bibliotheken-mh/bibliotheken/stadtteilbibliothek-mahlsdorf/", "wheelchair": "yes", "wikidata": "Q125306890"}}, {"type": "node", "id": 271685475, "lat": 52.4518573, "lon": 13.2883334, "tags": {"addr:city": "Berlin", "addr:country": "DE", "addr:housenumber": "45", "addr:postcode": "14195", "addr:street": "Habelschwerdter Allee", "addr:suburb": "Dahlem", "amenity": "library", "internet_access": "yes", "name": "Philologische Bibliothek", "name:en": "Philological Library", "opening_hours": "Mo-Fr 09:00-22:00; PH off", "operator": "Freie Universität Berlin", "operator:type": "university", "operator:wikidata": "Q2496344", "ref": "DE-188-920", "ref:isil": "DE-188-920", "toilets:wheelchair": "yes", "wheelchair": "yes", "wikidata": "Q875031", "wikipedia": "de:Philologische Bibliothek der Freien Universität Berlin"}}, {"type": "node", "id": 271875991, "lat": 52.4535775, "lon": 13.2902597, "tags": {"addr:city": "Berlin", "addr:country": "DE", "addr:housenumber": "23/25", "addr:postcode": "14195", "addr:street": "Fabeckstraße", "addr:suburb": "Dahlem", "amenity": "library", "check_date:opening_hours": "2025-08-17", "email": "auskunft@campusbib.fu-berlin.de", "internet_access": "yes", "name": "Campusbibliothek Natur-, Kultur- und Bildungswissenschaften, Mathematik, Informatik und Psychologie", "opening_hours": "Mo-Fr 09:00-22:00; Sa-Su 10:00-20:00; PH off", "operator": "Freie Universität Berlin", "operator:type": "university", "operator:wikidata": "Q2496344", "ref:isil": "DE-188-930", "toilets:wheelchair": "yes", "website": "https://www.fu-berlin.de/sites/campusbib/", "wheelchair": "limited"}}, {"type": "node", "id": 281375131, "lat": 52.5477387, "lon": 13.4528367, "tags": {"addr:city": "Berlin", "addr:country": "DE", "addr:housenumber": "41", "addr:postcode": "13088", "addr:street": "Bizetstraße", "addr:suburb": "Weißensee", "amenity": "library", "check_date:opening_hours": "2025-07-03", "email": "wolfdietrich-schnurre-bibliothek@ba-pankow.berlin.de", "internet_access": "wlan", "internet_access:fee": "no", "name": "Wolfdietrich-Schnurre-Bibliothek", "opening_hours": "Mo 10:00-19:00; Tu 10:00-17:00; We 13:00-19:00; Th 10:00-19:00; Fr 10:00-17:00", "phone": "+49-30-90295-3861", "website": "http://www.berlin.de/ba-pankow/stadtbibliothek/wolfdiehttps://www.berlin.de/stadtbibliothek-pankow/bibliotheken/wolfdietrich-schnurre-bibliothek/trich-schnurre/", "wheelchair": "limited", "wikidata": "Q28681459"}}, {"type": "node", "id": 293137702, "lat": 52.616548, "lon": 13.4917041, "tags": {"amenity": "library", "name": "Stadtteilbibliothek Karow", "wheelchair": "yes"}}, {"type": "node", "id": 298063780, "lat": 52.4036309, "lon": 13.2589194, "tags": {"addr:city": "Teltow", "addr:country": "DE", "addr:housenumber": "2a", "addr:postcode": "14513", "addr:street": "Jahnstraße", "amenity": "library", "internet_access": "terminal", "name": "Bibliothek", "opening_hours": "Mo 10:00-16:00; Tu 13:00-19:00; Th 13:00-19:00; Fr 10:00-16:00", "wheelchair": "yes"}}, {"type": "node", "id": 308811018, "lat": 52.5492616, "lon": 13.414088, "tags": {"access": "yes", "addr:city": "Berlin", "addr:country": "DE", "addr:housenumber": "75", "addr:postcode": "10439", "addr:street": "Schönhauser Allee", "addr:suburb": "Prenzlauer Berg", "amenity": "library", "changing_table": "yes", "check_date": "2025-08-15", "check_date:opening_hours": "2025-08-15", "email": "mailto:bettina-von-arnim.bibliothek@ba-pankow.berlin.de", "internet_access": "wlan", "kids_area:indoor": "yes", "name": "Bettina von Arnim Bibliothek", "opening_hours": "Mo-We,Fr 13:00-19:00; Th 10:00-17:00", "operator:type": "public", "phone": "+4930902956933", "source": "survey", "toilets": "yes", "toilets:access": "yes", "toilets:wheelchair": "yes", "website": "https://www.berlin.de/stadtbibliothek-pankow/bibliotheken/bettina-von-arnim-bibliothek/", "wheelchair": "yes", "wikidata": "Q125298945"}}, {"type": "node", "id": 323991172, "lat": 52.5134373, "lon": 13.4813674, "tags": {"addr:city": "Berlin", "addr:housenumber": "149", "addr:street": "Frankfurter Allee", "amenity": "library", "check_date": "2024-06-16", "internet_access": "wlan", "internet_access:fee": "no", "level": "2", "name": "Egon-Erwin-Kisch-Bibliothek", "opening_hours": "We 13:00-19:00; Sa 09:00-15:00; Mo,Tu 09:00-19:00; Th,Fr 09:00-18:00", "phone": "+49305556719", "website": "https://www.berlin.de/stadtbibliothek-lichtenberg/standorte/egon-erwin-kisch-bibliothek/", "wheelchair": "limited", "wikidata": "Q125306828"}}, {"type": "node", "id": 333343782, "lat": 52.4819616, "lon": 13.4327729, "tags": {"addr:city": "Berlin", "addr:country": "DE", "addr:housenumber": "66", "addr:postcode": "12043", "addr:street": "Karl-Marx-Straße", "addr:suburb": "Neukölln", "alt_name": "Stadtbibliothek Neukölln, Bezirkszentralbibliothek", "amenity": "library", "check_date": "2023-11-13", "contact:email": "info@stadtbibliothek-neukoelln.de", "contact:fax": "+49 30 902394330", "contact:phone": "+49 30 902394313", "contact:website": "https://berlin.de/stadtbibliothek-neukoelln", "internet_access": "wlan", "level": "4", "name": "Helene-Nathan-Bibliothek", "opening_hours": "Mo-Fr 09:00-18:00; Sa 10:00-13:00", "outdoor_seating": "no", "ref:isil": "DE-B700", "wheelchair": "yes", "wikidata": "Q28681438", "wikimedia_commons": "Category:Stadtbibliothek Neukölln", "wikipedia": "de:Stadtbibliothek Neukölln"}}, {"type": "node", "id": 345162417, "lat": 52.4577849, "lon": 13.3196255, "tags": {"addr:city": "Berlin", "addr:country": "DE", "addr:housenumber": "3", "addr:postcode": "12165", "addr:street": "Grunewaldstraße", "addr:suburb": "Steglitz", "amenity": "library", "level": "3", "name": "Ingeborg-Drewitz-Bibliothek", "opening_hours": "Mo-Fr 11:00-19:00; Sa 11:00-16:00; PH off", "ref:isil": "DE-B702", "toilets:wheelchair": "yes", "website": "https://www.berlin.de/stadtbibliothek-steglitz-zehlendorf/", "wheelchair": "yes", "wikidata": "Q28681434"}}, {"type": "node", "id": 365322133, "lat": 52.3597239, "lon": 13.5929802, "tags": {"amenity": "library", "name": "Gemeindebibliothek", "wheelchair": "yes"}}, {"type": "node", "id": 395599328, "lat": 52.6599157, "lon": 13.5330917, "tags": {"amenity": "library", "name": "Bibliothek Panketal", "wheelchair": "yes"}}, {"type": "node", "id": 439225024, "lat": 52.3405271, "lon": 13.6121889, "tags": {"amenity": "library"}}, {"type": "node", "id": 439229151, "lat": 52.4548013, "lon": 13.6214013, "tags": {"addr:city": "Berlin", "addr:country": "DE", "addr:housenumber": "1", "addr:postcode": "12587", "addr:street": "Peter-Hille-Straße", "addr:suburb": "Friedrichshagen", "amenity": "library", "check_date:opening_hours": "2022-10-17", "internet_access": "wlan", "name": "Johannes-Bobrowski-Bibliothek", "opening_hours": "Mo,Tu 12:00-17:00; We,Th 14:00-19:00; PH,Fr-Su off", "website": "http://www.sb-tk.de", "wheelchair": "yes", "wikidata": "Q111144671", "wikimedia_commons": "Category:Johannes-Bobrowski-Bibliothek"}}, {"type": "node", "id": 444731308, "lat": 52.3879238, "lon": 13.3973796, "tags": {"addr:city": "Berlin", "addr:housenumber": "41", "addr:postcode": "12307", "addr:street": "Steinstraße", "addr:suburb": "Lichtenrade", "alt_name": "Edith-Stein-Bibliothek", "amenity": "library", "changing_table": "yes", "contact:email": "stabi-lichtenrade@ba-ts.berlin.de", "contact:phone": "+49 30 902778286", "contact:website": "https://www.berlin.de/stadtbibliothek-tempelhof-schoeneberg/bibliotheken/stadtteilbibliothek-lichtenrade/", "level": "0,1", "name": "Stadtteilbibliothek Lichenrade", "opening_hours": "Mo, We-Fr 11:00-18:00; Tu 12:00-16:00", "toilets": "yes", "toilets:access": "customers", "toilets:wheelchair": "designated", "wheelchair": "yes", "wikidata": "Q125306889"}}, {"type": "node", "id": 444994924, "lat": 52.5171056, "lon": 13.308865, "tags": {"addr:city": "Berlin", "addr:country": "DE", "addr:housenumber": "96", "addr:postcode": "10585", "addr:street": "Otto-Suhr-Allee", "addr:suburb": "Charlottenburg", "amenity": "library", "contact:phone": "+49309029-12217", "contact:website": "http://www.berlin.de/ba-charlottenburg-wilmersdorf/verwaltung/bibliotheken/artikel.203398.php", "description": "WLAN frei für 30 Minuten", "internet_access": "wlan", "internet_access:fee": "no", "internet_access:operator": "QSC AG", "name": "Heinrich-Schulz-Bibliothek", "opening_hours": "Mo-Fr 12:00-19:00; Sa 11:00-16:00; Su 12:00-18:00", "source": "survey", "toilets:wheelchair": "no", "wheelchair": "yes", "wikidata": "Q28681431"}}, {"type": "node", "id": 482710823, "lat": 52.4310682, "lon": 13.5314264, "tags": {"addr:city": "Berlin", "addr:country": "DE", "addr:housenumber": "26", "addr:postcode": "12489", "addr:street": "Rudower Chaussee", "addr:suburb": "Adlershof", "amenity": "library", "description": "Zur Nutzung der Garderobenschränke bitte ein Vorhängeschloss mitbringen.", "email": "nawi@ub.hu-berlin.de", "fax": "+49 30 2093-99722", "internet_access": "wlan", "internet_access:fee": "no", "name": "Zweigbibliothek Naturwissenschaften", "opening_hours": "Mo-Fr 09:00-20:00", "operator": "Universitätsbibliothek der Humboldt-Universität zu Berlin", "operator:type": "university", "operator:wikidata": "Q1407819", "phone": "+49 30 2093-99725", "ref:isil": "DE-11-87", "room:group_study": "yes", "room:study_cabin": "yes", "service:copy": "yes", "service:scanner": "yes", "source": "Geoportal Berlin / Hauskoordinaten", "website": "https://www.ub.hu-berlin.de/de/standorte/erwin-schroedinger-zentrum-zwbib-nawi", "wheelchair": "yes"}}, {"type": "node", "id": 486517226, "lat": 52.4554005, "lon": 13.5247238, "tags": {"amenity": "library", "contact:website": "https://bibliothek.htw-berlin.de/ueber-uns/bibliothek-campus-wilhelminenhof/", "level": "1", "name": "Bibliothek Campus Wilhelminenhof", "opening_hours": "Mo-Fr 10:00-21:00; Sa 12:00-18:00", "wheelchair": "yes"}}, {"type": "node", "id": 507660382, "lat": 52.5280812, "lon": 13.5120545, "tags": {"addr:housename": "29", "addr:place": "Evangelisches Krankenhaus Königin Elisabeth Herzberge", "amenity": "library", "name": "KEH Bibliothek", "wheelchair": "limited"}}, {"type": "node", "id": 529557633, "lat": 52.4713483, "lon": 13.313449, "tags": {"amenity": "library", "description": "WLAN frei für 30 Minuten", "internet_access": "wlan", "internet_access:fee": "no", "internet_access:operator": "QSC AG", "layer": "1", "name": "Eberhard-Alexander-Burgh-Bibliothek", "name:etymology:wikidata": "Q1278826", "opening_hours": "Mo,Th 12:00-16:00; Tu,Fr 14:00-18:00; SH Mo, Th 12:00-16:00; PH off", "toilets:wheelchair": "yes", "wheelchair": "yes"}}, {"type": "node", "id": 560823423, "lat": 52.4851862, "lon": 13.3827588, "tags": {"addr:city": "Berlin", "addr:country": "DE", "addr:housenumber": "18-20", "addr:postcode": "10965", "addr:street": "Dudenstraße", "addr:suburb": "Kreuzberg", "amenity": "library", "check_date:opening_hours": "2024-02-20", "description": "WLAN frei für 30 Minuten; Abdeckung: im gesamten Gebäude + unmittelbarer Außenbereich", "fax": "+49 30 50587615", "internet_access": "wlan", "internet_access:fee": "no", "internet_access:operator": "HOTSPLOTS", "name": "Friedrich-von-Raumer-Bibliothek", "opening_hours": "Mo,Tu 13:00-19:00; We 11:00-17:00; Th 13:00-19:00; Fr 11:00-17:00", "phone": "+49 30 50587613", "website": "https://www.berlin.de/stadtbibliothek-friedrichshain-kreuzberg/bibliotheken/stadtteilbibliothek-friedrich-von-raumer/", "wheelchair": "no", "wikidata": "Q28738331"}}, {"type": "node", "id": 586328524, "lat": 52.4571611, "lon": 13.2920178, "tags": {"addr:city": "Berlin", "addr:country": "DE", "addr:housenumber": "7-9", "addr:postcode": "14195", "addr:street": "Lansstraße", "addr:suburb": "Dahlem", "amenity": "library", "contact:email": "library@jfki.fu-berlin.de", "contact:fax": "+49 30 838-52860", "contact:phone": "+49 30 838-52862", "contact:website": "http://www.jfki.fu-berlin.de/library", "internet_access": "wlan", "name": "Bibliothek des John-F.-Kennedy-Instituts", "name:en": "Library of the John F. Kennedy Institute", "opening_hours": "Mo-Fr 09:00-20:00", "operator": "Universitätsbibliothek der Freien Universität Berlin", "operator:type": "university", "operator:wikidata": "Q2496344", "ref:isil": "DE-188-144", "toilets:wheelchair": "no", "wheelchair": "no"}}, {"type": "node", "id": 599557492, "lat": 52.6742985, "lon": 13.5304937, "tags": {"addr:city": "Bernau bei Berlin", "addr:country": "DE", "addr:housenumber": "25a", "addr:postcode": "16321", "addr:street": "Schönerlinder Straße", "addr:suburb": "Schönow", "amenity": "library", "level": "2", "name": "Bibliothek Schönow", "opening_hours": "Mo 13:00-16:00; Tu 10:00-12:00,14:00-19:00, Th 10:00-12:00,14:00-18:00", "phone": "+49 3338 459536", "website": "https://www.bernau-bei-berlin.de/de/buergerportal/bildung/bibliotheken/bibliothek_schoenow.html"}}, {"type": "node", "id": 609820670, "lat": 52.4794058, "lon": 13.7012118, "tags": {"addr:city": "Schöneiche bei Berlin", "addr:country": "DE", "addr:housenumber": "5", "addr:postcode": "15566", "addr:street": "Dorfaue", "amenity": "library", "name": "Gemeindebibliothek", "opening_hours": "Mo,Fr 10:00-15:00; Tu 13:00-18:30; Th 13:00-18:00", "phone": "+49 30 6490110", "website": "http://www.gemeindebibliothek-schoeneiche.de", "wheelchair": "yes"}}, {"type": "node", "id": 618048288, "lat": 52.6356441, "lon": 13.4938846, "tags": {"amenity": "library", "check_date:opening_hours": "2024-06-19", "internet_access": "wlan", "level": "1", "name": "Stadtteilbibliothek Buch", "opening_hours": "Mo,Th,Fr 13:00-19:00; Tu 10:00-16:00; We 13:00-17:00; Sa 10:00-15:00", "website": "https://www.berlin.de/stadtbibliothek-pankow/bibliotheken/stadtteilbibliothek-buch/", "wheelchair": "yes", "wikidata": "Q125306819"}}, {"type": "node", "id": 639552895, "lat": 52.5164298, "lon": 13.3932385, "tags": {"addr:city": "Berlin", "addr:country": "DE", "addr:housenumber": "1", "addr:postcode": "10117", "addr:street": "Bebelplatz", "addr:suburb": "Mitte", "air_conditioning": "no", "amenity": "library", "contact:phone": "+49 30 209 33374", "contact:website": "http://info.ub.hu-berlin.de/bibliothek/zweigbibliotheken/jurist/jurist.html", "internet_access": "wlan", "internet_access:fee": "no", "name": "HU Berlin – Zweigbibliothek Rechtswissenschaft", "name:de": "HU Berlin – Zweigbibliothek Rechtswissenschaft", "name:en": "HU Berlin - Law Library", "note": "Zur Nutzung der Garderobenschränke bitte ein Vorhängeschloss mitbringen.", "opening_hours": "Mo-Fr 09:00-21:30; Sa 09:00-18:00; Su 13:00-18:00", "operator": "Universitätsbibliothek der Humboldt-Universität zu Berlin", "operator:type": "university", "operator:wikidata": "Q1407819", "operator:wikipedia": "de:Universitätsbibliothek der Humboldt-Universität zu Berlin", "ref:isil": "DE-11-68", "service:copy": "yes", "toilets:wheelchair": "yes", "wheelchair": "limited"}}, {"type": "node", "id": 648465837, "lat": 52.6311929, "lon": 13.7312179, "tags": {"amenity": "library", "name": "Bibliothek Werneuchen"}}, {"type": "node", "id": 665121783, "lat": 52.5261368, "lon": 13.3937348, "tags": {"addr:city": "Berlin", "addr:country": "DE", "addr:housenumber": "32", "addr:postcode": "10117", "addr:street": "Tucholskystraße", "addr:suburb": "Mitte", "amenity": "library", "contact:phone": "+49 30 97005815;+49 30 97005816", "name": "Comicbibliothek Renate", "website": "http://www.renatecomics.de/", "wheelchair": "no", "wikidata": "Q130744426"}}, {"type": "node", "id": 737212457, "lat": 52.5418167, "lon": 13.4408459, "tags": {"addr:city": "Berlin", "addr:country": "DE", "addr:housenumber": "87", "addr:postcode": "10409", "addr:street": "Greifswalder Straße", "addr:suburb": "Prenzlauer Berg", "amenity": "library", "internet_access": "wlan", "name": "Heinrich-Böll-Bibliothek", "official_name": "Stadtbibliothek Pankow, Hauptbibliothek Heinrich Böll", "opening_hours": "Mo-Tu, Th-Fr 09:00-19:00; We 13:00-19:00; Sa-Su 10:00-19:00", "ref:isil": "DE-B457", "website": "https://www.berlin.de/stadtbibliothek-pankow/bibliotheken/heinrich-boell-bibliothek/", "wheelchair": "yes", "wikidata": "Q15848805", "wikimedia_commons": "Category:Stadtbibliothek Pankow"}}, {"type": "node", "id": 747882909, "lat": 52.6692125, "lon": 13.2876619, "tags": {"access": "yes", "addr:city": "Hohen Neuendorf", "addr:housenumber": "17", "addr:postcode": "16540", "addr:street": "Schönfließer Straße", "air_conditioning": "no", "amenity": "library", "baby_feeding": "no", "check_date": "2023-11-20", "internet_access": "no", "level": "0", "name": "Stadtbibliothek Hohen Neuendorf", "opening_hours": "Tu,Th,Fr 10:00-12:00,13:00-19:00; Mo 13:00-19:00; We,Sa,Su off", "operator": "Stadtverwaltung Hohen Neuendorf", "operator:type": "government", "payment:cards": "no", "payment:cash": "limited", "payment:credit_cards": "no", "payment:debit_cards": "no", "website": "https://hohen-neuendorf.de/de/familie-bildung/bibliotheken/stadtbibliothek", "wheelchair": "yes"}}, {"type": "node", "id": 768748868, "lat": 52.6493992, "lon": 13.1390844, "tags": {"amenity": "library", "wheelchair": "limited"}}, {"type": "node", "id": 795561505, "lat": 52.4775843, "lon": 13.2878878, "tags": {"addr:city": "Berlin", "addr:country": "DE", "addr:housenumber": "7", "addr:postcode": "14199", "addr:street": "Berkaer Straße", "addr:suburb": "Schmargendorf", "amenity": "library", "description": "WLAN frei für 30 Minuten", "internet_access": "wlan", "internet_access:fee": "no", "internet_access:operator": "QSC AG", "name": "Adolf-Reichwein-Bibliothek", "opening_hours": "Mo-Fr 14:00-18:00; Sa,Su,PH off", "website": "http://www.berlin.de/ba-charlottenburg-wilmersdorf/org/bibliotheken/adolfreichweinbibliothek.html", "wheelchair": "yes", "wikidata": "Q55153258"}}, {"type": "node", "id": 1070809009, "lat": 52.5190211, "lon": 13.3928706, "tags": {"addr:city": "Berlin", "addr:country": "DE", "addr:housenumber": "6", "addr:postcode": "10117", "addr:street": "Unter den Linden", "addr:suburb": "Mitte", "amenity": "library", "email": "archaeologie@ub.hu-berlin.de", "internet_access": "wlan", "internet_access:fee": "no", "level": "1", "name": "Zweigbibliothek Klassische Archäologie", "name:de": "Zweigbibliothek Klassische Archäologie", "name:en": "Library of Classical Archaeology", "note": "Die Bibliothek befindet sich im Ostflügel des Hauptgebäudes in Raum 2082.", "opening_hours": "Mo-Th 10:00-16:00; PH off", "operator": "Universitätsbibliothek der Humboldt-Universität zu Berlin", "operator:type": "university", "operator:wikidata": "Q1407819", "phone": "+49 30 2093 2234", "ref:isil": "DE-11-88", "service:copy": "yes", "website": "https://www.ub.hu-berlin.de/de/standorte/zwbarchaeologie", "wheelchair": "limited"}}, {"type": "node", "id": 1070809020, "lat": 52.5183016, "lon": 13.386705, "tags": {"addr:city": "Berlin", "addr:country": "DE", "addr:housenumber": "65", "addr:postcode": "10117", "addr:street": "Dorotheenstraße", "addr:suburb": "Mitte", "amenity": "library", "email": "fremdphilo@ub.hu-berlin.de", "internet_access": "wlan", "internet_access:fee": "no", "level": "1;2", "name": "Zweigbibliothek Fremdsprachliche Philologien / Teilbibliothek Großbritannien-Zentrum", "note": "Zur Nutzung der Garderobenschränke bitte ein Vorhängeschloss mitbringen.", "opening_hours": "Mo-Fr 09:00-20:00; PH off", "operator": "Universitätsbibliothek der Humboldt-Universität zu Berlin", "operator:type": "university", "operator:wikidata": "Q1407819", "operator:wikipedia": "de:Universitätsbibliothek der Humboldt-Universität zu Berlin", "phone": "+49 30 2093-12377", "ref:isil": "DE-11-149", "service:copy": "yes", "wheelchair": "yes"}}, {"type": "node", "id": 1346361343, "lat": 52.4978553, "lon": 13.5209225, "tags": {"addr:city": "Berlin", "addr:country": "DE", "addr:floor": "1", "addr:housenumber": "9", "addr:postcode": "10319", "addr:street": "Erich-Kurz-Straße", "addr:suburb": "Friedrichsfelde", "amenity": "library", "check_date": "2024-12-08", "contact:phone": "+49 30 5122102", "internet_access": "wlan", "internet_access:fee": "no", "internet_access:ssid": "VOEBB-Bibliothek", "level": "1", "name": "Bodo-Uhse-Bibliothek", "opening_hours": "Mo-Tu 09:00-19:00; We 13:00-19:00; Th-Sa 09:00-18:00", "website": "https://www.berlin.de/stadtbibliothek-lichtenberg/standorte/bodo-uhse-bibliothek/", "wheelchair": "limited", "wikidata": "Q125306826"}}, {"type": "node", "id": 1356847676, "lat": 52.568454, "lon": 13.4123577, "tags": {"addr:city": "Berlin", "addr:country": "DE", "addr:housenumber": "120", "addr:postcode": "13187", "addr:street": "Berliner Straße", "addr:suburb": "Pankow", "amenity": "library", "check_date:opening_hours": "2025-01-19", "description": "ehemaliges Jüdische Waisenhaus", "internet_access": "wlan", "name": "Janusz-Korczak-Bibliothek", "opening_hours": "Mo,Tu,Th,Fr 09:00-19:00; We 13:00-19:00; Sa,Su 10:00-19:00", "ref:isil": "DE-B462", "wheelchair": "limited", "wheelchair:description": "Eingang hat viele Stufen (2 Treppen). Rollstuhlgerechter Eingang auf Gebäuderückseite über Hadlichstraße erreichbar. Dort Klingel benutzen. Fahrstuhl vorhanden. Es befinden sich Schwellen zwischen den Türen (Altbau).", "wikidata": "Q28681445"}}, {"type": "node", "id": 1362209543, "lat": 52.5145468, "lon": 13.2939985, "tags": {"addr:city": "Berlin", "addr:country": "DE", "addr:housenumber": "10", "addr:postcode": "14059", "addr:street": "Nehringstraße", "addr:suburb": "Charlottenburg", "amenity": "library", "contact:phone": "+4930902924313", "contact:website": "http://www.berlin.de/ba-charlottenburg-wilmersdorf/verwaltung/bibliotheken/artikel.194044.php", "description": "WLAN frei für 30 Minuten", "internet_access": "wlan", "internet_access:fee": "no", "internet_access:operator": "QSC AG", "name": "Ingeborg-Bachmann-Bibliothek", "opening_hours": "Mo,We,Th,Fr 14:00-18:00; PH off", "wheelchair": "yes", "wikidata": "Q55153171"}}, {"type": "node", "id": 1425169658, "lat": 52.4613917, "lon": 13.2947799, "tags": {"addr:city": "Berlin", "addr:country": "DE", "addr:housenumber": "20", "addr:postcode": "14195", "addr:street": "Koserstraße", "addr:suburb": "Dahlem", "amenity": "library", "contact:phone": "+493083854550", "contact:website": "http://www.ub.fu-berlin.de/fbb/gesch-kultur/kug809.html", "name": "Bibliothek des Friedrich-Meinecke-Instituts und des Kunsthistorisches Instituts", "toilets:wheelchair": "no", "wheelchair": "limited"}}, {"type": "node", "id": 1445349886, "lat": 52.4255455, "lon": 13.4622976, "tags": {"addr:city": "Berlin", "addr:country": "DE", "addr:housenumber": "1", "addr:postcode": "12353", "addr:street": "Bat-Yam-Platz", "addr:suburb": "Gropiusstadt", "amenity": "library", "name": "Trude-Jugend-Bib", "website": "https://www.berlin.de/stadtbibliothek-neukoelln/bibliotheken/gertrud-junge-bibliothek/", "wheelchair": "yes"}}, {"type": "node", "id": 1469991062, "lat": 52.4032275, "lon": 13.2199129, "tags": {"addr:city": "Kleinmachnow", "addr:country": "DE", "addr:housename": "Rathaus Kleinmachnow", "addr:housenumber": "10", "addr:postcode": "14532", "addr:street": "Adolf-Grimme-Ring", "amenity": "library", "check_date": "2023-05-24", "contact:email": "bibliothek@kleinmachnow.de", "contact:phone": "+49 33203 8774115", "name": "Öffentliche Bibliothek Kleinmachnow", "opening_hours": "Mo,Fr 12:00-18:00; Tu 12:00-20:00; We off; Th 10:00-18:00; Sa[1] 10:00-13:00", "ref:isil": "DE-1349", "wheelchair": "yes", "wikidata": "Q28734549"}}, {"type": "node", "id": 1472976631, "lat": 52.4925504, "lon": 13.4362136, "tags": {"addr:city": "Berlin", "addr:country": "DE", "addr:housenumber": "13", "addr:postcode": "10999", "addr:street": "Glogauer Straße", "addr:suburb": "Kreuzberg", "alt_name": "Familienbibliothek Glogauer Straße", "amenity": "library", "contact:phone": "+49 30 22502613", "contact:website": "https://www.berlin.de/stadtbibliothek-friedrichshain-kreuzberg/bibliotheken/familienbibliothek-else-ury/", "description": "WLAN frei für 30 Minuten", "internet_access": "wlan", "internet_access:fee": "no", "internet_access:operator": "HOTSPLOTS", "name": "Else-Ury-Bibliothek", "opening_hours": "Mo 13:00-18:00;\nTu 10:00-15:00;\nTh 13:00-18:00;\nFr 12:00-17:00", "wheelchair": "no"}}, {"type": "node", "id": 1481377095, "lat": 52.5121417, "lon": 13.3262714, "tags": {"addr:city": "Berlin", "addr:country": "DE", "addr:housename": "H", "addr:housenumber": "135", "addr:postcode": "10623", "addr:street": "Straße des 17. Juni", "addr:suburb": "Charlottenburg", "amenity": "library", "check_date": "2025-02-03", "check_date:opening_hours": "2025-02-03", "contact:phone": "+49 30 31422601", "contact:website": "https://www.dbwm.tu-berlin.de/menue/startseite/", "fixme": "position estimated; area 5K, room 5150b", "internet_access": "wlan", "level": "5", "name": "Die Bibliothek Wirtschaft und Management", "old_name": "WiWiDok: Fachbibliothek für Wirtschaft, Recht & Statistik", "opening_hours": "Apr-Jul,Oct-Feb: Mo-Fr 09:00-21:00; Apr-Jul,Oct-Feb: Sa 10:00-16:00; Mar,Aug-Sep: Mo-Fr 10:00-21:00; Mar,Aug-Sep: Sa 10:00-16:00", "wheelchair": "yes"}}, {"type": "node", "id": 1670728349, "lat": 52.4690497, "lon": 13.4339544, "tags": {"addr:city": "Berlin", "addr:country": "DE", "addr:housenumber": "26", "addr:postcode": "12051", "addr:street": "Emser Straße", "addr:suburb": "Neukölln", "amenity": "library", "check_date": "2024-11-07", "name": "Fachbibliothek Kurdologie", "opening_hours": "Mo-Fr 11:00-16:00, \"Nach Vereinbarung\"", "operator": "Europäisches Zentrum für Kurdische Studien - Berliner Gesellschaft zur Förderung der Kurdologie e. V."}}, {"type": "node", "id": 1684737379, "lat": 52.5286995, "lon": 13.4254805, "tags": {"addr:city": "Berlin", "addr:country": "DE", "addr:housenumber": "4", "addr:postcode": "10405", "addr:street": "Greifswalder Straße", "addr:suburb": "Prenzlauer Berg", "amenity": "library", "books:language:de": "yes", "books:language:en": "yes", "books:language:es": "yes", "books:language:fr": "yes", "books:language:ru": "yes", "contact:email": "DieFreien@BibliothekderFreien.de", "contact:phone": "+49 30 7521768", "contact:website": "https://www.bibliothekderfreien.de/", "dog": "yes", "indoor": "yes", "internet_access": "no", "language:de": "main", "language:en": "yes", "language:others": "no", "level": "1", "name": "Bibliothek der Freien", "name:en": "Library of the Free", "name:etymology:wikidata": "Q8470895", "name:it": "Biblioteca dei Liberi", "opening_hours": "Th, Fr 18:00-20:00; PH off", "ref:isil": "DE-B1576", "smoking": "no", "toilets": "yes", "toilets:wheelchair": "yes", "wheelchair": "limited", "wheelchair:description:de": "Türschwellen;bitte Besuch mit Rollstuhl vorher anmelden", "wheelchair:description:en": "thresholds;please contact the library before visiting it with a wheelchair", "wheelchair:description:eo": "sojloj;bonvolu kontakti la bibliotekon antaŭ viziti ĝin per rulseĝo", "wikidata": "Q856487", "wikipedia": "de:Bibliothek der Freien"}}, {"type": "node", "id": 1685672555, "lat": 52.5127362, "lon": 13.3957618, "tags": {"addr:city": "Berlin", "addr:country": "DE", "addr:housenumber": "41", "addr:postcode": "10117", "addr:street": "Mohrenstraße", "addr:suburb": "Mitte", "amenity": "library", "name": "Archiv für Alternativkultur", "website": "http://www.fis-kultur.net/alternativkultur/", "wikidata": "Q2654413", "wikipedia": "de:Archiv für Alternativkultur"}}, {"type": "node", "id": 1818848292, "lat": 52.5106578, "lon": 13.2586101, "tags": {"addr:city": "Berlin", "addr:country": "DE", "addr:housenumber": "45", "addr:postcode": "14052", "addr:street": "Westendallee", "addr:suburb": "Westend", "amenity": "library", "check_date:opening_hours": "2024-05-05", "description": "WLAN frei für 30 Minuten", "internet_access": "wlan", "internet_access:fee": "no", "internet_access:operator": "QSC AG", "name": "Johanna-Moosdorf-Bibliothek", "opening_hours": "Tu,Fr 14:00-18:00; We 12:00-18:00; Th 10:00-16:00", "wheelchair": "no", "wikidata": "Q55153202"}}, {"type": "node", "id": 1863570970, "lat": 52.5328818, "lon": 13.4321724, "tags": {"addr:city": "Berlin", "addr:housenumber": "18", "addr:postcode": "10407", "addr:street": "Esmarchstraße", "amenity": "library", "name": "Kurt-Tucholsky-Bibliothek", "opening_hours": "Mo,We-Fr 13:00-18:00; Tu 10:00-15:00", "operator": "Bezirksamt Pankow von Berlin, Amt für Weiterbildung und Kultur", "operator:type": "public", "phone": "+49 30 902 95 3 963", "website": "http://www.berlin.de/ba-pankow/stadtbibliothek/kurt-tucholsky/", "wheelchair": "no", "wikidata": "Q125306857"}}, {"type": "node", "id": 1874529829, "lat": 52.489441, "lon": 13.3118736, "tags": {"addr:city": "Berlin", "addr:country": "DE", "addr:housenumber": "176", "addr:postcode": "10713", "addr:street": "Hohenzollerndamm", "addr:suburb": "Wilmersdorf", "amenity": "library", "contact:email": "info@artothek.charlottenburg-wilmersdorf.de", "contact:phone": "+49 30 9029-16709", "name": "Artothek", "opening_hours": "Mo off ; Tu,Th,Fr 11:00-17:00 ; We 11:00-19:00", "wheelchair": "yes"}}, {"type": "node", "id": 1933757018, "lat": 52.449221, "lon": 13.2769658, "tags": {"addr:city": "Berlin", "addr:country": "DE", "addr:housenumber": "21", "addr:postcode": "14195", "addr:street": "Ihnestraße", "addr:suburb": "Dahlem", "amenity": "library", "name": "Bibliothek für Sozialwissenschaften und Osteuropastudien, Stiller Lesesaal", "operator": "Freie Universität Berlin", "operator:type": "university", "operator:wikidata": "Q2496344", "wheelchair": "yes"}}, {"type": "node", "id": 2094774970, "lat": 52.5085131, "lon": 13.3669367, "tags": {"addr:city": "Berlin", "addr:housenumber": "6", "addr:postcode": "10785", "addr:street": "Matthäikirchplatz", "amenity": "library", "check_date": "2024-11-12", "facebook": "https://www.facebook.com/kunstbibliothek", "fee:icom_member": "no", "internet_access": "wlan", "internet_access:fee": "no", "loc_name": "Kubi", "min_age": "18", "name": "Kunstbibliothek", "name:en": "Berlin Art Library", "opening_hours": "Mo-Tu off; We-Fr 10:00-17:00; Sa-Su,PH 10:00-18:00; Jan 1 12:00-18:00; Dec 24,Dec 31 off", "ref:isil": "DE-B11", "toilets": "yes", "toilets:wheelchair": "no", "website": "https://www.smb.museum/museen-einrichtungen/kunstbibliothek/home", "wheelchair": "yes", "wikidata": "Q6445022", "wikimedia_commons": "Category:Kunstbibliothek (Berlin)", "wikipedia": "en:Kunstbibliothek Berlin"}}, {"type": "node", "id": 2270319509, "lat": 52.635613, "lon": 13.3029182, "tags": {"amenity": "library", "name": "Das Buddhistische Haus", "opening_hours": "Mo-Su 09:00-18:00", "wheelchair": "no"}}, {"type": "node", "id": 2402339489, "lat": 52.4900049, "lon": 13.4056371, "tags": {"addr:city": "Berlin", "addr:country": "DE", "addr:housenumber": "2", "addr:postcode": "10961", "addr:street": "Südstern", "addr:suburb": "Kreuzberg", "amenity": "library", "email": "info@la-rayuela.de", "name": "La Rayuela", "opening_hours": "Mo-Fr 10:00-19:00; Sa 10:00-16:00", "phone": "+49 (0)30 44013293", "smoking": "no", "website": "https://la-rayuela.typepad.com/", "wheelchair": "no"}}, {"type": "node", "id": 2479053622, "lat": 52.5021314, "lon": 13.3248746, "tags": {"addr:city": "Berlin", "addr:country": "DE", "addr:housenumber": "211", "addr:postcode": "10719", "addr:street": "Kurfürstendamm", "addr:suburb": "Charlottenburg", "amenity": "library", "name": "Institut Français Berlin, Mediathek", "name:en": "French Institute of Berlin, library", "name:fr": "Institut Français Berlin, Médiathèque", "opening_hours": "Tu,Th 14:00-18:30; We,Fr 12:00-18:30; Sa 11:00-17:00; Mo off", "ref:isil": "DE-B452", "toilets:wheelchair": "no", "website": "https://berlin.institutfrancais.de/mediathek", "wheelchair": "limited", "wikidata": "Q28737652"}}, {"type": "node", "id": 2571245538, "lat": 52.4033811, "lon": 13.5286278, "tags": {"addr:city": "Berlin", "addr:country": "DE", "addr:housenumber": "182", "addr:postcode": "12524", "addr:street": "Ortolfstraße", "addr:suburb": "Altglienicke", "amenity": "library", "name": "Stadtteilbibliothek Altglienicke im Bürgerhaus", "phone": "+49 30 902976722"}}, {"type": "node", "id": 2644700001, "lat": 52.4864803, "lon": 13.389689, "tags": {"addr:city": "Berlin", "addr:housenumber": "3", "addr:postcode": "10965", "addr:street": "Fidicinstraße", "amenity": "library", "image": "File:Bibliotheksregal im Archiv der Jugendkulturen.jpg", "logo": "File:Logo archivderjugendkulturen.png", "name": "Archiv der Jugendkulturen", "ref:isil": "DE-2323", "ref:vatin": "DE203272846", "website": "https://jugendkulturen.de", "wikidata": "Q635544", "wikimedia_commons": "Category:Archiv der Jugendkulturen", "wikipedia": "de:Archiv der Jugendkulturen"}}, {"type": "node", "id": 2684057233, "lat": 52.5212779, "lon": 13.7047745, "tags": {"addr:city": "Neuenhagen bei Berlin", "addr:country": "DE", "addr:postcode": "15366", "air_conditioning": "yes", "amenity": "library", "check_date:opening_hours": "2023-08-17", "internet_access": "terminal", "name": "Anna-Ditzen-Bibliothek", "opening_hours": "Mo 10:00-12:00,13:00-17:00; Tu 10:00-12:00,13:00-19:00; Th 09:00-12:00,13:00-17:00; Fr 10:00-12:00,13:00-18:00", "phone": "+49 3342 80435", "website": "https://www.bibliothek-neuenhagen.de/", "wheelchair": "yes", "wheelchair:description": "Wenn das Bürgerhaus geschlossen ist, bitte klingeln oder am Fenster hinter der Theke klopfen", "wikidata": "Q28734136"}}, {"type": "node", "id": 2755893345, "lat": 52.5233124, "lon": 13.7525783, "tags": {"amenity": "library"}}, {"type": "node", "id": 2777497901, "lat": 52.5266936, "lon": 13.3766679, "tags": {"addr:housenumber": "4", "addr:street": "Bonhoefferweg", "amenity": "library", "check_date": "2025-05-06", "entrance": "yes", "name": "Patientenbibliothek", "opening_hours": "Mo,Tu,Th 12:00-16:00; Fr 12:00-15:00", "operator": "Charité Mitte"}}, {"type": "node", "id": 2802477601, "lat": 52.5499724, "lon": 13.1780019, "tags": {"amenity": "library", "name": "Stadtteilbibliothek", "opening_hours": "Tu,We,Fr 12:00-17:00; Mo,Th 13:00-19:00", "wheelchair": "yes"}}, {"type": "node", "id": 2900627200, "lat": 52.6384606, "lon": 13.5263249, "tags": {"addr:city": "Panketal", "addr:country": "DE", "addr:housenumber": "2", "addr:postcode": "16341", "addr:street": "Genfer Platz", "addr:suburb": "Schwanebeck", "amenity": "library", "name": "Bibliothek Panketal", "operator": "Gemeinde Panketal"}}, {"type": "node", "id": 2960571181, "lat": 52.567913, "lon": 13.7276159, "tags": {"addr:city": "Altlandsberg", "addr:country": "DE", "addr:housenumber": "1", "addr:postcode": "15345", "addr:street": "Krummenseestraße", "amenity": "library", "opening_hours": "Mo 14:00-18:00; Tu 13:00-16:00; Th 14:00-19:00; PH off", "operator": "Stadt Altlandsberg", "phone": "+49 33438 64414", "toilets:wheelchair": "yes", "website": "https://bibliothek.altlandsberg.de/", "wheelchair": "yes"}}, {"type": "node", "id": 2964523835, "lat": 52.5871192, "lon": 13.3678296, "tags": {"addr:city": "Berlin", "addr:country": "DE", "addr:housenumber": "32", "addr:postcode": "13158", "addr:street": "Hauptstraße", "addr:suburb": "Wilhelmsruh", "amenity": "library", "email": "info@leben-in-wilhelmsruh.de", "name": "Kulturpost und Bibliothek", "opening_hours": "Mo,Di,Do 14:00-19:00; Mi,Fr,Sa 10:00-13:00", "operator": "Leben in Wilhelmsruh", "phone": "+49 30 40724848", "source": "Geoportal Berlin / Hauskoordinaten", "website": "https://www.leben-in-wilhelmsruh.de/"}}, {"type": "node", "id": 3203713887, "lat": 52.4952361, "lon": 13.4307312, "tags": {"addr:city": "Berlin", "addr:country": "DE", "addr:housenumber": "63a", "addr:postcode": "10999", "addr:street": "Reichenberger Straße", "addr:suburb": "Kreuzberg", "alt_name": "Kalabalik", "amenity": "library", "books": "anarchism", "description": "multilingual anarchist library", "email": "kalabalik@riseup.net", "name": "kalabal!k", "opening_hours": "We 17:00-20:00; Su 15:00-18:00", "operator": "kalabal!k", "website": "https://kalabalik.blackblogs.org/", "wheelchair": "no"}}, {"type": "node", "id": 3408439137, "lat": 52.6629016, "lon": 13.3782745, "tags": {"addr:city": "Mühlenbecker Land", "addr:country": "DE", "addr:housenumber": "9", "addr:postcode": "16567", "addr:street": "Hauptstraße", "addr:suburb": "Mühlenbeck", "amenity": "library", "name": "Gemeindebibliothek"}}, {"type": "node", "id": 3428467245, "lat": 52.4260423, "lon": 13.3587376, "tags": {"addr:city": "Berlin", "addr:country": "DE", "addr:housenumber": "74-100", "addr:postcode": "12249", "addr:street": "Malteserstraße", "addr:suburb": "Lankwitz", "amenity": "library", "name": "Universitätsarchiv", "opening_hours": "We,Th 09:00-16:00", "operator": "Universitätsbibliothek der Freien Universität Berlin", "operator:type": "university", "operator:wikidata": "Q2496344", "wheelchair": "yes"}}, {"type": "node", "id": 3478842465, "lat": 52.4943297, "lon": 13.3578235, "tags": {"access": "private", "amenity": "library", "name": "Schulbiblothek", "operator": "Sophie-Scholl-Oberschule"}}, {"type": "node", "id": 3518345658, "lat": 52.4327843, "lon": 13.1656465, "tags": {"addr:city": "Berlin", "addr:country": "DE", "addr:housenumber": "58", "addr:postcode": "14109", "addr:street": "Am Großen Wannsee", "addr:suburb": "Wannsee", "amenity": "library", "contact:email": "library@ghwk.de", "contact:phone": "+49 30 805 00120", "contact:website": "https://www.ghwk.de/de/bibliothek", "description": "Fachbibliothek zu: Geschichte und Kultur des europäischen Judentums, NS-Verfolgung und Ermordung der jüdischen Bevölkerung Europas und anderer Opfergruppen u.a.", "name": "Joseph Wulf Bibliothek", "opening_hours": "Mo-Fr 11:00-16:00; PH,Sa,Su off", "ref:isil": "DE-B1525"}}, {"type": "node", "id": 3806550974, "lat": 52.5202388, "lon": 13.3772992, "tags": {"access": "private", "addr:city": "Berlin", "addr:country": "DE", "addr:housenumber": "1", "addr:postcode": "10117", "addr:street": "Adele-Schreiber-Krieger-Straße", "amenity": "library", "contact:phone": "+49 30 22733073", "contact:website": "https://www.bundestag.de/dokumente/bibliothek", "name": "Bibliothek des Deutschen Bundestages", "name:de": "Bibliothek des Deutschen Bundestages", "name:en": "Library of the German Bundestag", "opening_hours": "\"nicht öffentlich zugänglich; nur auf Antrag\"", "operator": "Deutscher Bundestag", "operator:type": "government", "operator:wikidata": "Q154797", "ref:bik": "101286-1", "ref:dbs": "AK281", "ref:isil": "DE-281", "short_name": "Bundestagsbibliothek", "start_date": "1949", "wikidata": "Q856510", "wikimedia_commons": "Category:Bibliothek des Deutschen Bundestages", "wikipedia": "de:Bibliothek des Deutschen Bundestages"}}, {"type": "node", "id": 3837620248, "lat": 52.5037597, "lon": 13.3634291, "tags": {"addr:city": "Berlin", "addr:country": "DE", "addr:housenumber": "27", "addr:postcode": "10785", "addr:street": "Lützowstraße", "addr:suburb": "Tiergarten", "amenity": "library", "name": "Bibliothek Tiergarten-Süd", "opening_hours": "Mo-Fr 12:30-18:00", "website": "https://www.berlin.de/stadtbibliothek-mitte/bibliotheken/bibliothek-tiergarten-sued/", "wheelchair": "yes", "wikidata": "Q28681523"}}, {"type": "node", "id": 3952396497, "lat": 52.4921781, "lon": 13.2826514, "tags": {"addr:city": "Berlin", "addr:housenumber": "1", "addr:postcode": "14193", "addr:street": "Bismarckplatz", "amenity": "library", "name": "Umweltbibliothek", "operator": "Umweltbundesamt", "wikidata": "Q28737651"}}, {"type": "node", "id": 3981795844, "lat": 52.5649762, "lon": 13.5061185, "tags": {"addr:city": "Berlin", "addr:country": "DE", "addr:housenumber": "2", "addr:postcode": "13051", "addr:street": "Prerower Platz", "addr:suburb": "Neu-Hohenschönhausen", "amenity": "library", "contact:phone": "+49 30 92796410", "contact:website": "https://www.berlin.de/stadtbibliothek-lichtenberg/standorte/anna-seghers-bibliothek/", "name": "Anna-Seghers-Bibliothek", "opening_hours": "Mo, Tu 09:00-19:00; We 13:00-19:00; Th, Fr 09:00-18:00; Sa 09:00-13:00", "wheelchair": "yes", "wikidata": "Q28681426", "wikimedia_commons": "Category:Anna-Seghers-Bibliothek (Berlin)"}}, {"type": "node", "id": 4025920836, "lat": 52.3456192, "lon": 13.6329787, "tags": {"addr:city": "Zeuthen", "addr:housenumber": "6", "addr:postcode": "15738", "addr:street": "Platanenallee", "amenity": "library", "check_date": "2023-05-31", "level": "1", "name": "DESY Bibliothek", "name:de": "DESY Bibliothek", "name:en": "DESY Library", "opening_hours": "00:00-24:00 || Mo-Th 08:00-16:00 || Fr 08:00-14:00 open \"Circulation desk service\"", "phone": "+49 33762 77253", "ref:isil": "DE-B524", "url": "http://library-zeuthen.desy.de/", "website": "http://library-zeuthen.desy.de/", "wheelchair": "yes", "wikidata": "Q28738451"}}, {"type": "node", "id": 4097819347, "lat": 52.5628809, "lon": 13.0919715, "tags": {"amenity": "library", "contact:email": "bibliothek@falkensee.de", "contact:fax": "+49 3322 200991", "contact:phone": "+49 3322 22589", "contact:website": "https://www.stadtbibliothek-falkensee.de/", "name": "Stadtbibliothek Falkensee", "opening_hours": "Mo-Fr 11:00-18:00; We off; Sa 09:00-12:00", "toilets:wheelchair": "no", "wheelchair": "limited", "wikidata": "Q28681904"}}, {"type": "node", "id": 4114649179, "lat": 52.5067416, "lon": 13.383896, "tags": {"addr:city": "Berlin", "addr:country": "DE", "addr:housenumber": "8", "addr:postcode": "10963", "addr:street": "Niederkirchnerstraße", "addr:suburb": "Kreuzberg", "amenity": "library", "contact:facebook": "topographiedesterrors", "contact:instagram": "topographiedesterrors", "email": "bibliothek@topographie.de", "internet_access": "wlan", "name": "Bibliothek der Stiftung Topographie des Terrors", "opening_hours": "Mo-Fr 10:00-17:00", "phone": "+4930 254509-23", "website": "https://www.topographie.de/bibliothek/", "wheelchair": "yes", "wikidata": "Q28738920"}}, {"type": "node", "id": 4155022023, "lat": 52.6304956, "lon": 13.3192634, "tags": {"addr:city": "Glienicke/Nordbahn", "addr:country": "DE", "addr:housename": "Bibliothek", "addr:housenumber": "19", "addr:postcode": "16548", "addr:street": "Hauptstraße", "amenity": "library", "check_date": "2025-05-06", "name": "Erwachsenenbibliothek", "opening_hours": "Tu, Th 09:00-19:00; Fr 09:00-13:00", "phone": "+49 33056 69230", "website": "http://www.bibliothek-glienicke.eu/"}}, {"type": "node", "id": 4221527005, "lat": 52.5305537, "lon": 13.3859469, "tags": {"addr:city": "Berlin", "addr:country": "DE", "addr:housenumber": "118", "addr:postcode": "10115", "addr:street": "Invalidenstraße", "addr:suburb": "Mitte", "amenity": "library", "contact:email": "asa@ub.hu-berlin.de", "contact:phone": "+49 30 209366093", "contact:website": "https://www.ub.hu-berlin.de/de/standorte/zwbasienafrika", "description": "Zur Nutzung der Garderobenschränke bitte ein Vorhängeschloss mitbringen.", "internet_access": "yes", "internet_access:fee": "no", "level": "0", "name": "Zweigbibliothek Asien-/Afrikawissenschaften und Islamische Theologie", "opening_hours": "Mo-Fr 09:00-17:00", "operator": "Universitätsbibliothek der Humboldt-Universität zu Berlin", "operator:type": "university", "operator:wikidata": "Q1407819", "ref:isil": "DE-11-103", "short_name": "ZwB Asien-/Afrikawissenschaften und Islamische Theologie", "wheelchair": "yes"}}, {"type": "node", "id": 4271022996, "lat": 52.453258, "lon": 13.1429895, "tags": {"addr:city": "Berlin", "addr:housenumber": "2", "addr:postcode": "14089", "addr:street": "Sakrower Landstraße", "amenity": "library", "internet_access": "terminal", "level": "0", "name": "Stadtteilbibliothek Kladow", "opening_hours": "Mo,Th 13:00-19:00; Tu,We 13:00-17:00; Fr 09:00-15:00", "operator": "Stadtbibliothek Spandau", "phone": "+49 30 8161-5889", "toilets:wheelchair": "yes", "website": "http://www.berlin.de/stadtbibliothek-spandau/bibliotheken/kladow/artikel.182136.php", "wheelchair": "yes", "wikidata": "Q125306886"}}, {"type": "node", "id": 4432723694, "lat": 52.5331584, "lon": 13.419505, "tags": {"addr:city": "Berlin", "addr:housenumber": "227-228", "addr:postcode": "10405", "addr:street": "Prenzlauer Allee", "amenity": "library", "internet_access": "wlan", "name": "Bibliothek Am Wasserturm", "opening_hours": "Mo-Sa 08:00-22:00", "phone": "+49 30 902953921", "toilets": "yes", "toilets:access": "permissive", "toilets:wheelchair": "yes", "website": "https://www.berlin.de/stadtbibliothek-pankow/bibliotheken/bibliothek-am-wasserturm/", "wikidata": "Q110501434"}}, {"type": "node", "id": 4706616647, "lat": 52.4525785, "lon": 13.5189284, "tags": {"addr:city": "Berlin", "addr:housenumber": "5", "addr:postcode": "12439", "addr:street": "Britzer Straße", "amenity": "library", "books": "academic", "email": "bibliothek-sw@topographie.de", "fax": "+49 30 63 90 288 29", "internet_access": "yes", "internet_access:fee": "customers", "name": "Bibliothek", "operator": "Stiftung Topographie des Terrors", "operator:type": "public", "phone": "+49 30 63 90 288 23", "ref:isil": "DE-2401", "website": "https://www.ns-zwangsarbeit.de/bibliothek/", "wheelchair": "yes"}}, {"type": "node", "id": 4805428213, "lat": 52.5222118, "lon": 13.3308065, "tags": {"addr:city": "Berlin", "addr:housenumber": "1-2", "addr:postcode": "10555", "addr:street": "Levetzowstraße", "amenity": "library", "check_date:opening_hours": "2024-07-28", "email": "mf.info@senbjw.berlin.de", "fax": "+49 30 90 22 99-135", "name": "Medienforum Berlin", "opening_hours": "Mo,Tu 13:00-18:00; We 10:00-15:00; Th 13:00-18:00", "phone": "+49 30 90 22 99-111", "ref:isil": "DE-B1585", "website": "https://www.berlin.de/sen/bildung/unterricht/medien/medienforum/"}}, {"type": "node", "id": 4806499594, "lat": 52.5170943, "lon": 13.3427522, "tags": {"addr:city": "Berlin", "addr:housenumber": "15", "addr:postcode": "10557", "addr:street": "Altonaer Straße", "alt_name": "Hansa-Bücherei", "amenity": "library", "email": "service@stb-mitte.de", "name": "Hansabibliothek", "opening_hours": "Mo, Fr 13:00-19:30; Tu-Th 12:00-18:00; Sa 10:00-14:00", "phone": "+4930901832156", "toilets:wheelchair": "yes", "website": "https://www.berlin.de/stadtbibliothek-mitte/bibliotheken/hansabibliothek/", "wheelchair": "yes", "wikidata": "Q49677548", "wikimedia_commons": "Category:Hansabibliothek (Berlin)"}}, {"type": "node", "id": 4878247166, "lat": 52.5757651, "lon": 13.5745794, "tags": {"addr:city": "Ahrensfelde", "addr:country": "DE", "addr:housenumber": "1b", "addr:postcode": "16356", "addr:street": "Lindenberger Straße", "amenity": "library", "name": "Ortsteilbibliothek", "opening_hours": "Mo 10:00-12:00; Tu 15:00-19:00, Th 15:00-18:00; Sa[1] 10:00-12:00; PH off"}}, {"type": "node", "id": 5062614778, "lat": 52.521758, "lon": 13.3638336, "tags": {"access": "no", "amenity": "library", "description:de": "Bibiliotek des BMI", "indoor": "yes", "level": "1"}}, {"type": "node", "id": 5245440325, "lat": 52.5203781, "lon": 13.395109, "tags": {"addr:city": "Berlin", "addr:country": "DE", "addr:housenumber": "5", "addr:postcode": "10117", "addr:street": "Am Kupfergraben", "addr:suburb": "Mitte", "amenity": "library", "contact:email": "musikwissenschaften@ub.hu-berlin.de", "contact:phone": "+49 30 20932788", "contact:website": "https://www.ub.hu-berlin.de/de/standorte/zwbmusikwissenschaft", "internet_access": "yes", "internet_access:fee": "no", "name": "Zweigbibliothek Musikwissenschaft", "opening_hours": "Mo-Fr 10:00-18:00; Feb 17-Apr 10, PH Mo-Fr 10:00-16:00", "operator": "Universitätsbibliothek der Humboldt-Universität zu Berlin", "operator:type": "university", "operator:wikidata": "Q1407819", "ref:isil": "DE-11-128", "wheelchair": "yes"}}, {"type": "node", "id": 5275440213, "lat": 52.5416071, "lon": 13.6068282, "tags": {"addr:city": "Berlin", "addr:housenumber": "24", "addr:postcode": "12627", "addr:street": "Hellersdorfer Promenade", "amenity": "library", "email": "pwb-hellersdorf@peter-weiss-bibliothek.de", "internet_access": "terminal", "internet_access:fee": "no", "name": "Peter-Weiss-Bibliothek", "old_name": "Alternative Bibliothek Hellersdorf", "opening_hours": "Tu,We 14:00-18:00; PH off || \"nach Vereinbarung\"", "operator": "AGRARBÖRSE Deutschland Ost e.V.", "phone": "+49 30 99282525", "website": "https://www.peter-weiss-bibliothek.de/"}}, {"type": "node", "id": 5318467222, "lat": 52.5976675, "lon": 13.3523189, "tags": {"addr:city": "Berlin", "addr:housenumber": "142c", "addr:postcode": "13439", "addr:street": "Wilhelmsruher Damm", "amenity": "library", "fax": "+49 30 902943835", "name": "Bibliothek im Märkischen Viertel", "opening_hours": "Mo 13:00-19:00; Tu,We 11:00-17:00; Th 13:00-19:00; Fr 11:00-17:00", "operator": "Bezirksamt Reinickendorf Abteilung Bauen, Bildung und Kultur", "operator:type": "public", "phone": "+49 30 902943833", "website": "https://www.berlin.de/stadtbibliothek-reinickendorf/bibliotheken/bibliothek-im-maerkischen-viertel/bibliothek-im-maerkischen-viertel-im-fontane-haus-336916.php"}}, {"type": "node", "id": 5533888846, "lat": 52.5261622, "lon": 13.3801597, "tags": {"addr:city": "Berlin", "addr:country": "DE", "addr:housenumber": "11/12", "addr:postcode": "10115", "addr:street": "Philippstraße", "addr:suburb": "Mitte", "amenity": "library", "check_date:opening_hours": "2023-03-27", "internet_access": "wlan", "level": "0", "name": "Charité Medizinische Bibliothek Campus Mitte", "opening_hours": "Mo-Fr 09:00-20:00", "website": "https://bibliothek.charite.de/", "wikidata": "Q28738822"}}, {"type": "node", "id": 5643477411, "lat": 52.63544, "lon": 13.295141, "tags": {"addr:city": "Berlin", "addr:country": "DE", "addr:housenumber": "17", "addr:postcode": "13465", "addr:street": "Fuchssteinerweg", "addr:suburb": "Frohnau", "air_conditioning": "no", "amenity": "library", "check_date:opening_hours": "2025-04-06", "contact:email": "Bibliothek.Frohnau@gmail.com", "contact:fax": "+49 30 4010 9172", "contact:phone": "+49 30 4010 9171", "contact:website": "https://www.berlin.de/stadtbibliothek-reinickendorf/bibliotheken/stadtteilbibliothek-frohnau/artikel.336740.php", "internet_access": "wlan", "name": "Stadtteilbibliothek Frohnau", "opening_hours": "Mo 13:00-19:00; Tu 13:00-17:00; We off; Th 13:00-19:00; Fr 11:00-17:00", "wheelchair": "yes", "wikidata": "Q125306820"}}, {"type": "node", "id": 5735063971, "lat": 52.531583, "lon": 13.3262022, "tags": {"addr:city": "Berlin", "addr:country": "DE", "addr:housenumber": "32b", "addr:postcode": "10553", "addr:street": "Rostocker Straße", "addr:suburb": "Moabit", "amenity": "library", "name": "Kurt-Tucholsky-Bibliothek", "opening_hours": "Mo-Th 12:30-18:00; Fr,Sa,Su,PH off", "toilets:wheelchair": "yes", "website": "https://www.berlin.de/stadtbibliothek-mitte/bibliotheken/kurt-tucholsky-bibliothek/", "wheelchair": "yes", "wikidata": "Q108218674", "wikimedia_commons": "Category:Kurt-Tucholsky-Bibliothek (Berlin-Moabit)"}}, {"type": "node", "id": 5798364681, "lat": 52.5429259, "lon": 13.2390484, "tags": {"addr:city": "Berlin", "addr:country": "DE", "addr:housenumber": "104", "addr:postcode": "13599", "addr:street": "Gartenfelder Straße", "addr:suburb": "Haselhorst", "amenity": "library", "check_date": "2024-05-27", "contact:website": "https://www.berlin.de/stadtbibliothek-spandau/bibliotheken/haselhorst/stadtteilbibliothek-haselhorst-182097.php", "internet_access": "wlan", "internet_access:fee": "no", "name": "Stadtteilbibliothek Haselhorst", "opening_hours": "Mo,Th 13:00-19:00; Tu,We,Fr 13:00-17:00", "operator": "Bezirksamt Spandau von Berlin", "wheelchair": "yes", "wikidata": "Q125306883"}}, {"type": "node", "id": 5838369566, "lat": 52.4602755, "lon": 13.347826, "tags": {"amenity": "library", "internet_access": "yes", "name": "Patientenbibliothek", "opening_hours": "Mo,Tu,Fr 13:00-17:00; Th 15:00-18:00"}}, {"type": "node", "id": 5892784984, "lat": 52.3388643, "lon": 13.2741894, "tags": {"access": "private", "amenity": "library", "name": "Bibliothek", "operator": "Justizvollzugsanstalt Heidering"}}, {"type": "node", "id": 5977960159, "lat": 52.4769397, "lon": 13.4273818, "tags": {"addr:city": "Berlin", "addr:country": "DE", "addr:housenumber": "79", "addr:postcode": "12053", "addr:street": "Briesestraße", "amenity": "library", "check_date:opening_hours": "2022-12-21", "contact:phone": "+49 30 68975904", "name": "Bücherstube", "opening_hours": "Mo-Fr 08:00-14:00", "operator": "Berliner Gesellschaft für Integration mbH"}}, {"type": "node", "id": 6046124564, "lat": 52.520016, "lon": 13.3927337, "tags": {"access": "yes", "addr:city": "Berlin", "addr:country": "DE", "addr:housenumber": "24", "addr:postcode": "10117", "addr:street": "Dorotheenstraße", "addr:suburb": "Mitte", "air_conditioning": "yes", "amenity": "library", "check_date": "2025-06-25", "contact:website": "https://www.ub.hu-berlin.de/de/standorte/zwbgermanistik", "email": "germ@ub.hu-berlin.de", "internet_access": "wlan", "internet_access:fee": "students", "internet_access:ssid": "Eduroam", "level": "0;-1", "name": "Zweigbibliothek Germanistik", "name:de": "Zweigbibliothek Germanistik", "name:en": "Branch Library of German Studies", "note": "Zur Nutzung der Garderobenschränke bitte ein Vorhängeschloss mitbringen. Nutzung der Garderobenschränke ist nicht (mehr) verpflichtend.", "opening_hours": "Mo-Fr 09:30-19:00", "operator": "Universitätsbibliothek der Humboldt-Universität zu Berlin", "operator:type": "university", "operator:wikidata": "Q1407819", "phone": "+49 30 2093-9782", "ref:isil": "DE-11-105", "service:copy": "yes", "wheelchair": "yes"}}, {"type": "node", "id": 6275993185, "lat": 52.5140827, "lon": 13.3251316, "tags": {"addr:city": "Berlin", "addr:country": "DE", "addr:housenumber": "136", "addr:postcode": "10623", "addr:street": "Straße des 17. Juni", "addr:suburb": "Charlottenburg", "amenity": "library", "email": "library@math.tu-berlin.de", "internet_access": "wlan", "name": "Mathematische Fachbibliothek", "opening_hours": "Mo-Fr 08:00-21:00; Sa 10:00-18:00", "phone": "+49 30 314 22749", "website": "https://www.math.tu-berlin.de/mfb/mfb/"}}, {"type": "node", "id": 6508696687, "lat": 52.5242453, "lon": 13.2890223, "tags": {"addr:housenumber": "8-10", "addr:postcode": "14059", "addr:street": "Heubnerweg", "amenity": "library", "name": "ESCP Bibliothek am Campus Berlin", "name:en": "ESCP Library on Berlin Campus", "opening_hours": "Mo-Th 09:00-21:00; Fr 09:00-17:00"}}, {"type": "node", "id": 6720863485, "lat": 52.4478314, "lon": 13.2813366, "tags": {"addr:city": "Berlin", "addr:country": "DE", "addr:housenumber": "8", "addr:postcode": "14195", "addr:street": "Vant-Hoff-Straße", "addr:suburb": "Dahlem", "amenity": "library", "contact:phone": "+49 30 83852161", "contact:website": "https://www.jura.fu-berlin.de/bibliothek/", "name": "Bibliothek Rechtswissenschaft", "opening_hours": "Mo-Fr 09:00-22:00; Sa 09:00-20:00; Su 12:00-20:00", "operator": "Freie Universität Berlin", "operator:type": "university", "operator:wikidata": "Q2496344", "toilets:wheelchair": "yes", "wheelchair": "yes"}}, {"type": "node", "id": 6880841994, "lat": 52.5321836, "lon": 13.4107782, "tags": {"addr:city": "Berlin", "addr:country": "DE", "addr:housenumber": "18-19", "addr:postcode": "10119", "addr:street": "Christinenstraße", "addr:suburb": "Prenzlauer Berg", "amenity": "library", "name": "ICI Berlin", "phone": "+49 30 473 7291-10", "website": "https://www.ici-berlin.org/library/", "wheelchair": "yes", "wikidata": "Q28739236"}}, {"type": "node", "id": 6976235391, "lat": 52.5128877, "lon": 13.4103123, "tags": {"addr:city": "Berlin", "addr:housenumber": "16;18", "addr:postcode": "10179", "addr:street": "Märkisches Ufer", "amenity": "library", "contact:email": "kontakt@bpk-images.de", "contact:fax": "+49 30 27 87 92-39", "contact:phone": "+49 30 27 87 92-0", "contact:website": "https://www.bpk-bildagentur.de/", "description": "Abteilung der Staatsbibliothek zu Berlin", "name": "Bildagentur für Kunst, Kultur und Geschichte", "old_name": "Bildarchiv Preußischer Kulturbesitz", "opening_hours": "Mo-Fr 09:00-17:00", "operator": "Stiftung Preußischer Kulturbesitz", "ref:isil": "DE-1b", "short_name": "bpk", "wikidata": "Q860581", "wikimedia_commons": "Category:Prussian Heritage Image Archive", "wikipedia": "de:Bildagentur für Kunst, Kultur und Geschichte"}}, {"type": "node", "id": 7232178641, "lat": 52.5246239, "lon": 13.3920937, "tags": {"addr:city": "Berlin", "addr:housenumber": "10", "addr:postcode": "10117", "addr:street": "Johannisstraße", "amenity": "library", "email": "asa@ub.hu-berlin.de", "internet_access": "wlan", "internet_access:fee": "no", "level": "0", "name": "Teilbibliothek Japanologie", "opening_hours": "Mo-Th 10:00-15:30; Fr 10:00-14:00; Mar 6-31 off", "operator": "Universitätsbibliothek der Humboldt-Universität zu Berlin", "operator:type": "university", "operator:wikidata": "Q1407819", "phone": "+49 30 2093-66 130"}}, {"type": "node", "id": 7798570856, "lat": 52.5043465, "lon": 13.3283687, "tags": {"amenity": "library", "name": "Bibliothek der Jüdischen Gemeinde"}}, {"type": "node", "id": 8097837782, "lat": 52.3859756, "lon": 13.3980521, "tags": {"amenity": "library", "check_date": "2025-01-25", "name": "Katholische öffentliche Bücherei", "opening_hours": "\"Jeden 1. und 3. Sonntag im Monat von 9:30-12:30 Uhr geöffnet.\""}}, {"type": "node", "id": 8151138614, "lat": 52.5293637, "lon": 13.5928919, "tags": {"addr:city": "Berlin", "addr:country": "DE", "addr:housenumber": "5", "addr:postcode": "12619", "addr:street": "Neue Grottkauer Straße", "addr:suburb": "Hellersdorf", "amenity": "library", "level": "1", "name": "Stadtteilbibliothek Kaulsdorf", "opening_hours": "Mo,Tu,Th 12:00-19:00; We,Fr 09:00-13:00; Sa,Su,PH off", "source": "Geoportal Berlin / Hauskoordinaten", "website": "https://www.berlin.de/bibliotheken-mh/bibliotheken/stadtteilbibliothek-kaulsdorf-nord/", "wheelchair": "yes", "wheelchair:description": "Fahrstuhl vorhanden", "wikidata": "Q125306885"}}, {"type": "node", "id": 8435515108, "lat": 52.5224043, "lon": 13.1654101, "tags": {"addr:city": "Berlin", "addr:country": "DE", "addr:housenumber": "22F", "addr:postcode": "13593", "addr:street": "Obstallee", "addr:suburb": "Staaken", "amenity": "library", "contact:website": "https://www.berlin.de/stadtbibliothek-spandau/bibliotheken/heerstrasse/stadtteilbibliothek-heerstrasse-182099.php", "name": "Stadtteilbibliothek Heerstraße", "wikidata": "Q125306884"}}, {"type": "node", "id": 9067856748, "lat": 52.4385838, "lon": 13.5496155, "tags": {"addr:city": "Berlin", "addr:housenumber": "52", "addr:postcode": "12489", "addr:street": "Dörpfeldstraße", "amenity": "library", "check_date": "2024-04-01", "contact:phone": "+49 30 902975731", "contact:website": "https://www.berlin.de/stadtbibliothek-treptow-koepenick/bibliotheken/adlershof/", "email": "stadtbibliothek-adlershof@ba-tk.berlin.de", "level": "0", "name": "Stefan-Heym-Kinderbibliothek", "official_name": "Stadtteilbibliothek Adlershof ,,Stefan-Heym\" - Kinderbibliothek", "opening_hours": "Mo,We-Su off; Tu 11:00-18:00", "wheelchair": "yes"}}, {"type": "node", "id": 9077951933, "lat": 52.425675, "lon": 13.4620726, "tags": {"addr:city": "Berlin", "addr:country": "DE", "addr:housenumber": "1", "addr:postcode": "12353", "addr:street": "Bat-Yam-Platz", "addr:suburb": "Gropiusstadt", "amenity": "library", "contact:email": "gemeinschaftshaus@stadtbibliothek-neukoelln.de", "contact:phone": "+49 30 902391494", "contact:website": "https://www.gropiusstadt-berlin.de/einrichtungen-projekte/stadtteilbibliothek-im-gemeinschaftshaus", "name": "Gertrud-Junge-Bibliothek", "old_name": "Stadtteilbibliothek im Gemeinschaftshaus", "opening_hours": "Mo, Fr 11:00-15:00; Tu-Th 13:00-19:00", "wikidata": "Q125306843"}}, {"type": "node", "id": 9347421347, "lat": 52.4189356, "lon": 13.4943156, "tags": {"addr:city": "Berlin", "addr:country": "DE", "addr:housenumber": "45", "addr:postcode": "12357", "addr:street": "Alt-Rudow", "addr:suburb": "Rudow", "amenity": "library", "check_date:opening_hours": "2024-04-06", "contact:email": "rudow@stadtbibliothek-neukoelln.de", "contact:phone": "+49 30 902391940", "contact:website": "https://www.berlin.de/stadtbibliothek-neukoelln/bibliotheken/gertrud-hass-bibliothek/", "internet_access": "yes", "internet_access:fee": "no", "name": "Gertrud-Haß-Bibliothek", "opening_hours": "Mo,We,Fr 11:00-15:00; Tu,Th 13:00-18:00", "start_date": "2021-09", "wheelchair": "yes", "wikidata": "Q125306841"}}, {"type": "node", "id": 9481986710, "lat": 52.3496628, "lon": 13.1026797, "tags": {"amenity": "library", "contact:website": "https://www.nuthetal.de/verzeichnis/visitenkarte.php?mandat=3854", "entrance": "yes", "name": "Gemeindebibliothek", "opening_hours": "Mo 13:00-18:00; Tu 10:00-14:00; Fr 10:00-14:00", "wheelchair": "yes"}}, {"type": "node", "id": 9780942686, "lat": 52.5037159, "lon": 13.4230798, "tags": {"addr:city": "Berlin", "addr:country": "DE", "addr:housenumber": "2B", "addr:postcode": "10997", "addr:street": "Mariannenplatz", "addr:suburb": "Kreuzberg", "amenity": "library", "contact:website": "https://kollektivbibliothek.noblogs.org/", "name": "Kollektivbibliothek"}}, {"type": "node", "id": 10197004045, "lat": 52.5133684, "lon": 13.3240024, "tags": {"addr:housenumber": "152", "addr:postcode": "10623", "addr:street": "Straße des 17. Juni", "amenity": "library", "internet_access": "wlan", "name": "Bereichsbibliothek Architektur und Kunstwissenschaft", "opening_hours": "Mo-Fr 10:00-20:00", "phone": "+493031422414", "wheelchair": "yes"}}, {"type": "node", "id": 10864307445, "lat": 52.6686801, "lon": 13.3171765, "tags": {"amenity": "library", "check_date:opening_hours": "2023-12-01", "name": "Stadtbibliothek", "opening_hours": "Th-Fr 10:00-12:00,13:00-17:00; PH off", "operator": "Stadt Hohen Neuendorf", "website": "https://bibliothek.hohen-neuendorf.de/"}}, {"type": "node", "id": 11309948213, "lat": 52.5109671, "lon": 13.3240187, "tags": {"amenity": "library", "level": "2", "name": "Bereichsbibliothek Physik", "ref:isil": "DE-83-1022"}}, {"type": "node", "id": 11446515471, "lat": 52.5104545, "lon": 13.3212359, "tags": {"addr:housenumber": "125", "addr:postcode": "10625", "addr:street": "Schillerstraße", "amenity": "library", "name": "BIbliothek des Schiller-Gymnasiums", "name:en": "School library of the Schiller-Gymnasium", "name:fr": "CDI du lycée Schiller-Gymnasium", "opening_hours": "Mo-Fr 09:30-13:00", "website": "https://sgym.de/schulorganisation/schulbibliothek/"}}, {"type": "node", "id": 11585204402, "lat": 52.5698457, "lon": 13.1967881, "tags": {"access": "private", "amenity": "library", "name": "WiKo Bibliothek", "opening_hours": "24/7", "operator": "Evangelisches Johannesstift Berlin"}}, {"type": "node", "id": 11778098531, "lat": 52.4388718, "lon": 13.5497223, "tags": {"addr:housenumber": "54", "addr:street": "Dörpfeldstraße", "amenity": "library", "check_date": "2024-04-01", "contact:email": "stadtbibliothek-adlershof@ba-tk.berlin.de", "contact:phone": "+49 30 902975731", "contact:website": "https://www.berlin.de/stadtbibliothek-treptow-koepenick/bibliotheken/adlershof/", "name": "Stefan-Heym-Erwachsenenbibliothek", "official_name": "Stadtteilbibliothek Adlershof ,,Stefan-Heym\" - Erwachsenenbibliothek", "opening_hours": "Mo-We,Fr-Su off; Th 11:00-18:00"}}, {"type": "node", "id": 11805773403, "lat": 52.5079479, "lon": 13.526379, "tags": {"addr:city": "Berlin", "addr:housenumber": "60", "addr:postcode": "10315", "addr:street": "Alt-Friedrichsfelde", "addr:suburb": "Friedrichsfelde", "amenity": "library", "contact:phone": "+49 30 308 77- 25 98", "contact:website": "http://www.hwr-berlin.de/service/bibliothek/campus-lichtenberg/", "name": "HWR Bibliothek Campus Lichtenberg", "wheelchair": "yes", "wheelchair:description": "Behinderten-WC außerhalb der Bibliothek vorhanden, PC-Arbeitsplätze rollstuhlgerecht, Bücherregale auf der 1. Etage zu schmal, obere Regalreihe für rollstuhlfahrer zu hoch, keine automatische Türöffner.", "wikidata": "Q28738909"}}, {"type": "node", "id": 11929111653, "lat": 52.5114995, "lon": 13.3996858, "tags": {"amenity": "library", "wikidata": "Q2560329"}}, {"type": "node", "id": 12160416171, "lat": 52.4481214, "lon": 13.2777683, "tags": {"addr:city": "Berlin", "addr:country": "DE", "addr:housenumber": "39", "addr:postcode": "14195", "addr:street": "Garystraße", "addr:suburb": "Dahlem", "amenity": "library", "contact:website": "http://www.ub.fu-berlin.de", "internet_access": "wlan", "name": "Zentralbibliothek der Freien Universität Berlin", "name:de": "Zentralbibliothek der Freien Universität Berlin", "opening_hours": "Mo-Fr 09:00-20:00", "operator": "Universitätsbibliothek der Freien Universität Berlin", "operator:type": "university", "operator:wikidata": "Q2496344", "operator:wikipedia": "de:Universitätsbibliothek der Freien Universität Berlin", "ref:isil": "DE-188", "short_name": "UB", "source": "Geoportal Berlin / k5_2012_sw_sued.zip", "wheelchair": "limited", "wheelchair:description": "Vorraum über Ihnesstraße, Hillfe ev. durch Angestellte"}}, {"type": "node", "id": 12942410449, "lat": 52.526706, "lon": 13.3766422, "tags": {"amenity": "library", "name": "Patentenbibilothek"}}]}