{"version": 0.6, "generator": "Overpass API 0.7.62.8 e802775f", "osm3s": {"timestamp_osm_base": "2025-08-20T14:18:30Z", "copyright": "The data included in this document is from www.openstreetmap.org. The data is made available under ODbL."}, "elements": [{"type": "node", "id": 278540049, "lat": 52.553716, "lon": 13.3596119, "tags": {"addr:city": "Berlin", "addr:country": "DE", "addr:housenumber": "64", "addr:postcode": "13347", "addr:street": "Seestraße", "addr:suburb": "Wedding", "amenity": "university", "contact:phone": "+493045040", "name": "Forum Seestraße der BHT", "operator": "Berliner Hochschule für Technik", "website": "https://www.bht-berlin.de/fs", "wheelchair": "limited"}}, {"type": "node", "id": 516359399, "lat": 52.5116111, "lon": 13.3149908, "tags": {"addr:city": "Berlin", "addr:country": "DE", "addr:housenumber": "21", "addr:postcode": "12489", "addr:street": "Wagner-Régeny-Str.", "addr:suburb": "Charlottenburg", "amenity": "university", "contact:facebook": "https://www.facebook.com/bbwHochschule", "contact:instagram": "https://www.instagram.com/bbwhochschule/", "contact:linkedin": "https://www.linkedin.com/school/bbw-hochschule/", "contact:twitter": "https://twitter.com/bbwhochschule", "contact:xing": "https://www.xing.com/pages/bbwhochschule", "contact:youtube": "https://www.youtube.com/channel/UCTKIsljgiR_iXJwgtIrS0jw", "name": "bbw Hochschule", "name:en": "The bbw University", "phone": "+49 30 319909550", "website": "https://www.bbw-hochschule.de/", "wikidata": "Q812777", "wikipedia": "de:Bbw Hochschule"}}, {"type": "node", "id": 892568035, "lat": 52.5128521, "lon": 13.3892713, "tags": {"addr:city": "Berlin", "addr:country": "DE", "addr:housenumber": "180", "addr:postcode": "10117", "addr:street": "Friedrichstraße", "addr:suburb": "Mitte", "amenity": "university", "contact:fax": "+49 30 259219111", "contact:phone": "+49 30 2592190", "contact:website": "https://www.hertie-school.org/", "contact:youtube": "https://www.youtube.com/@TheHertieSchool", "internet_access": "wlan", "internet_access:fee": "no", "level": "1;2;3", "name": "Hertie School", "name:de": "Hertie School", "name:en": "Hertie School", "name:ko": "헤르티 스쿨", "name:zh": "赫尔蒂学院", "not:name": "Hertie School of Governance", "old_name": "Hertie School of Governance", "operator": "Hertie-Stiftung", "operator:type": "private_non_profit", "start_date": "2003", "wheelchair": "yes", "wikidata": "Q317156", "wikipedia": "de:Hertie School"}}, {"type": "node", "id": 1425160484, "lat": 52.4609534, "lon": 13.2939396, "tags": {"addr:city": "Berlin", "addr:country": "DE", "addr:housenumber": "20", "addr:postcode": "14195", "addr:street": "Koserstraße", "addr:suburb": "Dahlem", "alt_name": "Bauteil D", "amenity": "university", "check_date": "2025-03-07", "name": "FB Veterinärmedizin", "name:de": "FB Veterinärmedizin", "name:en": "Department of Veterinary Medicine", "operator": "Freie Universität Berlin", "short_name": "Veterinärmedizin", "short_name:en": "Veterinary Medicine"}}, {"type": "node", "id": 1425160485, "lat": 52.4616094, "lon": 13.2937859, "tags": {"addr:city": "Berlin", "addr:country": "DE", "addr:housenumber": "20", "addr:postcode": "14195", "addr:street": "Koserstraße", "addr:suburb": "Dahlem", "alt_name": "Friedrich-Meinecke-Institut für Geschichtswissenschaften", "alt_name_1": "Bauteil A", "amenity": "university", "check_date": "2025-03-07", "contact:website": "http://www.geschkult.fu-berlin.de/e/fmi/", "name": "FB Geschichts- und Kulturwissenschaften", "name:en": "Friedrich Meinecke Institute for Historical Research", "operator": "Freie Universität Berlin", "short_name": "Geschichte", "short_name:en": "History", "wheelchair": "limited"}}, {"type": "node", "id": 1425160486, "lat": 52.4612833, "lon": 13.2942022, "tags": {"addr:city": "Berlin", "addr:country": "DE", "addr:housenumber": "20", "addr:postcode": "14195", "addr:street": "Koserstraße", "addr:suburb": "Dahlem", "alt_name": "Kunsthistorisches Institut", "alt_name_1": "Bauteil B", "amenity": "university", "check_date": "2025-03-07", "contact:website": "http://www.gsta.spk-berlin.de/", "name": "FB Geschichts- und Kulturwissenschaften", "name:en": "Art History Department", "operator": "Freie Universität Berlin", "short_name": "Kunstgeschichte", "short_name:en": "Art History"}}, {"type": "node", "id": 1552071417, "lat": 52.5242273, "lon": 13.392283, "tags": {"addr:city": "Berlin", "addr:country": "DE", "addr:housenumber": "11", "addr:postcode": "10117", "addr:street": "Tucholskystraße", "addr:suburb": "Mitte", "amenity": "university", "check_date": "2024-06-24", "name": "Paritätische Akademie Berlin gGmbH", "toilets:wheelchair": "yes", "url": "http://www.akademie.org", "wheelchair": "yes"}}, {"type": "node", "id": 1590332395, "lat": 52.5164279, "lon": 13.4032794, "tags": {"amenity": "university", "name": "Hochschule für Musik Hanns Eisler Berlin", "name:zh": "音樂大學", "website": "https://www.hfm-berlin.de/", "wikidata": "Q569460", "wikipedia": "de:Hochschule für Musik „Hanns Eisler“ Berlin"}}, {"type": "node", "id": 1632937492, "lat": 52.4572416, "lon": 13.5269397, "tags": {"addr:city": "Berlin", "addr:country": "DE", "addr:housename": "Raum: C 610", "addr:housenumber": "75 A", "addr:postcode": "12459", "addr:street": "Wilhelminenhofstraße", "addr:suburb": "Oberschöneweide", "amenity": "university", "name": "HTW Berlin, Campus Wilhelminenhof, Geb. C (Computermuseum)", "opening_hours": "\"nach Vereinbarung\"", "operator": "HTW", "toilets:wheelchair": "yes", "wheelchair": "yes"}}, {"type": "node", "id": 1701292971, "lat": 52.4798357, "lon": 13.4394354, "tags": {"addr:city": "Berlin", "addr:country": "DE", "addr:housenumber": "44", "addr:postcode": "12043", "addr:street": "Donaustraße", "addr:suburb": "Neukölln", "alt_name": "CODE Berlin", "amenity": "university", "contact:email": "hello@code.berlin", "contact:phone": "+49 30 120 859 61", "contact:website": "https://code.berlin", "name": "CODE University of Applied Sciences", "operator": "CODE Education GmbH", "website": "https://code.berlin", "wikidata": "Q40387612", "wikipedia": "de:CODE University of Applied Sciences"}}, {"type": "node", "id": 2175035189, "lat": 52.5060988, "lon": 13.3787343, "tags": {"addr:city": "Berlin", "addr:country": "DE", "addr:housenumber": "3-5", "addr:postcode": "10963", "addr:street": "Dessauer Straße", "addr:suburb": "Kreuzberg", "amenity": "university", "contact:website": "https://www.ue-germany.com", "name": "Hochschule für Angewandte Wissenschaften Europa", "name:en": "University of Applied Sciences Europe", "old_name": "Hochschule für Gestaltung", "operator": "University of Applied Sciences Europe GmbH", "operator:type": "private", "short_name": "UE"}}, {"type": "node", "id": 2820026576, "lat": 52.4318038, "lon": 13.5338379, "tags": {"addr:city": "Berlin", "addr:country": "DE", "addr:housenumber": "18", "addr:postcode": "12489", "addr:street": "Rudower Chaussee", "addr:suburb": "Adlershof", "amenity": "university", "contact:website": "https://www.psychologie.hu-berlin.de/", "department": "psychology", "name": "Institut für Psychologie (HU)", "operator": "Humboldt-Universität zu Berlin", "wheelchair": "yes"}}, {"type": "node", "id": 3417573998, "lat": 52.4612333, "lon": 13.2945561, "tags": {"addr:city": "Berlin", "addr:country": "DE", "addr:housenumber": "20", "addr:postcode": "14195", "addr:street": "Koserstraße", "addr:suburb": "Dahlem", "alt_name": "Bauteil B", "amenity": "university", "check_date": "2025-03-07", "name": "FB Veterinärmedizin", "operator": "Freie Universität Berlin"}}, {"type": "node", "id": 3428289482, "lat": 52.4482831, "lon": 13.27733, "tags": {"addr:city": "Berlin", "addr:country": "DE", "addr:housenumber": "35-39", "addr:postcode": "14195", "addr:street": "Garystraße", "addr:suburb": "Dahlem", "alt_name": "Center für Digitale Systeme", "amenity": "university", "name": "CeDiS", "operator": "Freie Universität Berlin"}}, {"type": "node", "id": 3459210437, "lat": 52.4523204, "lon": 13.2917388, "tags": {"addr:city": "Berlin", "addr:country": "DE", "addr:housenumber": "45", "addr:postcode": "14195", "addr:street": "Habelschwerdter Allee", "addr:suburb": "Dahlem", "alt_name": "Silberlaube", "amenity": "university", "name": "Technische Abteilung - Referat III D", "operator": "Freie Universität Berlin", "toilets:wheelchair": "yes", "wheelchair": "yes"}}, {"type": "node", "id": 4007032901, "lat": 52.5407517, "lon": 13.3860747, "tags": {"addr:city": "Berlin", "addr:postcode": "13355", "addr:street": "Gustav-Meyer-Allee", "amenity": "university", "check_date": "2023-06-15", "name": "TU Berlin Fachgebiet Kraftfahrzeuge", "operator": "Technische Universität Berlin", "website": "https://www.kfz.tu-berlin.de/", "wheelchair": "yes"}}, {"type": "node", "id": 4007032904, "lat": 52.5409758, "lon": 13.3852139, "tags": {"addr:city": "Berlin", "addr:country": "DE", "addr:housenumber": "25", "addr:postcode": "13355", "addr:street": "Gustav-Meyer-Allee", "addr:suburb": "Gesundbrunnen", "amenity": "university", "check_date": "2023-06-15", "name": "TU Berlin Institut für Bauingenieurwesen", "operator": "Technische Universität Berlin", "website": "https://www.bau.tu-berlin.de/", "wheelchair": "yes"}}, {"type": "node", "id": 4198545324, "lat": 52.512124, "lon": 13.3877126, "tags": {"addr:city": "Berlin", "addr:housenumber": "60", "addr:postcode": "10117", "addr:street": "Mohrenstraße", "amenity": "university", "name": "Großbritannien-Zentrum", "name:de": "Großbritannien-Zentrum", "name:en": "Centre for British Studies", "operator": "Humboldt-Universität zu Berlin", "toilets:wheelchair": "no", "website": "https://www.gbz.hu-berlin.de", "wheelchair": "yes", "wikidata": "Q1548081", "wikipedia": "de:Großbritannien-Zentrum"}}, {"type": "node", "id": 4752986351, "lat": 52.5203069, "lon": 13.3939818, "tags": {"addr:city": "Berlin", "addr:housenumber": "47", "addr:postcode": "10117", "addr:street": "Georgenstraße", "amenity": "university", "internet_access": "yes", "name": "Institut für Kulturwissenschaft", "operator": "Humboldt Universität zu Berlin", "wheelchair": "yes"}}, {"type": "node", "id": 4868588243, "lat": 52.5202537, "lon": 13.3940633, "tags": {"addr:city": "Berlin", "addr:housenumber": "47", "addr:postcode": "10117", "addr:street": "Georgenstraße", "amenity": "university", "internet_access": "yes", "name": "Zentrum für Transdisziplinäre Geschlechterforschung", "operator": "Humboldt Universität zu Berlin", "wheelchair": "yes"}}, {"type": "node", "id": 4868588244, "lat": 52.5203005, "lon": 13.3941618, "tags": {"addr:city": "Berlin", "addr:housenumber": "47", "addr:postcode": "10117", "addr:street": "Georgenstraße", "amenity": "university", "internet_access": "yes", "name": "Fachgebiet Medienwissenschaft", "operator": "Humboldt Universität zu Berlin", "wheelchair": "yes"}}, {"type": "node", "id": 4868588245, "lat": 52.5203586, "lon": 13.3940729, "tags": {"addr:city": "Berlin", "addr:housenumber": "47", "addr:postcode": "10117", "addr:street": "Georgenstraße", "amenity": "university", "internet_access": "yes", "name": "Institut für Kunst- und Bildgeschichte", "operator": "Humboldt Universität zu Berlin", "wheelchair": "yes"}}, {"type": "node", "id": 5374911182, "lat": 52.5126144, "lon": 13.3953491, "tags": {"amenity": "university", "name": "HU-Institut für Europäische Ethnologie", "name:de": "HU-Institut für Europäische Ethnologie", "name:en": "HU Institute of European Ethnology", "website": "https://www.euroethno.hu-berlin.de", "wheelchair": "limited"}}, {"type": "node", "id": 5761214192, "lat": 52.5062237, "lon": 13.3785736, "tags": {"addr:city": "Berlin", "addr:country": "DE", "addr:housenumber": "3-5", "addr:postcode": "10963", "addr:street": "Dessauer Straße", "addr:suburb": "Kreuzberg", "amenity": "university", "contact:website": "https://design.htk-ak.de/en/berlin", "name": "Akademie für Gestaltung", "name:en": "Academy of Design", "operator": "HTK GmbH", "short_name": "HTK"}}, {"type": "node", "id": 5901612622, "lat": 52.5237379, "lon": 13.4860555, "tags": {"addr:city": "Berlin", "addr:housenumber": "1", "addr:postcode": "10367", "addr:street": "Vulkanstraße", "amenity": "university", "internet_access": "wlan", "name": "DHGS Deutsche Hochschule für Gesundheit und Sport", "operator": "DHGS Deutsche Hochschule für Gesundheit und Sport GmbH", "phone": "+493057797370", "website": "https://www.dhgs-hochschule.de", "wikidata": "Q1622185", "wikimedia_commons": "Category:Hochschule für Gesundheit & Sport, Technik & Kunst", "wikipedia": "de:Deutsche Hochschule für Gesundheit und Sport"}}, {"type": "node", "id": 6884243546, "lat": 52.3888479, "lon": 13.1197939, "tags": {"addr:city": "Potsdam", "addr:country": "DE", "addr:housenumber": "26-53", "addr:postcode": "14482", "addr:street": "August-Bebel-Straße", "addr:suburb": "Babelsberg Süd", "amenity": "university", "capacity": "40", "contact:email": "hello@xu-university.com", "contact:facebook": "https://de-de.facebook.com/XUuniversity", "contact:fax": "+49 30 959 999 994", "contact:instagram": "https://www.instagram.com/xu_university/", "contact:linkedin": "https://www.linkedin.com/school/xu-university/", "contact:phone": "+49 30 959 999991", "contact:pinterest": "https://www.pinterest.de/xu_exponential_university/", "contact:twitter": "https://twitter.com/xu_university", "contact:website": "https://xu-university.com/", "contact:youtube": "https://www.youtube.com/channel/UC8qc-2T8hHQcgb2sU4TMECQ", "isced:level": "5", "name": "XU Exponential University of Applied Sciences", "operator": "XU Exponential University of Applied Sciences GmbH", "operator:type": "business", "ref:vatin": "DE304974477", "short_name": "XU", "wikidata": "Q60867576"}}, {"type": "node", "id": 6985071469, "lat": 52.4424249, "lon": 13.5074488, "tags": {"addr:city": "Berlin", "addr:country": "DE", "addr:housenumber": "10", "addr:postcode": "12487", "addr:street": "Köpenicker Straße", "addr:suburb": "Johannisthal", "amenity": "university", "contact:phone": "+49 30 6360457", "contact:website": "https://kh-berlin.de/hochschule/standorte/bronzegiesserei-johannisthal.html", "description": "Außenstelle der Freien Kunst / Fachgebiet Bildhauerei & Bronzegießerei der Kunsthochschule Weißensee", "internet_access": "yes", "internet_access:fee": "no", "name": "Bronzegießerei Johannisthal", "operator": "Kunsthochschule Berlin Weißensee", "operator:type": "public", "website": "https://kh-berlin.de/hochschule/standorte/bronzegiesserei-johannisthal"}}, {"type": "node", "id": 7298859535, "lat": 52.4789373, "lon": 13.5003063, "tags": {"amenity": "university", "check_date": "2024-11-02", "isced:level": "5", "name": "Catalyst Institute For Creative Arts & Technology", "opening_hours": "Mo-Sa 10:00-22:00", "phone": "+49 +493029009052", "website": "https://catalyst-berlin.com/", "wheelchair": "limited"}}, {"type": "node", "id": 9290844955, "lat": 52.515954, "lon": 13.3279953, "tags": {"addr:city": "Berlin", "addr:housenumber": "6", "addr:postcode": "10587", "addr:street": "Salzufer", "amenity": "university", "internet_access": "wlan", "name": "Berlin International University of Applied Sciences", "operator": "BAU Higher Education Service gGmbH", "operator:type": "private", "website": "https://www.berlin-international.de/"}}, {"type": "node", "id": 9293478134, "lat": 52.4570661, "lon": 13.2944942, "tags": {"addr:city": "Berlin", "addr:housenumber": "39", "addr:postcode": "14195", "addr:street": "Takustraße", "amenity": "university", "internet_access": "yes", "internet_access:fee": "customers", "internet_access:ssid": "eduroam", "name": "E-Examination Center 2", "operator": "Freie Universität Berlin", "website": "https://www.e-examinations.fu-berlin.de/"}}, {"type": "node", "id": 9710759321, "lat": 52.5819258, "lon": 13.2880738, "tags": {"addr:city": "Berlin", "addr:country": "DE", "addr:housenumber": "162", "addr:postcode": "13507", "addr:street": "Am Borsigturm", "addr:suburb": "Tegel", "amenity": "university", "contact:website": "http://guc-berlin.de/", "name": "German University in Cairo", "short_name": "GUC"}}, {"type": "node", "id": 9775768261, "lat": 52.5385815, "lon": 13.4133919, "tags": {"addr:city": "Berlin", "addr:country": "DE", "addr:housenumber": "36", "addr:postcode": "10435", "addr:street": "Schönhauser Allee", "addr:suburb": "Prenzlauer Berg", "amenity": "university", "contact:website": "https://www.nyu.edu/berlin.html", "name": "New York University"}}, {"type": "node", "id": 10023532185, "lat": 52.5126159, "lon": 13.3954281, "tags": {"addr:city": "Berlin", "addr:housenumber": "40/41", "addr:postcode": "10117", "addr:street": "Mohrenstraße", "amenity": "university", "name": "Sonderforschungsbereich 1412 „Register“", "name:de": "Sonderforschungsbereich 1412 „Register“", "name:en": "Collaborative Research Center 1412 \"Register\"", "website": "https://sfb1412.hu-berlin.de/"}}, {"type": "node", "id": 10168302540, "lat": 52.4320598, "lon": 13.5343539, "tags": {"addr:city": "Berlin", "addr:country": "DE", "addr:housenumber": "16", "addr:postcode": "12489", "addr:street": "Rudower Chaussee", "amenity": "university", "contact:email": "direktor.geographie@geo.hu-berlin.de", "contact:website": "https://www.geographie.hu-berlin.de/", "department": "geography", "internet_access": "yes", "name": "Geographisches Institut", "operator": "Humboldt-Universität zu Berlin", "operator:type": "university", "university": "institute"}}, {"type": "node", "id": 10606145962, "lat": 52.5752702, "lon": 13.3994035, "tags": {"amenity": "university", "name": "Humanistische Hochschule Berlin", "website": "https://humanistische-hochschule-berlin.de/", "wikidata": "Q115973023", "wikipedia": "de:Humanistische Hochschule Berlin"}}, {"type": "node", "id": 11025773384, "lat": 52.5041961, "lon": 13.3301295, "tags": {"addr:city": "Berlin", "addr:housenumber": "21", "addr:postcode": "10719", "addr:street": "Kurfürstendamm", "amenity": "university", "email": "campus.berlin@fernuni-hagen.de", "level": "3", "name": "FernUniversität in Hagen – Campus Berlin", "opening_hours": "Mo-Fr 10:00-18:00; Sa 10:00-13:00", "operator": "FernUniversität in Hagen", "operator:type": "public", "operator:wikidata": "Q687017", "phone": "+49 30 21230918", "website": "https://www.fernuni-hagen.de/stz/berlin/", "wheelchair": "yes"}}, {"type": "node", "id": 11382127629, "lat": 52.4569735, "lon": 13.3159929, "tags": {"addr:city": "Berlin", "addr:housenumber": "12", "addr:postcode": "12165", "addr:street": "Rothenburgstraße", "amenity": "university", "name": "Fachgebiet Pflanzenökologie", "operator": "Institut für Ökologie, Technische Universität Berlin", "operator:type": "public", "website": "https://www.tu.berlin/oekosys"}}, {"type": "node", "id": 12618088876, "lat": 52.4570796, "lon": 13.3153537, "tags": {"addr:city": "Berlin", "addr:housenumber": "12", "addr:postcode": "12165", "addr:street": "Schmidt-Ott-Straße", "amenity": "university", "name": "Fachgebiet Klimatologie", "operator": "Technische Universität Berlin", "operator:type": "public", "website": "https://www.tu.berlin/klima"}}]}