{"version": 0.6, "generator": "Overpass API 0.7.62.8 e802775f", "osm3s": {"timestamp_osm_base": "2025-08-20T14:18:30Z", "copyright": "The data included in this document is from www.openstreetmap.org. The data is made available under ODbL."}, "elements": [{"type": "node", "id": 73696610, "lat": 52.5076051, "lon": 13.3629858, "tags": {"addr:housenumber": "13-14", "addr:street": "Stauffenbergstraße", "email": "sekretariat@gdw-berlin.de", "fee": "no", "image": "http://commons.wikimedia.org/wiki/File:Bendelerblock.jpg", "name": "Gedenkstätte Deutscher Widerstand", "name:en": "Memorial to the German Resistance", "name:fr": "Memorial de la Résistance Allemande", "name:ru": "Мемориал Немецкого Сопротивления", "opening_hours": "Mo-Fr 09:00-18:00; Sa-Su 10:00-18:00", "phone": "+49 30 26995000", "tourism": "museum", "website": "https://www.gdw-berlin.de/", "wheelchair": "limited", "wikidata": "Q880798", "wikimedia_commons": "Category:Gedenkstätte Deutscher Widerstand", "wikipedia": "de:Gedenkstätte Deutscher Widerstand"}}, {"type": "node", "id": 84644782, "lat": 52.5048708, "lon": 13.3822143, "tags": {"addr:city": "Berlin", "addr:housenumber": "90", "addr:postcode": "10963", "addr:street": "Stresemannstraße", "addr:suburb": "Kreuzberg", "fee": "no", "name": "Dokumentationszentrum Flucht, Vertreibung, Versöhnung", "opening_hours": "Tu-Su 10:00-19:00; Mo off", "phone": "+49 30 20629980", "toilets:wheelchair": "yes", "tourism": "museum", "website": "https://www.flucht-vertreibung-versoehnung.de/", "wheelchair": "yes", "wikimedia_commons": "File:Stiftung Flucht, Vertreibung, Versöhnung.jpg", "wikipedia": "de:Stiftung Flucht, Vertreibung, Versöhnung"}}, {"type": "node", "id": 259855486, "lat": 52.5104752, "lon": 13.4327651, "tags": {"addr:city": "Berlin", "addr:country": "DE", "addr:housenumber": "3", "addr:postcode": "10243", "addr:street": "Koppenstraße", "addr:suburb": "Friedrichshain", "check_date": "2024-04-14", "email": "info@s-bahn-museum.de", "fee": "yes", "fee:icom_member": "unknown", "museum": "railway", "name": "Berliner S-Bahn-Museum", "opening_hours": "We 12:00-16:00, Th,Fr 15:00-20:00, Su 14:00-18:00", "operator": "Berliner S-Bahn-Museum gGmbH", "phone": "+49 173 1665319", "tourism": "museum", "website": "https://s-bahn-museum.de/", "wheelchair": "yes"}}, {"type": "node", "id": 262973921, "lat": 52.412992, "lon": 13.7516622, "tags": {"name": "Heimatmuseum Erkner", "note": "\"Museumshof am Sonnenluch\"", "toilets:wheelchair": "no", "tourism": "museum", "website": "https://www.heimatverein-erkner.de/", "wheelchair": "no", "wikidata": "Q76632752"}}, {"type": "node", "id": 262987906, "lat": 52.4187724, "lon": 13.7547511, "tags": {"addr:city": "Erkner", "addr:country": "DE", "addr:housenumber": "1-2", "addr:postcode": "15537", "addr:street": "Gerhart-Hauptmann-Straße", "email": "info@hauptmannmuseum.de", "name": "Gerhart-Hauptmann-Museum", "opening_hours": "Mo-Su 11:00-17:00", "phone": "+49 3362 3663", "toilets:wheelchair": "no", "tourism": "museum", "website": "http://www.gerhart-hauptmann.de/Museum_Erkner", "wheelchair": "no", "wikidata": "Q1509331", "wikipedia": "de:Gerhart-Hauptmann-Museum (Erkner)"}}, {"type": "node", "id": 268591806, "lat": 52.4583565, "lon": 13.2889441, "tags": {"fee": "yes", "fee:icom_member": "no", "museum": "open_air", "name": "Das Museum der Domäne Dahlem", "opening_hours": "Mo-Su 10:00-18:00; Th off", "tourism": "museum", "website": "https://www.domaene-dahlem.de/home/", "wheelchair": "limited", "wheelchair:description": "Im Hof Kopfsteinpflaster, Läden teilweise mit Stufen"}}, {"type": "node", "id": 281391655, "lat": 52.5145073, "lon": 13.487485, "tags": {"addr:city": "Berlin", "addr:country": "DE", "addr:housenumber": "103", "addr:postcode": "10365", "addr:street": "Ruschestraße", "addr:suburb": "Lichtenberg", "alt_name": "Forschungs- und Gedenkstätte Normannenstraße", "check_date": "2025-01-26", "contact:email": "info@stasimuseum.de", "contact:fax": "+49 30 55368-53", "contact:phone": "+49 30 55368-54", "contact:website": "https://www.stasimuseum.de/", "entrance": "main", "fee": "yes", "fee:icom_member": "yes", "museum": "history", "name": "Stasimuseum", "name:de": "Stasimuseum", "name:en": "Stasi Museum", "name:nl": "Stasimuseum", "name:pl": "Muzeum Stasi w Berlinie", "name:zh": "史戴西博物館", "opening_hours": "Mo-Fr 10:00-18:00; Sa-Su 11:00-18:00", "operator": "ASTAK e.V.", "operator:type": "private_non_profit", "tourism": "museum", "wheelchair": "yes", "wheelchair:description": "Barrierefreier Zugang über den Seiteneingang, Fahrstuhl und rollstuhlgerechte Toilette vorhanden", "wikidata": "Q570472", "wikimedia_commons": "Category:Stasimuseum, Berlin", "wikipedia": "de:Forschungs- und Gedenkstätte Normannenstraße"}}, {"type": "node", "id": 292700476, "lat": 52.5863068, "lon": 13.2863134, "tags": {"addr:city": "Berlin", "addr:country": "DE", "addr:housenumber": "5", "addr:postcode": "13507", "addr:street": "Veitstraße", "addr:suburb": "Tegel", "charge": "5.00 EUR", "email": "info@feuerwehrmuseum-berlin.de", "fax": "+49 30 38710969", "fee": "yes", "fee:icom_member": "unknown", "museum": "history", "name": "Feuerwehrmuseum Berlin", "name:de": "Feuerwehrmuseum Berlin", "name:en": "Fire Departnent Museum Berlin", "name:nl": "Brandweermuseum Berlijn", "opening_hours": "Tu,Th 09:00-16:00, We 09:00-19:00, Fr,Sa 10:00-13:00; Mo,Su,PH off; Dec 24-Jan 01,easter - 2 days-easter + 1 day,easter + 48 days-easter + 50 days off", "phone": "+49 30 38710933", "start_date": "1983", "tourism": "museum", "website": "https://www.feuerwehrmuseum-berlin.de/", "wheelchair": "no", "wikidata": "Q1410037", "wikimedia_commons": "Category:Feuerwehrmuseum Berlin", "wikipedia": "de:Feuerwehrmuseum Berlin"}}, {"type": "node", "id": 292738889, "lat": 52.5099308, "lon": 13.3872552, "tags": {"addr:city": "Berlin", "addr:country": "DE", "addr:housenumber": "16", "addr:postcode": "10117", "addr:street": "Leipziger Straße", "addr:suburb": "Mitte", "check_date": "2023-10-21", "fee": "no", "fee:icom_member": "no", "internet_access": "wlan", "internet_access:fee": "customers", "name": "Museum für Kommunikation", "name:en": "Communication Museum Berlin", "name:nl": "Communicatiemuseum Berlijn", "name:ru": "Музей связи", "opening_hours": "Tu 09:00-20:00; We-Fr 09:00-17:00; Sa-Su 10:00-18:00; PH 10:00-18:00", "phone": "+49 30 202940", "toilets:wheelchair": "yes", "tourism": "museum", "website": "https://www.mfk-berlin.de/", "wheelchair": "yes", "wikidata": "Q1271054", "wikimedia_commons": "Category:Museum für Kommunikation Berlin", "wikipedia": "de:Museum für Kommunikation Berlin"}}, {"type": "node", "id": 297049901, "lat": 52.4453638, "lon": 13.5790965, "tags": {"fee": "no", "name": "Heimatmuseum Köpenick", "name:de": "Heimatmuseum Köpenick", "name:en": "Köpenick Native Country Museum", "name:nl": "Vaderlandmuseum Köpenick", "opening_hours": "Tu,We 10:00-16:00; Th 10:00-18:00; Su 14:00-18:00", "tourism": "museum", "wheelchair": "no", "wikidata": "Q76632446"}}, {"type": "node", "id": 335860469, "lat": 52.4606001, "lon": 13.2929563, "tags": {"name": "Ethnologisches Museum", "name:en": "Ethnology Museum", "name:nl": "Volkenkundemuseum", "toilets:wheelchair": "yes", "tourism": "museum", "wheelchair": "limited"}}, {"type": "node", "id": 340388625, "lat": 52.5087884, "lon": 13.378434, "tags": {"addr:city": "Berlin", "addr:country": "DE", "addr:housenumber": "7", "addr:postcode": "10117", "addr:street": "Leipziger Platz", "addr:suburb": "Mitte", "contact:phone": "+49 30 200090300", "contact:website": "https://www.deutschlandmuseum.de/", "fee": "yes", "fee:icom_member": "no", "museum": "history", "name": "Deutschlandmuseum", "opening_hours": "Mo-Su 10:00-20:00", "operator": "Betreibergesellschaft Deutschland Museum DM GmbH", "operator:type": "private", "start_date": "2023-06-17", "toilets:wheelchair": "yes", "tourism": "museum", "wheelchair": "yes", "wikidata": "Q120122369", "wikipedia": "de:Deutschlandmuseum"}}, {"type": "node", "id": 344381412, "lat": 52.5412184, "lon": 13.2138542, "tags": {"addr:city": "Berlin", "addr:country": "DE", "addr:housenumber": "64", "addr:postcode": "13599", "addr:street": "Am Juliusturm", "addr:suburb": "Haselhorst", "blind:description:de": "In der Spandauer Zitadelle gibt es Führungen für Blinde und Sehgeschädigte, siehe http://www.absv.de/freizeit/verteidigungsgaenge.htm .", "contact:website": "https://www.zitadelle-berlin.de/museen/enthullt/", "fee": "yes", "fee:icom_member": "no", "museum": "museum", "name": "Enthüllt. Berlin und seine Denkmäler", "opening_hours": "We-Fr 10:00-17:00; Th 13:00-20:00", "operator": "Kulturamt Spandau", "operator:type": "public", "tourism": "museum"}}, {"type": "node", "id": 355500002, "lat": 52.4204028, "lon": 13.3684502, "tags": {"addr:city": "Berlin", "addr:country": "DE", "addr:housenumber": "66/80", "addr:postcode": "12277", "addr:street": "Marienfelder Allee", "addr:suburb": "Marienfelde", "fee": "no", "name": "Erinnerungsstätte Notaufnahmelager Marienfelde", "phone": "+49 30 75008400", "tourism": "museum", "website": "https://www.notaufnahmelager-berlin.de/", "wheelchair": "yes", "wikidata": "Q882022", "wikipedia": "de:Notaufnahmelager Marienfelde"}}, {"type": "node", "id": 369037135, "lat": 52.5460206, "lon": 13.3479549, "tags": {"addr:city": "Berlin", "addr:housenumber": "21", "addr:postcode": "13353", "addr:street": "Brüsseler Straße", "contact:facebook": "antikriegsmuseum", "contact:instagram": "antikriegsmuseum_berlin", "email": "info@anti-kriegs-museum.de", "facebook": "https://www.facebook.com/antikriegsmuseum/", "fee": "no", "instagram": "https://www.instagram.com/antikriegsmuseum_berlin/", "name": "Anti-Kriegs-Museum", "name:en": "Anti War Museum", "name:nl": "Anti-oorlogmuseum", "name:ru": "Антивоенный музей", "opening_hours": "Mo-Su,PH 16:00-20:00", "operator": "Anti-Kriegs-Museum e.V.", "phone": "+49 30 45490110", "start_date": "1982", "tourism": "museum", "website": "https://anti-kriegs-museum.de/", "wheelchair": "limited", "wikidata": "Q574690", "wikipedia": "de:Anti-Kriegs-Museum"}}, {"type": "node", "id": 429739550, "lat": 52.5219182, "lon": 13.3799981, "tags": {"addr:city": "Berlin", "addr:country": "DE", "addr:housenumber": "39", "addr:postcode": "10117", "addr:street": "Luisenstraße", "addr:suburb": "Mitte", "contact:website": "https://www.iaaw.hu-berlin.de/de/region/ostasien/seminar/mori", "fee": "no", "name": "Mori-Ôgai-Gedenkstätte", "tourism": "museum", "wikidata": "Q1441078", "wikipedia": "de:Mori-Ōgai-Gedenkstätte"}}, {"type": "node", "id": 434562058, "lat": 52.3726982, "lon": 13.6179047, "tags": {"name": "Heimatarchiv", "tourism": "museum"}}, {"type": "node", "id": 448810258, "lat": 52.4772885, "lon": 13.4390108, "tags": {"addr:city": "Berlin", "addr:country": "DE", "addr:housenumber": "135", "addr:postcode": "12043", "addr:street": "Karl-Marx-Straße", "fee": "yes", "name": "Puppentheater-Museum Berlin", "name:en": "Puppet Theater Museum Berlin", "name:nl": "Poppentheatermuseum Berlijn", "opening_hours": "Tu-Fr 09:00-18:00; Sa 14:00-18:00; Su 11:00-16:00", "phone": "+49 30 6878132", "tourism": "museum", "website": "https://www.puppentheater-museum.de/"}}, {"type": "node", "id": 453378190, "lat": 52.5093664, "lon": 13.3797713, "tags": {"addr:city": "Berlin", "addr:country": "DE", "addr:housenumber": "11", "addr:postcode": "10117", "addr:street": "Leipziger Platz", "addr:suburb": "Mitte", "contact:website": "https://diemauerthewall.de/", "fee": "yes", "fee:icom_member": "unknown", "name": "Die Mauer | The Wall", "opening_hours": "Mo-Su,PH 10:00-18:00", "operator": "Berlin Wall Exhibition UG", "tourism": "museum", "wheelchair": "yes"}}, {"type": "node", "id": 498822384, "lat": 52.5478117, "lon": 13.3892456, "tags": {"addr:city": "Berlin", "addr:country": "DE", "addr:housenumber": "105", "addr:postcode": "13355", "addr:street": "Brunnenstraße", "addr:suburb": "Gesundbrunnen", "contact:phone": "+49-30-49910517", "fee": "yes", "guided_tour": "only", "museum": "history", "name": "Berliner Unterwelten-Museum", "name:de": "Berliner Unterwelten-Museum", "name:en": "Berlin Underworlds Museum", "name:zh": "柏林地底世界", "operator": "Berliner Unterwelten e.V.", "tourism": "museum", "website": "https://berliner-unterwelten.de/", "wheelchair": "no", "wikidata": "Q821833"}}, {"type": "node", "id": 507083358, "lat": 52.4354496, "lon": 13.2603049, "tags": {"addr:city": "Berlin", "addr:country": "DE", "addr:housenumber": "355", "addr:postcode": "14169", "addr:street": "Clayallee", "addr:suburb": "Zehlendorf", "fee": "no", "fee_zone": "no", "museum": "local", "name": "Heimatmuseum Zehlendorf", "name:en": "Native Country Museum Zehlendorf", "name:nl": "Vaderlandsmuseum Zehlendorf", "opening_hours": "Mo,Th 10:00-18:00; Tu,Fr 10:00-14:00", "phone": "+49 30 8022441", "source": "Geoportal Berlin / k5_2012_sw_sued.zip", "tourism": "museum", "website": "https://www.heimatmuseum-zehlendorf.de/", "wheelchair": "no", "wikidata": "Q28737426"}}, {"type": "node", "id": 538692583, "lat": 52.5304903, "lon": 13.3791152, "tags": {"addr:city": "Berlin", "addr:country": "DE", "addr:housenumber": "43", "addr:postcode": "10115", "addr:street": "Invalidenstraße", "addr:suburb": "Mitte", "alt_name": "Naturkundemuseum", "blind:description:de": "Im Museum für Naturkunde gibt es Führungen für Blinde und Sehgeschädigte, siehe http://www.absv.de/freizeit/naturkunde.htm .", "check_date": "2024-06-16", "check_date:opening_hours": "2024-04-12", "contact:phone": "+49 30 20938591", "contact:website": "https://www.museumfuernaturkunde.berlin/", "fee": "yes", "fee:icom_member": "no", "internet_access": "wlan", "internet_access:fee": "no", "museum": "nature", "name": "Museum für Naturkunde", "name:de": "Museum für Naturkunde", "name:el": "ΜΟΥΣΕΙΟ ΦΥΣΙΚΗΣ ΙΣΤΟΡΙΑΣ", "name:en": "Natural History Museum", "name:es": "Museo de Historia Natural", "name:fr": "Musée dhistoire naturelle", "name:nl": "Natuurkundemuseum", "network": "Leibniz-Gemeinschaft", "opening_hours": "Tu-Fr 09:30-18:00; Sa,Su 10:00-18:00", "operator": "Leibniz-Institut für Evolutions- und Biodiversitätsforschung", "operator:type": "public", "payment:cash": "yes", "payment:credit_cards": "yes", "payment:debit_cards": "yes", "ref:isil": "DE-MUS-813712", "research_institution": "yes", "start_date": "1889-12-02", "toilets": "yes", "toilets:wheelchair": "yes", "tourism": "museum", "wheelchair": "yes", "wikidata": "Q233098", "wikipedia": "de:Museum für Naturkunde (Berlin)"}}, {"type": "node", "id": 540613216, "lat": 52.5143734, "lon": 13.4024859, "tags": {"addr:city": "Berlin", "addr:housenumber": "10", "addr:postcode": "10178", "addr:street": "Brüderstraße", "addr:suburb": "Mitte", "name": "Galgenhaus Stadtmuseum Berlin", "tourism": "museum", "wheelchair": "yes"}}, {"type": "node", "id": 545060231, "lat": 52.514289, "lon": 13.3924292, "tags": {"addr:city": "Berlin", "addr:country": "DE", "addr:housenumber": "5", "addr:place": "Gendarmenmarkt", "addr:postcode": "10117", "addr:suburb": "Mitte", "contact:email": "kontakt@hugenottenmuseum-berlin.de", "contact:phone": "+49 30 2291760", "contact:website": "https://www.hugenottenmuseum-berlin.de/", "fee": "yes", "fee:icom_member": "no", "name": "Hugenottenmuseum Berlin", "name:nl": "Hugenotenmuseum Berlijn", "opening_hours": "Tu-Sa 11:30-16:30; Su 11:30-16:30", "tourism": "museum", "wheelchair": "yes", "wikidata": "Q76632459"}}, {"type": "node", "id": 545074057, "lat": 52.5126755, "lon": 13.3927272, "tags": {"addr:city": "Berlin", "addr:country": "DE", "addr:housenumber": "1", "addr:place": "Gendarmenmarkt", "addr:postcode": "10117", "addr:suburb": "Mitte", "contact:website": "https://www.bundestag.de/deutscherdom", "fee": "no", "name": "Parlamentshistorische Ausstellung des Deutschen Bundestages", "name:de": "Parlamentshistorische Ausstellung des Deutschen Bundestages", "name:en": "The German Bundestags exhibition on parliamentary history", "opening_hours": "May-Sep: 10:00-19:00; Oct-Apr 10:00-18:00", "tourism": "museum", "wheelchair": "yes"}}, {"type": "node", "id": 559613172, "lat": 52.4434519, "lon": 13.5022281, "tags": {"name": "Heimatmuseum Treptow", "opening_hours": "Mo,Tu 10:00-16:00, Th 10:00-18:00, Sa,Su 14:00-18:00", "toilets:wheelchair": "yes", "tourism": "museum", "wheelchair": "yes", "wikidata": "Q76632449"}}, {"type": "node", "id": 577577509, "lat": 52.5177959, "lon": 13.456325, "tags": {"addr:housenumber": "9/10", "addr:postcode": "10247", "addr:street": "Rigaer Straße", "fee": "no", "name": "Jugend[widerstands]museum", "opening_hours": "Mo-Fr 09:00-19:00; Sa 12:00-16:00", "tourism": "museum", "website": "https://widerstandsmuseum.de/", "wheelchair": "limited"}}, {"type": "node", "id": 611632754, "lat": 52.4829728, "lon": 13.3871677, "tags": {"addr:city": "Berlin", "addr:country": "DE", "addr:housenumber": "6", "addr:postcode": "12101", "addr:street": "Platz der Luftbrücke", "addr:suburb": "Tempelhof", "blind:description:de": "Es gibt Führungen für Blinde und Sehgeschädigte durch die polizeihistorische Sammlung, siehe http://www.absv.de/freizeit/polizeimuseum.htm .", "fixme": "Position estimated", "name": "Polizeimuseum", "name:en": "Police Museum Berlin", "name:nl": "Politiemuseum Berlijn", "tourism": "museum", "wheelchair": "no"}}, {"type": "node", "id": 632148988, "lat": 52.5006018, "lon": 13.4182215, "tags": {"addr:city": "Berlin", "addr:country": "DE", "addr:housenumber": "95a", "addr:postcode": "10999", "addr:street": "Adalbertstraße", "addr:suburb": "Kreuzberg", "contact:email": "info@fhxb-museum.de", "contact:fax": "+49 30 50585258", "contact:phone": "+49 30 50585233", "contact:website": "https://www.fhxb-museum.de/", "fee": "no", "name": "FHXB Friedrichshain-Kreuzberg Museum", "opening_hours": "Tu-Fr 12:00-18:00; Sa-Su 10:00-18:00", "operator": "Bezirksamt Friedrichshain-Kreuzberg", "ref:isil": "DE-MUS-017216", "start_date": "1990", "tourism": "museum", "wheelchair": "limited", "wikidata": "Q854289", "wikipedia": "de:FHXB Friedrichshain-Kreuzberg Museum"}}, {"type": "node", "id": 661126964, "lat": 52.5171949, "lon": 13.304034, "tags": {"fee": "yes", "fee:icom_member": "unknown", "name": "Keramik-Museum Berlin", "opening_hours": "Fr-Mo 13:00-17:00", "phone": "+49 30 3212322", "tourism": "museum", "website": "http://www.keramik-museum-berlin.de", "wheelchair": "limited", "wikidata": "Q1739162"}}, {"type": "node", "id": 701057032, "lat": 52.417445, "lon": 13.495073, "tags": {"check_date:opening_hours": "2020-09-13", "name": "Heimatmuseum Rudow", "opening_hours": "We,Sa,Su 10:00-16:00", "tourism": "museum"}}, {"type": "node", "id": 766728477, "lat": 52.4903398, "lon": 13.4129258, "tags": {"access": "customers", "addr:city": "Berlin", "addr:country": "DE", "addr:housenumber": "6", "addr:street": "Fichtestraße", "charge": "17 EUR/person;13 EUR/reduced", "contact:website": "https://www.berliner-unterwelten.de/fuehrungen/oeffentliche-fuehrungen/geschichtsspeicher-fichtebunker.html", "description": "Führung zur Geschichte des Fichtebunkers vom Gasometer über die Nutzung als „Mutter-Kind-Bunker“ und der Nachkriegszeit.", "dog": "no", "entrance": "main", "fee": "yes", "level": "0", "name": "Geschichtsspeicher Fichtebunker", "opening_hours": "\"Kann nur während Führungen besichtigt werden. Termine unter tickets.berliner-unterwelten.de\"", "operator": "Berliner Unterwelten e.V.", "operator:type": "private_non_profit", "operator:wikidata": "Q821833", "operator:wikipedia": "de:Berliner Unterwelten", "ref:vatin": "DE227844558", "tourism": "museum", "wheelchair": "no", "wikidata": "Q1410915", "wikimedia_commons": "Category:Interior of Gasometer Fichtestraße", "wikipedia": "de:Gasometer Fichtestraße"}}, {"type": "node", "id": 766875174, "lat": 52.4381707, "lon": 13.5407192, "tags": {"addr:city": "Berlin", "addr:country": "DE", "addr:housenumber": "81", "addr:postcode": "12489", "addr:street": "Anna-Seghers-Straße", "addr:suburb": "Adlershof", "name": "Anna-Seghers-Gedenkstätte", "opening_hours": "Tu,Th 10:00-16:00", "phone": "+4930 677 47 25", "tourism": "museum", "website": "https://anna-seghers.de/anna-seghers/anna-seghers-museum/", "wheelchair": "no", "wikidata": "Q76632408"}}, {"type": "node", "id": 849063657, "lat": 52.4704996, "lon": 13.3037544, "tags": {"addr:city": "Berlin", "addr:country": "DE", "addr:housenumber": "57 (Tor 2)", "addr:postcode": "14199", "addr:street": "Dillenburger Straße", "addr:suburb": "Wilmersdorf", "contact:website": "http://www.wassermuseum-berlin.de", "fee:icom_member": "unknown", "name": "WasserWerkstatt des WasserMuseum e.V.", "phone": "+49 30 8973 2395", "tourism": "museum"}}, {"type": "node", "id": 1176948529, "lat": 52.3395821, "lon": 13.3540007, "tags": {"name": "Heimatstube", "tourism": "museum"}}, {"type": "node", "id": 1257857022, "lat": 52.5029909, "lon": 13.4808551, "tags": {"addr:city": "Berlin", "addr:country": "DE", "addr:housenumber": "24", "addr:postcode": "10317", "addr:street": "Türrschmidtstraße", "addr:suburb": "Rummelsburg", "contact:email": "info@museum-lichtenberg.de", "contact:phone": "+49 30 5779738811", "contact:website": "http://www.museum-lichtenberg.de", "description": "Stadthaus - Zentrum für Geschichte, Kultur und Begegnung", "fee": "no", "name": "Museum Lichtenberg im Stadthaus", "name:nl": "Stadhuis", "opening_hours": "Tu-Su 11:00-18:00", "tourism": "museum", "wheelchair": "no"}}, {"type": "node", "id": 1260572076, "lat": 52.5763987, "lon": 13.4063769, "tags": {"description": "Small display of photos and texts in German of the life of the DDR elite living in Pankow at the Majakowskiring.", "fee": "no", "name": "Die Pankower Machthaber", "opening_hours": "Mo-Su 10:00-18:00; PH off", "tourism": "museum", "website": "https://www.pankower-machthaber.de/", "wheelchair": "yes"}}, {"type": "node", "id": 1270188822, "lat": 52.517579, "lon": 13.4419522, "tags": {"addr:city": "Berlin", "addr:country": "DE", "addr:housenumber": "93a", "addr:postcode": "10243", "addr:street": "Karl-Marx-Allee", "addr:suburb": "Friedrichshain", "check_date:opening_hours": "2025-04-15", "contact:email": "computerspiele@xhibit.de", "contact:mastodon": "@computerspielemuseum@bildung.social", "contact:phone": "+49 30 60988577", "contact:website": "https://www.computerspielemuseum.de/", "fee": "yes", "fee:icom_member": "discount", "museum": "computer", "name": "Computerspielemuseum", "name:de": "Computerspielemuseum", "name:en": "Video Games Museum", "name:fr": "Musée du jeu vidéo", "name:nl": "Computerspellenmuseum", "name:ru": "музей компьютерных игр", "opening_hours": "Mo-Su 10:00-20:00", "operator": "Gameshouse gGmbH", "operator:type": "private_non_profit", "ref:isil": "DE-MUS-911113", "ref:vatin": "DE268307474", "start_date": "1997", "toilets:wheelchair": "yes", "tourism": "museum", "wheelchair": "limited", "wikidata": "Q825232", "wikimedia_commons": "Category:Computerspielemuseum Berlin", "wikipedia": "de:Computerspielemuseum Berlin"}}, {"type": "node", "id": 1276289064, "lat": 52.3941571, "lon": 13.0930717, "tags": {"access": "customers", "addr:city": "Potsdam", "addr:country": "DE", "addr:housenumber": "23", "addr:postcode": "14482", "addr:street": "Karl-Liebknecht-Straße", "addr:suburb": "Babelsberg Nord", "contact:email": "fk-boehmisches-dorf@t-online.de", "contact:mobile": "+49 176 512 75668", "contact:phone": "+49 331 500 374", "contact:website": "https://weberstube-nowawes.de/", "description": "Stadtteilmuseum zur Geschichte von Nowawes und Neuendorf.", "door": "hinged", "entrance": "main", "level": "0", "name": "Weberstube Nowawes", "opening_hours": "Tu,Th 13:00-16:00; We 13:00-16:00; PH,Sa,Su off", "operator": "Förderkreis Böhmisches Dorf Nowawes und Neuendorf e. V.", "operator:type": "association", "tourism": "museum", "wheelchair": "limited"}}, {"type": "node", "id": 1358325721, "lat": 52.5173541, "lon": 13.2499733, "tags": {"addr:city": "Berlin", "addr:country": "DE", "addr:postcode": "14052", "addr:street": "Rossitter Platz", "addr:suburb": "Westend", "contact:email": "museum@ag-berliner-u-bahn.de", "contact:fax": "+49 30 25627167", "contact:phone": "+49 30 25627171", "contact:website": "https://www.ag-berliner-u-bahn.de/index.php/museum", "fee": "yes", "fee:icom_member": "unknown", "museum": "railway", "name": "Berliner U-Bahn-Museum", "opening_hours": "Sa[2] 10:30-16:00", "operator": "Arbeitsgemeinschaft Berliner U-Bahn e.V.", "start_date": "1997-09-13", "tourism": "museum", "wheelchair": "no", "wikidata": "Q821832", "wikipedia": "de:Berliner U-Bahn-Museum"}}, {"type": "node", "id": 1390712121, "lat": 52.5080398, "lon": 13.3184593, "tags": {"name": "Das Verborgene Museum", "tourism": "museum", "website": "https://www.dasverborgenemuseum.de/", "wheelchair": "no", "wikidata": "Q24090853"}}, {"type": "node", "id": 1476011662, "lat": 52.5164895, "lon": 13.4063144, "tags": {"addr:city": "Berlin", "addr:country": "DE", "addr:housenumber": "11", "addr:postcode": "10178", "addr:street": "Propststraße", "addr:suburb": "Mitte", "contact:phone": "+493024632500", "contact:website": "http://zillemuseum-berlin.de/", "fee": "yes", "name": "Zille-Museum", "name:fr": "Musée Zille", "opening_hours": "PH,Tu-Su 11:00-18:00", "tourism": "museum", "wheelchair": "yes", "wikidata": "Q73479704", "wikimedia_commons": "Category:Zille Museum"}}, {"type": "node", "id": 1505273433, "lat": 52.4440329, "lon": 13.5728521, "tags": {"check_date:opening_hours": "2023-09-24", "fee": "yes", "fee:icom_member": "no", "name": "Kunstgewerbemuseum", "name:de": "Kunstgewerbemuseum", "name:en": "Museum of Decorative Arts", "opening_hours": "Oct-Mar Th-Su 11:00-17:00; Apr-Sep Tu-Su 11:00-18:00", "operator": "Staatliche Museen zu Berlin", "tourism": "museum", "wheelchair": "yes"}}, {"type": "node", "id": 1583408273, "lat": 52.5642198, "lon": 13.4024579, "tags": {"addr:city": "Berlin", "addr:country": "DE", "addr:housenumber": "8", "addr:postcode": "13187", "addr:street": "Heynstraße", "addr:suburb": "Pankow", "fee": "no", "name": "Museum Pankow", "name:nl": "Museum Pankow", "opening_hours": "Tu,Th,Sa,Su 10:00-18:00; PH off", "operator": "Bezirksamt Pankow", "phone": "+49 30 48 14 047", "tourism": "museum", "website": "https://www.berlin.de/museum/3108467-2926344-museum-pankow-standort-heynstrasse-8-fru.html", "wheelchair": "no"}}, {"type": "node", "id": 1653339015, "lat": 52.5242943, "lon": 13.4021873, "tags": {"addr:city": "Berlin", "addr:country": "DE", "addr:housenumber": "39", "addr:postcode": "10178", "addr:street": "Rosenthaler Straße", "addr:suburb": "Mitte", "email": "info@museum-blindenwerkstatt.de", "fax": "+49 (0)30-25 76 26 14", "fee": "no", "name": "Museum Blindenwerkstatt Otto Weidt", "opening_hours": "Mo-Su 10:00-20:00; Dec 24 off", "phone": "+49 30 28 59 94 07", "toilets:wheelchair": "yes", "tourism": "museum", "website": "https://www.museum-blindenwerkstatt.de/", "wheelchair": "yes", "wheelchair:description": "Alle Räume inkl. Toilette mit Fahrstuhl erreichbar"}}, {"type": "node", "id": 1827559268, "lat": 52.5090606, "lon": 13.3184486, "tags": {"addr:city": "Berlin", "addr:country": "DE", "addr:housenumber": "13B", "addr:postcode": "10623", "addr:street": "Goethestraße", "addr:suburb": "Charlottenburg", "name": "Werkbund Berlin", "phone": "+49 303138575", "tourism": "museum", "website": "http://www.werkbund-berlin.de", "wheelchair": "no"}}, {"type": "node", "id": 1867566597, "lat": 52.5153117, "lon": 13.3863294, "tags": {"addr:city": "Berlin", "addr:housenumber": "15", "addr:postcode": "10117", "addr:street": "Behrenstraße", "addr:suburb": "Mitte", "contact:phone": "+49 30 7877070", "fee": "no", "internet_access": "wlan", "name": "Forum Willy Brandt Berlin", "opening_hours": "Fr-Su 11:00-17:00", "tourism": "museum", "website": "https://willy-brandt.de/ausstellungen/ausstellungen/forum-berlin/", "wheelchair": "no", "wheelchair:description": "... wenn man die Eingangsstufen überwunden hat. Dafür gibts eine Klingel. Da wird einem dann geholfen."}}, {"type": "node", "id": 1874529830, "lat": 52.5199022, "lon": 13.2936163, "tags": {"addr:city": "Berlin", "addr:country": "DE", "addr:housenumber": "22", "addr:postcode": "14059", "addr:street": "Spandauer Damm", "addr:suburb": "Charlottenburg", "contact:email": "info@kommunalegalerie-berlin.de", "contact:email_1": "info@artothek.charlottenburg-wilmersdorf.de", "contact:fax": "+49 30 902916705", "contact:phone": "+49 30 902916704", "contact:website": "http://www.kommunalegalerie-berlin.de/", "name": "Ausstellungen in der Kleinen Orangerie am Schloss Charlottenburg", "name:es": "Palacio de Charlottenburg", "note": "Geprüft am 27. Dez 2015", "opening_hours": "Tu-Fr 10:00-17:00; We 10:00-19:00; Sa off; Su 11:00-17:00", "operator": "Elke von der Lieth", "toilets:wheelchair": "no", "tourism": "museum", "wheelchair": "limited"}}, {"type": "node", "id": 2033362563, "lat": 52.526136, "lon": 13.3745186, "tags": {"addr:city": "Berlin", "addr:country": "DE", "addr:housenumber": "1", "addr:postcode": "10117", "addr:street": "Charitéplatz", "addr:suburb": "Mitte", "check_date": "2023-06-26", "contact:phone": "+49 30 450-536156", "email": "bmm@charite.de", "fax": "+49 30 450-536905", "fee": "yes", "fee:icom_member": "no", "museum": "history", "name": "Berliner Medizinhistorisches Museum der Charité", "name:en": "Berlin Museum of Medical History at the Charité", "name:nl": "Berlijns Medisch-historisch Museum van het Charité", "opening_hours": "Mo off; Tu,Th-Fr,Su 10:00-17:00; We,Sa 10:00-19:00", "operator": "Charité - Universitätsmedizin Berlin", "toilets": "yes", "toilets:wheelchair": "yes", "tourism": "museum", "website": "https://www.bmm-charite.de/", "wheelchair": "limited", "wikidata": "Q821643", "wikimedia_commons": "Category:Berlin Museum of Medical History", "wikipedia": "de:Berliner Medizinhistorisches Museum"}}, {"type": "node", "id": 2164030082, "lat": 52.5244928, "lon": 13.4019195, "tags": {"addr:city": "Berlin", "addr:country": "DE", "addr:housenumber": "39", "addr:postcode": "10178", "addr:street": "Rosenthaler Straße", "addr:suburb": "Mitte", "name": "Anne Frank Zentrum", "opening_hours": "Tu-Su 10:00-18:00", "toilets:wheelchair": "yes", "tourism": "museum", "website": "https://www.annefrank.de/", "wheelchair": "yes", "wikidata": "Q565296", "wikimedia_commons": "Category:Anne Frank Zentrum", "wikipedia": "de:Anne Frank Zentrum"}}, {"type": "node", "id": 2321948745, "lat": 52.4699672, "lon": 13.3340538, "tags": {"addr:city": "Berlin", "addr:country": "DE", "addr:housenumber": "59", "addr:postcode": "12159", "addr:street": "Rheinstraße", "addr:suburb": "Friedenau", "name": "Uhrenmuseum", "tourism": "museum", "website": "https://juwelier-lorenz.de/ueber-lorenz/uhrenmuseum/", "wheelchair": "limited"}}, {"type": "node", "id": 2335146075, "lat": 52.5376859, "lon": 13.2067237, "tags": {"name": "Das Gotische Haus", "tourism": "museum", "website": "https://www.gotischeshaus.de/", "wheelchair": "no"}}, {"type": "node", "id": 2360277462, "lat": 52.543492, "lon": 13.5619103, "tags": {"check_date:opening_hours": "2024-10-01", "fee": "no", "name": "Bezirksmuseum Marzahn-Hellersdorf, Haus 2", "opening_hours": "Mo-Fr 10:00-18:00", "tourism": "museum", "website": "https://www.kultur-marzahn-hellersdorf.de/BEZIRKSMUSEUM-MARZAHN.11.0.html", "wheelchair": "yes", "wikidata": "Q76632424"}}, {"type": "node", "id": 2401869345, "lat": 52.5071871, "lon": 13.390676, "tags": {"addr:city": "Berlin", "addr:country": "DE", "addr:housenumber": "43-45", "addr:postcode": "10969", "addr:street": "Friedrichstraße", "addr:suburb": "Kreuzberg", "alt_name": "Museum Haus am Checkpoint Charlie", "alt_name:ru": "Дом у Чекпойнт-Чарли", "check_date:opening_hours": "2025-01-27", "contact:email": "info@mauermuseum.de", "contact:phone": "+49 30 2537250", "fee": "yes", "fee:icom_member": "yes", "museum": "history", "name": "Mauermuseum", "name:en": "Wall Museum", "name:fr": "Musée du Mur", "name:ru": "Музей Берлинской стены", "opening_hours": "Mo-Su 10:00-18:00", "operator:type": "private", "tourism": "museum", "website": "https://www.mauermuseum.de/", "wheelchair": "no", "wikidata": "Q382575", "wikimedia_commons": "Category:Mauermuseum (Checkpoint Charlie)", "wikipedia": "de:Mauermuseum"}}, {"type": "node", "id": 2733904737, "lat": 52.4871137, "lon": 13.2512169, "tags": {"addr:city": "Berlin", "addr:country": "DE", "addr:housenumber": "4", "addr:inclusion": "actual", "addr:postcode": "14193", "addr:street": "Königsweg", "addr:suburb": "Grunewald", "name": "Waldmuseum", "name:en": "Forest Museum", "name:fa": "موزه جنگل", "name:nl": "Bosmuseum", "tourism": "museum"}}, {"type": "node", "id": 2807497298, "lat": 52.4883396, "lon": 13.3340771, "tags": {"contact:phone": "+49 30 8542829", "contact:website": "https://www.lippenstiftmuseum.de/", "fee": "yes", "name": "Lippenstiftmuseum", "name:de": "Lippenstiftmuseum", "name:en": "Lipstick Museum", "opening_hours": "\"nach Terminvereinbarung\"", "tourism": "museum"}}, {"type": "node", "id": 2807538150, "lat": 52.5342987, "lon": 13.5930033, "tags": {"addr:city": "Berlin", "addr:housenumber": "179", "addr:postcode": "12627", "addr:street": "Hellersdorfer Straße", "addr:suburb": "Hellersdorf", "name": "DDR-Museumswohnung WBS 70", "note": "http://www.berlin.de/museum/3110025-2926344-museumswohnung.html", "opening_hours": "Su 14:00-16:00; \"oder nach Vereinbarung unter +49 151 16114440\"", "source": "http://www.berlin.de/museum/3110025-2926344-museumswohnung.html%20f%C3%BCr%20(Hausnummer%20und%20Adresse)", "tourism": "museum", "website": "https://stadtundland.de/unternehmen/museumswohnung"}}, {"type": "node", "id": 2807587974, "lat": 52.4869923, "lon": 13.3586756, "tags": {"check_date": "2024-07-21", "contact:mobile": "+49 175 4109120", "contact:phone": "+49 30 7814932", "fee": "no", "name": "Museum der Unerhörten Dinge", "opening_hours": "We-Fr 15:00-19:00", "tourism": "museum", "website": "http://www.museumderunerhoertendinge.de/", "wheelchair": "yes", "wikidata": "Q76632495"}}, {"type": "node", "id": 2818117012, "lat": 52.5042512, "lon": 13.3582193, "tags": {"addr:city": "Berlin", "addr:country": "DE", "addr:housenumber": "73", "addr:postcode": "10785", "addr:street": "Lützowstraße", "addr:suburb": "Tiergarten", "contact:email": "kontakt@schwulesmuseum.de", "contact:facebook": "SchwulesMuseum", "contact:instagram": "schwulesmuseum", "contact:phone": "+49 30 69599050", "contact:twitter": "gaymuseum", "contact:website": "https://www.schwulesmuseum.de", "fee": "yes", "fee:icom_member": "no", "lgbtq": "primary", "name": "Schwules Museum *", "name:en": "Gay Museum *", "name:nl": "Homo Museum *", "opening_hours": "Mo, We, Fr 12:00-18:00; Th 12:00-20:00; Sa 14:00-19:00; Su 14:00-18:00", "toilets:wheelchair": "yes", "tourism": "museum", "wheelchair": "yes", "wikidata": "Q685162", "wikimedia_commons": "Category:Schwules Museum", "wikipedia": "de:Schwules Museum"}}, {"type": "node", "id": 2845403101, "lat": 52.440493, "lon": 13.3911183, "tags": {"addr:housenumber": "21", "addr:street": "Alt-Mariendorf", "name": "Judo Welt-Museum", "opening_hours": "Mo,Tu,Th 17:00-21:00;We,Fr 16:00-23:00; Sa,Su, PH off", "operator": "Lothar Nest", "tourism": "museum", "website": "http://www.judo-museum.de/", "wheelchair": "no"}}, {"type": "node", "id": 2853421751, "lat": 52.5387799, "lon": 13.2056528, "tags": {"name": "Spandovia Sacra – Museum mit Bibliothek und Archiv", "operator": "Ev. Kirchengemeinde St. Nikolai", "tourism": "museum"}}, {"type": "node", "id": 2959465154, "lat": 52.5065947, "lon": 13.3306266, "tags": {"addr:city": "Berlin", "addr:country": "DE", "addr:housenumber": "22-24", "addr:postcode": "10623", "addr:street": "Hardenbergstraße", "contact:email": "info@co-berlin.org", "contact:facebook": "coberlinphoto", "contact:fax": "+49 30 2844416-19", "contact:flickr": "http://www.flickr.com/photos/co-berlin", "contact:google_plus": "https://plus.google.com/u/0/b/109130650692312419642/dashboard/overview", "contact:instagram": "coberlin", "contact:phone": "+49 30 2844416-62", "contact:twitter": "@coberlin", "contact:website": "https://www.co-berlin.org", "contact:youtube": "@COBerlinVideo", "fee": "yes", "fee:icom_member": "no", "image": "https://de.wikipedia.org/wiki/Datei:C-O_Berlin_im_Amerika_Haus-2577.jpg", "name": "C/O Berlin", "opening_hours": "Mo-Su,PH 11:00-20:00", "operator": "C/O Berlin Foundation", "toilets:wheelchair": "yes", "tourism": "museum", "wheelchair": "yes", "wheelchair:description": "Schwerbehinderte (mindestens 50 v. H. MdE) zahlen den ermäßigten Eintrittspreis, Begleitpersonen erhalten freien Eintritt.", "wikidata": "Q1022620", "wikimedia_commons": "Category:C/O Berlin", "wikipedia": "de:C/O Berlin"}}, {"type": "node", "id": 2971387933, "lat": 52.4824813, "lon": 13.4430897, "tags": {"addr:city": "Berlin", "addr:country": "DE", "addr:housenumber": "159", "addr:postcode": "12045", "addr:street": "Weserstraße", "addr:suburb": "Neukölln", "amenity": "bar", "contact:website": "https://www.ramonesmuseum.com/", "diet:vegan": "yes", "name": "Ramones Museum", "note": "Teil des Diners/Bar 19:77", "outdoor_seating": "sidewalk", "tourism": "museum", "wikidata": "Q2130301", "wikimedia_commons": "Category:Ramones Museum", "wikipedia": "en:Ramones Museum"}}, {"type": "node", "id": 3203167561, "lat": 52.5177477, "lon": 13.3970225, "tags": {"addr:city": "Berlin", "addr:country": "DE", "addr:housenumber": "2", "addr:postcode": "10117", "addr:street": "Unter den Linden", "addr:suburb": "Mitte", "alt_name": "Zeughaus", "charge": "8 EUR", "contact:phone": "+49 30 203040", "contact:website": "https://www.dhm.de/", "fee": "yes", "fee:icom_member": "no", "image": "https://upload.wikimedia.org/wikipedia/commons/2/22/Berlin%2C_Mitte%2C_Unter_den_Linden%2C_Zeughaus_09.jpg", "museum": "history", "name": "Deutsches Historisches Museum", "name:da": "Det tyske historiske museum", "name:de": "Deutsches Historisches Museum", "name:en": "German Historical Museum", "name:es": "Museo Histórico Alemán", "name:fr": "Musée historique allemand", "name:it": "Museo storico tedesco", "name:nb": "Det tyske historiske museum", "name:ru": "Немецкий исторический музей", "name:zh-Hans": "德国历史博物馆", "name:zh-Hant": "德國歷史博物館", "opening_hours": "Mo-Su 10:00-18:00; Dec 24 off", "operator": "Stiftung Deutsches Historisches Museum", "operator:type": "public", "short_name": "DHM", "start_date": "1987-10-28", "toilets:wheelchair": "yes", "tourism": "museum", "wheelchair": "yes", "wikidata": "Q688335", "wikipedia": "de:Deutsches Historisches Museum"}}, {"type": "node", "id": 3255895792, "lat": 52.507451, "lon": 13.38865, "tags": {"addr:city": "Berlin", "addr:housenumber": "14-15", "addr:postcode": "10969", "addr:street": "Zimmerstraße", "addr:suburb": "Kreuzberg", "fee": "yes", "fee:icom_member": "unknown", "name": "Trabi Museum", "opening_hours": "10:00-18:00", "toilets:wheelchair": "yes", "tourism": "museum", "website": "http://www.trabi-museum.com/", "wheelchair": "yes", "wikidata": "Q115281134", "wikimedia_commons": "Category:Trabi Museum Berlin", "wikipedia": "de:Trabi Museum Berlin"}}, {"type": "node", "id": 3286852557, "lat": 52.4500238, "lon": 13.7552734, "tags": {"name": "Heimatmuseum Woltersdorf", "opening_hours": "Th 16:00-18:00; Sa 14:00-18:00", "tourism": "museum", "wheelchair": "yes"}}, {"type": "node", "id": 3354056742, "lat": 52.4743009, "lon": 13.3268744, "tags": {"addr:city": "Berlin", "addr:country": "DE", "addr:housenumber": "11", "addr:postcode": "12161", "addr:street": "Bachestraße", "addr:suburb": "Friedenau", "contact:website": "http://www.rotkreuzmuseum-berlin.drk.de/", "name": "Rotkreuz-Museum", "opening_hours": "We 16:00-19:00", "operator": "Rotkreuz-Museum Berlin e.V.", "tourism": "museum", "wheelchair": "yes", "wikidata": "Q2168818", "wikipedia": "de:Rotkreuz-Museum Berlin"}}, {"type": "node", "id": 3513338376, "lat": 52.5132378, "lon": 13.4159972, "tags": {"check_date:opening_hours": "2021-08-22", "fee": "no", "name": "Berliner Stadtmodelle", "name:en": "Berlin City Models", "opening_hours": "Mo-Sa 10:00-18:00", "toilets:wheelchair": "yes", "tourism": "museum", "website": "https://www.stadtentwicklung.berlin.de/planen/stadtmodelle/de/ausstellung.shtml", "wheelchair": "yes"}}, {"type": "node", "id": 3676215899, "lat": 52.5205791, "lon": 13.4089041, "tags": {"addr:city": "Berlin", "addr:country": "DE", "addr:housenumber": "1A", "addr:postcode": "10178", "addr:street": "Panoramastraße", "addr:suburb": "Mitte", "brand": "Körperwelten", "contact:email": "memu@MeMu.berlin", "contact:phone": "+49 30 847125526", "contact:website": "https://koerperwelten.de/ausstellung/berlin/", "fee": "yes", "name": "Menschen Museum", "opening_hours": "10:00-19:00", "operator": "Institute for Plastination e.K", "toilets:wheelchair": "yes", "tourism": "museum", "wheelchair": "yes"}}, {"type": "node", "id": 3749451170, "lat": 52.5090125, "lon": 13.3792937, "tags": {"addr:city": "Berlin", "addr:country": "DE", "addr:housenumber": "9", "addr:postcode": "10117", "addr:street": "Leipziger Platz", "addr:suburb": "Mitte", "check_date:opening_hours": "2025-05-20", "contact:phone": "+49 30 398200451", "contact:website": "https://www.deutsches-spionagemuseum.de/", "fee": "yes", "fee:icom_member": "no", "museum": "history", "name": "Deutsches Spionagemuseum", "name:en": "German Spy Museum", "name:nl": "Duits Spionnenmuseum", "name:ru": "Немецкий музей шпионов", "opening_hours": "10:00-20:00", "toilets:wheelchair": "yes", "tourism": "museum", "wheelchair": "yes", "wikidata": "Q20971579", "wikimedia_commons": "Category:Spy Museum Berlin", "wikipedia": "de:Deutsches Spionagemuseum"}}, {"type": "node", "id": 3755207008, "lat": 52.45556, "lon": 13.292635, "tags": {"fee": "yes", "fee:icom_member": "no", "name": "Museum Europäischer Kulturen", "name:de": "Museum Europäischer Kulturen", "name:en": "Museum of European Cultures", "name:fa": "موزه فرهنگ اروپایی", "name:nl": "Museum der Europese Culturen", "opening_hours": "Tu-Fr 09:00-17:00; Sa-Su 11:00-18:00", "toilets:wheelchair": "yes", "tourism": "museum", "website": "https://www.smb.museum/museen-und-einrichtungen/museum-europaeischer-kulturen/home.html", "wheelchair": "limited", "wikidata": "Q318174", "wikipedia": "de:Museum Europäischer Kulturen"}}, {"type": "node", "id": 3917330120, "lat": 52.4372564, "lon": 13.3026687, "tags": {"addr:city": "Berlin", "addr:housenumber": "64a", "addr:postcode": "12205", "addr:street": "Drakestraße", "check_date": "2023-06-27", "museum": "local", "name": "Steglitz Museum", "name:nl": "Steglitzmuseum", "opening_hours": "Tu-Fr 15:00-18:00; Su 15:00-18:00", "operator": "Heimatverein Steglitz e. V.", "tourism": "museum", "website": "http://www.heimatverein-steglitz.de/", "wikidata": "Q76632567"}}, {"type": "node", "id": 3977880885, "lat": 52.4849396, "lon": 13.1817243, "tags": {"addr:city": "Berlin", "addr:housenumber": "43", "addr:postcode": "14089", "addr:street": "Buchwaldzeile", "addr:suburb": "Gatow", "name": "Gutshof Gatow", "toilets:wheelchair": "yes", "tourism": "museum", "website": "http://www.gutshof-gatow.de/", "wheelchair": "yes"}}, {"type": "node", "id": 4197069045, "lat": 52.4192977, "lon": 13.5877844, "tags": {"addr:postcode": "12557", "name": "Sporttauchermuseum", "opening_hours": "Th 17:00-20:00", "tourism": "museum", "website": "https://www.tauchsportklub-adlershof.de/index.php/sporttauchermuseum"}}, {"type": "node", "id": 4210852779, "lat": 52.4119793, "lon": 13.5874462, "tags": {"fee": "no", "name": "Wassersportmuseum", "name:en": "Water Sports Museum", "name:nl": "Watersportmuseum", "opening_hours": "We 10:00-16:00", "tourism": "museum", "wikidata": "Q1551805"}}, {"type": "node", "id": 4261575774, "lat": 52.5275656, "lon": 13.3936942, "tags": {"addr:city": "Berlin", "addr:country": "DE", "addr:housenumber": "154A", "addr:postcode": "10115", "addr:street": "Linienstraße", "addr:suburb": "Mitte", "name": "Museum der Stille", "tourism": "museum", "wikidata": "Q21712334", "wikimedia_commons": "Category:Museum der Stille", "wikipedia": "de:Museum der Stille"}}, {"type": "node", "id": 4269824816, "lat": 52.5736393, "lon": 13.2727004, "tags": {"name": "Museum Historischer Ort Krumpuhler Weg", "tourism": "museum"}}, {"type": "node", "id": 4366611765, "lat": 52.5474588, "lon": 13.3850341, "tags": {"charge": "19.00 EUR", "check_date": "2024-08-18", "description": "Nur mit Führung zugänglich, Ticketverkauf in der Brunnenstraße 6 und online.", "fee": "yes", "guided_tour": "only", "name": "Flakturmruine Volkspark Humboldthain", "opening_hours": "May-Oct \"Nach Vereinbarung. Reservierung erforderlich.\"", "operator": "Berliner Unterwelten e.V.", "reservation": "required", "service_times": "Th, Fr 12:00,14:00,16:00; Sa, Su 11:00,13:00,15:00", "tourism": "museum", "website": "https://www.berliner-unterwelten.de/fuehrungen/oeffentliche-fuehrungen/vom-flakturm-zum-truemmerberg.html", "wheelchair": "no"}}, {"type": "node", "id": 4388867424, "lat": 52.5168416, "lon": 13.3816742, "tags": {"addr:city": "Berlin", "addr:housenumber": "74", "addr:postcode": "10117", "addr:street": "Unter den Linden", "check_date:opening_hours": "2024-08-25", "contact:phone": "+49 30 40004610", "contact:website": "https://www.madametussauds.com/berlin/de/", "fee": "yes", "fee:icom_member": "unknown", "museum": "wax", "name": "Madame Tussauds", "name:ru": "Музей Мадам Тюссо", "opening_hours": "10:00-19:00", "operator": "Merlin Entertainments Group", "toilets:wheelchair": "yes", "tourism": "museum", "wheelchair": "yes"}}, {"type": "node", "id": 4418867395, "lat": 52.5199506, "lon": 13.344761, "tags": {"addr:city": "Berlin", "addr:country": "DE", "addr:housenumber": "424", "addr:place": "Stadtbahnbogen", "addr:postcode": "10557", "contact:phone": "+49 177 4201587", "contact:website": "http://www.buchstabenmuseum.de/", "fee": "yes", "name": "Buchstabenmuseum", "opening_hours": "Th-Su 13:00-17:00 off", "tourism": "museum", "website": "https://www.buchstabenmuseum.de/", "wheelchair": "yes", "wikidata": "Q998793", "wikimedia_commons": "File:20230726 xl 0654-Buchstabenmuseum.jpg"}}, {"type": "node", "id": 4491488301, "lat": 52.5080191, "lon": 13.3320045, "tags": {"check_date": "2025-02-09", "email": "info@helmut-newton-foundation.org", "fee": "yes", "name": "Helmut Newton Foundation", "opening_hours": "Tu,We,Fr,Sa,Su 11:00-19:00; Th 11:00-20:00; Mo off", "phone": "+49 30 3186 4856", "tourism": "museum", "website": "http://www.helmut-newton.de/", "wheelchair": "yes"}}, {"type": "node", "id": 4511961891, "lat": 52.5247205, "lon": 13.3990907, "tags": {"fee": "yes", "name": "Magicum", "opening_hours": "PH,Mo-Su 11:00-18:00; Sa 11:00-19:00; Dec 24-25 off; Dec 31 11:00-17:00; Jan 01 12:00-18:00", "tourism": "museum", "website": "https://www.magicum-berlin.de/", "wheelchair": "no"}}, {"type": "node", "id": 4708547016, "lat": 52.4986678, "lon": 13.3566505, "tags": {"addr:city": "Berlin", "addr:country": "DE", "addr:housenumber": "7", "addr:postcode": "10783", "addr:street": "Bülowstraße", "addr:suburb": "Schöneberg", "check_date:opening_hours": "2024-03-25", "description": "Museum for Urban Contemporary Art", "email": "contact@urban-nation.com", "fee": "no", "image": "https://commons.wikimedia.org/wiki/File:Sch%C3%B6neberg_B%C3%BClowstra%C3%9Fe_7_Urban_Nation_2019.jpg", "name": "Urban Nation", "opening_hours": "Tu,We 10:00-18:00; Mo off; Th-Su 12:00-20:00", "toilets:wheelchair": "yes", "tourism": "museum", "website": "https://urban-nation.com/", "wheelchair": "yes", "wikidata": "Q111594318"}}, {"type": "node", "id": 4725890783, "lat": 52.5268086, "lon": 13.3953314, "tags": {"addr:city": "Berlin", "addr:country": "DE", "addr:housenumber": "68", "addr:postcode": "10117", "addr:street": "Auguststraße", "addr:suburb": "Dahlem", "alt_name": "Samurai Art Museum", "check_date": "2024-06-09", "contact:email": "info@samuraimuseum.de", "contact:facebook": "https://www.facebook.com/museumberlin/", "contact:instagram": "https://www.instagram.com/samuraimuseumberlin/", "contact:phone": "+49 30 62975635", "contact:website": "https://samuraimuseum.de/", "description": "Peter Janssen Collection. Eine der weltweit bedeutendsten Privatsammlungen mit über 4000 Originalobjekten präsentiert ihre Highlights in Berlin Mitte. Ein Erlebnis für die gesamte Familie!", "fee": "yes", "level": "0", "museum": "history", "name": "Samurai Museum Berlin", "name:de": "Samurai Museum Berlin", "name:en": "Samurai Museum Berlin", "opening_hours": "Mo-Su 10:00-19:00", "operator": "Samurai Museum Berlin GmbH", "operator:type": "private_non_profit", "origin": "japanese", "payment:cash": "yes", "payment:credit_cards": "yes", "payment:debit_cards": "yes", "start_date": "2017", "tourism": "museum", "wheelchair": "yes", "wikidata": "Q111975442"}}, {"type": "node", "id": 4833616123, "lat": 52.5241479, "lon": 13.3363579, "tags": {"addr:housenumber": "37", "addr:postcode": "10555", "addr:street": "Elberfelder Straße", "fee": "no", "name": "Braun-Sammlung Ettel Museum für Design", "name:en": "Braun Design Museum", "name:ru": "Музей дизайна Браун", "opening_hours": "Su-Mo 11:00-17:00", "tourism": "museum", "website": "http://www.braundesignsammlung.de/", "wheelchair": "limited"}}, {"type": "node", "id": 4838662169, "lat": 52.5163681, "lon": 13.4079912, "tags": {"addr:city": "Berlin", "addr:country": "DE", "addr:housenumber": "5", "addr:postcode": "10178", "addr:street": "Mühlendamm", "addr:suburb": "Mitte", "contact:email": "info@hanfmuseum.de", "contact:phone": "+49 30 242 48 27", "contact:website": "https://www.hanfmuseum.de", "description": "Museum zur Biologie und Geschichte des Hanfs sowie seiner medizinischen, kommerziellen und privaten Nutzung.", "description:en": "Unique to Germany, the Hanf Museum informs about all aspects of Hemp - Cannabis. The museum includes an Shop and a Café.", "fee": "yes", "internet_access": "wlan", "internet_access:fee": "no", "name": "Hanf Museum Berlin", "name:fr": "Musée du Cannabis", "opening_hours": "Tu-Fr 10:00-20:00; Sa,Su 12:00-20:00; Mo off", "phone": "0302424827", "start_date": "1994", "toilets:wheelchair": "yes", "tourism": "museum", "website": "https://www.hanfmuseum.de/", "wheelchair": "limited", "wikidata": "Q1575394", "wikimedia_commons": "Category:Hanf Museum Berlin", "wikipedia": "de:Hanfmuseum"}}, {"type": "node", "id": 5051474599, "lat": 52.530145, "lon": 13.401996, "tags": {"description": "in the basement of the Circus Hostel", "name": "David Hasselhoff Museum", "tourism": "museum", "website": "https://www.circus-berlin.de/de/the-unveiling-of-our-hoff-museum/", "wikidata": "Q70922889", "wikimedia_commons": "Category:David Hasselhoff Museum", "wikipedia": "en:David Hasselhoff Museum"}}, {"type": "node", "id": 5119217259, "lat": 52.5168725, "lon": 13.4060339, "tags": {"addr:city": "Berlin", "addr:housenumber": "7", "addr:postcode": "10178", "addr:street": "Poststraße", "check_date": "2024-07-26", "email": "designpanoptikum@googlemail.com", "fee": "yes", "name": "Designpanoptikum", "opening_hours": "Th, Sa 12:00-18:00", "phone": "+49 1577 4012991", "tourism": "museum", "website": "https://www.designpanoptikum.com", "wikidata": "Q1200705", "wikipedia": "en:Designpanoptikum"}}, {"type": "node", "id": 5186166877, "lat": 52.5057864, "lon": 13.3058261, "tags": {"addr:housenumber": "2", "addr:street": "Stuttgarter Platz", "check_date": "2024-03-13", "description": "Museum für Lebensgeschichten", "name": "Polyrama", "opening_hours": "Mo-Tu off; We,Fr-Su 11:00-18:00; Th 11:00-20:00", "tourism": "museum", "website": "https://www.polyrama.de/"}}, {"type": "node", "id": 5306246621, "lat": 52.4794637, "lon": 13.431275, "tags": {"addr:city": "Berlin", "addr:country": "DE", "addr:housenumber": "3", "addr:postcode": "12053", "addr:street": "Am Sudhaus", "addr:suburb": "Neukölln", "check_date": "2023-02-05", "contact:phone": "+49 30 832159120", "fee": "yes", "fee:icom_member": "no", "museum": "art", "name": "Kindl - Zentrum für zeitgenössische Kunst", "opening_hours": "We 12:00-20:00; Th-Su 12:00-18:00", "operator": "Kindl - Zentrum für zeitgenössische Kunst GmbH", "phone": "+49 30 8321591216", "tourism": "museum", "website": "https://www.kindl-berlin.de/", "wheelchair": "yes", "wikidata": "Q2363268", "wikimedia_commons": "Category:Berliner Kindl brewery (Berlin-Neukölln)", "wikipedia": "de:Sudhaus der Berliner Kindl-Brauerei"}}, {"type": "node", "id": 5477244581, "lat": 52.4452795, "lon": 13.4470296, "tags": {"name": "Tauthaus", "tourism": "museum"}}, {"type": "node", "id": 5493352632, "lat": 52.5112602, "lon": 13.39626, "tags": {"addr:housenumber": "60", "addr:postcode": "10117", "addr:street": "Leipziger Straße", "check_date:opening_hours": "2020-11-23", "fee": "yes", "fee:icom_member": "no", "name": "Julia Stoschek Collection Berlin", "opening_hours": "Sa-Su 12:00-18:00", "tourism": "museum", "website": "https://www.jsc.art"}}, {"type": "node", "id": 5498079821, "lat": 52.4971249, "lon": 13.4188484, "tags": {"fee": "no", "name": "Künstlerhaus Bethanien", "opening_hours": "Tu-Su 14:00-19:00", "tourism": "museum", "website": "https://www.bethanien.de/", "wheelchair": "yes"}}, {"type": "node", "id": 5504502639, "lat": 52.4795502, "lon": 13.3302646, "tags": {"addr:city": "Berlin", "addr:country": "DE", "addr:housenumber": "17", "addr:postcode": "10715", "addr:street": "Bundesplatz", "addr:suburb": "Wilmersdorf", "name": "KiKuFri", "tourism": "museum", "website": "https://www.kikufri.de/"}}, {"type": "node", "id": 5688015226, "lat": 52.5173218, "lon": 13.4645632, "tags": {"addr:city": "Berlin", "addr:housenumber": "10", "addr:postcode": "10247", "addr:street": "Schreinerstraße", "fee": "no", "name": "Hatch Sticker Museum", "opening_hours": "Sa 12:00-14:00", "operator:type": "private", "tourism": "museum", "website": "https://hatchkingdom.com/pages/uber-das-museum", "wheelchair": "limited"}}, {"type": "node", "id": 5723205465, "lat": 52.4673699, "lon": 13.2615082, "tags": {"addr:city": "Berlin", "addr:country": "DE", "addr:housename": "Jagdschloß Grunewald", "addr:housenumber": "100", "addr:postcode": "14193", "addr:street": "Hüttenweg", "addr:suburb": "Grunewald", "fee": "yes", "fee:icom_member": "no", "museum": "history", "name": "Jagdschloss Grunewald", "opening_hours": "Nov-Mar Sa,Su,PH 10:00-16:00; Apr-Oct Tu-Su 10:00-18:00", "tourism": "museum", "wikidata": "Q531032"}}, {"type": "node", "id": 5875331486, "lat": 52.5215057, "lon": 13.4069139, "tags": {"addr:city": "Berlin", "addr:country": "DE", "addr:housenumber": "9", "addr:postcode": "10178", "addr:street": "Karl-Liebknecht-Straße", "addr:suburb": "Mitte", "contact:email": "info@illuseum-berlin.de", "contact:website": "https://www.illuseum-berlin.de", "fee": "yes", "name": "Illuseum Berlin", "opening_hours": "Mo-Su 10:00-20:00", "toilets:wheelchair": "yes", "tourism": "museum", "wheelchair": "yes", "wikidata": "Q115812096"}}, {"type": "node", "id": 6119371020, "lat": 52.4588463, "lon": 13.2894689, "tags": {"fee": "yes", "name": "Culinarium", "tourism": "museum"}}, {"type": "node", "id": 6474864586, "lat": 52.4609975, "lon": 13.5500961, "tags": {"name": "Alice – Museum für Kinder", "tourism": "museum", "wikidata": "Q1741851"}}, {"type": "node", "id": 6475506035, "lat": 52.5043179, "lon": 13.4348363, "tags": {"addr:city": "Berlin", "addr:housenumber": "127", "addr:postcode": "10997", "addr:street": "Köpenicker Straße", "contact:facebook": "https://de-de.facebook.com/kapmumuseum/", "contact:instagram": "https://www.instagram.com/museumdeskapitalismus/", "contact:twitter": "https://twitter.com/kapmuseum", "fee": "no", "name": "Museum des Kapitalismus", "opening_hours": "Th 17:00-19:00; Sa 14:00-18:00", "toilets:wheelchair": "no", "tourism": "museum", "website": "https://museumdeskapitalismus.de/", "wheelchair": "yes", "wikidata": "Q27975079", "wikipedia": "de:Museum des Kapitalismus"}}, {"type": "node", "id": 6522039698, "lat": 52.4395718, "lon": 13.3854756, "tags": {"addr:city": "Berlin", "addr:country": "DE", "addr:housenumber": "43", "addr:postcode": "12107", "addr:street": "Alt-Mariendorf", "addr:suburb": "Mariendorf", "fee": "no", "name": "Tempelhof Museum", "opening_hours": "Tu,We 13:00-18:00; Th 10:00-18:00; Fr-Su 13:00-18:00", "tourism": "museum", "website": "https://www.museen-tempelhof-schoeneberg.de/uebersicht-tempelhof-museum.html", "wikidata": "Q76632506"}}, {"type": "node", "id": 6578042743, "lat": 52.5192079, "lon": 13.2862663, "tags": {"addr:city": "Berlin", "addr:country": "DE", "addr:housenumber": "17/18", "addr:postcode": "14059", "addr:street": "Sophie-Charlotten-Straße", "addr:suburb": "Charlottenburg", "contact:email": "gf@smb.spk-berlin.de", "contact:phone": "+49 30 32676911", "contact:website": "https://www.smb.museum/museen-und-einrichtungen/gipsformerei/", "fee": "yes", "fee:icom_member": "no", "name": "Gipsformerei", "opening_hours": "Mo-Th 09:00-16:00; We 09:00-18:00", "tourism": "museum"}}, {"type": "node", "id": 6834779786, "lat": 52.520848, "lon": 13.4084747, "tags": {"addr:city": "Berlin", "addr:country": "DE", "addr:housenumber": "1A", "addr:postcode": "10178", "addr:street": "Panoramastraße", "addr:suburb": "Mitte", "contact:website": "https://www.officiallittlebigcity.com/", "fee": "yes", "name": "Little Big City", "opening_hours": "Mo-Su 10:00-19:00", "operator": "Merlin Entertainments Group Deutschland", "operator:type": "private", "tourism": "museum", "wheelchair": "no"}}, {"type": "node", "id": 6880841995, "lat": 52.5333155, "lon": 13.4202437, "tags": {"addr:city": "Berlin", "addr:country": "DE", "addr:housenumber": "227/228", "addr:postcode": "10405", "addr:street": "Prenzlauer Allee", "addr:suburb": "Prenzlauer Berg", "check_date:opening_hours": "2021-06-16", "contact:phone": "+49 30 902953917", "contact:website": "https://www.berlin.de/museum-pankow/", "fee": "no", "internet_access": "wlan", "name": "Museum Pankow", "opening_hours": "Tu-Su 10:00-18:00", "tourism": "museum", "wikidata": "Q17353863", "wikipedia": "de:Museum Pankow"}}, {"type": "node", "id": 6880841996, "lat": 52.5405294, "lon": 13.4226724, "tags": {"addr:city": "Berlin", "addr:country": "DE", "addr:housenumber": "5/6", "addr:postcode": "10437", "addr:street": "Senefelderstraße", "addr:suburb": "Prenzlauer Berg", "check_date": "2023-01-28", "fee": "yes", "kids_area": "yes", "kids_area:fee": "yes", "kids_area:indoor": "yes", "museum": "children", "name": "MACHmit! Museum für Kinder", "note": "Das MachMitMuseum ist in der ehemaligen Eliaskirche untergebracht", "opening_hours": "Th-Fr 14:00-18:00; Sa-Su 10:00-18:00; Dec 24-26 off", "payment:mastercard": "yes", "payment:visa": "yes", "phone": "+49 30 74778200", "toilets": "yes", "toilets:access": "customers", "tourism": "museum", "website": "https://www.machmitmuseum.de/", "wheelchair": "yes", "wikidata": "Q1881085", "wikipedia": "de:MACHmit! Museum für Kinder"}}, {"type": "node", "id": 7063453003, "lat": 52.5192239, "lon": 13.2971723, "tags": {"addr:city": "Berlin", "addr:country": "DE", "addr:housenumber": "70", "addr:postcode": "14059", "addr:street": "Schloßstraße", "addr:suburb": "Charlottenburg", "contact:website": "https://www.smb.museum/museen-einrichtungen/sammlung-scharf-gerstenberg/home/", "fee": "yes", "fee:icom_member": "no", "name": "Sammlung Scharf-Gerstenberg", "name:en": "Scharf-Gerstenberg Collection", "opening_hours": "We-Su 11:00-18:00; Mo,Tu off", "tourism": "museum", "wikidata": "Q322010", "wikipedia": "de:Sammlung Scharf-Gerstenberg"}}, {"type": "node", "id": 7063483104, "lat": 52.5188495, "lon": 13.2975972, "tags": {"addr:city": "Berlin", "addr:country": "DE", "addr:housenumber": "69B", "addr:postcode": "14059", "addr:street": "Schloßstraße", "addr:suburb": "Charlottenburg", "alt_name": "Abgußsammlung", "fee": "no", "name": "Abguss-Sammlung Antiker Plastik", "operator": "Freie Universität Berlin", "tourism": "museum", "website": "https://abguss-sammlung-berlin.de/", "wikidata": "Q76632399"}}, {"type": "node", "id": 7274621179, "lat": 52.543528, "lon": 13.4214133, "tags": {"addr:city": "Berlin", "addr:country": "DE", "addr:housenumber": "77", "addr:postcode": "10437", "addr:street": "Dunckerstraße", "addr:suburb": "Prenzlauer Berg", "charge": "3.00 EUR", "check_date": "2023-04-08", "contact:phone": "+49 30 4452321", "contact:website": "http://ausstellung-dunckerstrasse.de/", "description": "fee <18y 1,50€", "fee": "yes", "name": "Zimmermeister Brunzel baut ein Mietshaus", "opening_hours": "Mo, Tu, Th-Su 11:00-16:30", "operator": "Pankow Museum;Miteinander-Füreinander Selbsthilfebegegnungsstätten e.V.", "tourism": "museum", "wheelchair": "no"}}, {"type": "node", "id": 8413352835, "lat": 52.5170316, "lon": 13.4012274, "tags": {"addr:city": "Berlin", "addr:country": "DE", "addr:postcode": "10178", "addr:street": "Schloßplatz", "addr:suburb": "Mitte", "air_conditioning": "yes", "check_date": "2024-11-23", "contact:phone": "+49 30 992118989", "contact:website": "https://www.humboldtforum.org/", "description": "Das Humboldt Forum ist die Museumsplattform im (rekonstruierten) Berliner Schloss", "fee": "no", "image": "https://photos.app.goo.gl/NBnHt1Jh7Tng68W4A", "internet_access": "wlan", "internet_access:fee": "no", "name": "Humboldt Forum", "nohousenumber": "yes", "opening_hours": "Mo,We-Su 10:30-18:30; Tu off", "operator": "Stiftung Humboldt Forum im Berliner Schloss", "operator:type": "public", "payment:cash": "yes", "payment:credit_cards": "yes", "start_date": "2020-12-16", "toilets": "yes", "toilets:access": "yes", "toilets:fee": "no", "toilets:handwashing": "yes", "toilets:paper_supplied": "yes", "toilets:wheelchair": "yes", "tourism": "museum", "url": "https://youtu.be/66hOhhF-bfs", "wheelchair": "yes", "wheelchair:website": "https://www.humboldtforum.org/de/barrierefreiheit/", "wikidata": "Q20196262", "wikipedia": "de:Humboldt Forum"}}, {"type": "node", "id": 8428338215, "lat": 52.4719263, "lon": 13.1386768, "tags": {"addr:city": "Berlin", "addr:postcode": "14089", "addr:street": "Am Flugplatz Gatow", "museum": "history", "name": "Militär-Historisches Museum Berlin-Gatow", "opening_hours": "Tu-Su 10:00-18:00", "opening_hours:covid19": "restricted", "operator": "Bundeswehr", "operator:type": "government", "tourism": "museum", "url": "http://www.mhm-gatow.de"}}, {"type": "node", "id": 8888473363, "lat": 52.5209131, "lon": 13.3871461, "tags": {"addr:city": "Berlin", "addr:country": "DE", "addr:housenumber": "17", "addr:postcode": "10117", "addr:street": "Reichstagufer", "addr:suburb": "Mitte", "check_date": "2024-08-18", "check_date:opening_hours": "2023-09-20", "contact:phone": "+49 30 467777911", "contact:website": "https://www.hdg.de/traenenpalast/", "fee": "no", "museum": "history", "name": "Tränenpalast", "name:de": "Tränenpalast", "name:en": "Palace of Tears", "opening_hours": "Mo off; Tu-Fr 09:00-18:00; Sa-Su,PH 10:00-18:00", "operator": "Stiftung Haus der Geschichte der Bundesrepublik Deutschland", "operator:short": "Haus der Geschichte", "operator:type": "public", "operator:wikidata": "Q315021", "start_date": "2011-09-15", "toilets": "yes", "toilets:access": "yes", "toilets:fee": "no", "toilets:wheelchair": "yes", "tourism": "museum", "wheelchair": "yes"}}, {"type": "node", "id": 8941022529, "lat": 52.6630365, "lon": 13.6349776, "tags": {"museum": "history", "name": "Historische Landmaschinen-Ausstellung", "name:en": "Historic Agricultural Equipment", "tourism": "museum"}}, {"type": "node", "id": 8941022530, "lat": 52.6628113, "lon": 13.6353608, "tags": {"museum": "history", "name": "Historische Bügeleisen-Ausstellung", "name:en": "Historic Irons and Iron equipment", "tourism": "museum"}}, {"type": "node", "id": 8946648417, "lat": 52.4865039, "lon": 13.4357058, "tags": {"addr:housenumber": "52", "addr:postcode": "12045", "addr:street": "Weichselstraße", "fee": "no", "name": "Erdemuseum", "name:en": "Earthmuseum", "opening_hours": "We-Sa 14:00-18:00", "tourism": "museum", "website": "https://erdemuseum.de", "wheelchair": "no"}}, {"type": "node", "id": 9272790617, "lat": 52.5087918, "lon": 13.3913957, "tags": {"addr:housenumber": "70", "addr:postcode": "10117", "addr:street": "Schützenstraße", "fee": "yes", "fee:icom_member": "no", "name": "Disgusting Food Museum", "opening_hours": "Fr-Tu 11:00-19:00", "phone": "+49 30 23887745", "tourism": "museum", "website": "https://disgustingfoodmuseum.berlin/"}}, {"type": "node", "id": 9275262971, "lat": 52.5136141, "lon": 13.3238223, "tags": {"fee": "no", "name": "Architekturmuseum", "opening_hours": "Mo-Th 12:00-16:00", "tourism": "museum", "website": "https://architekturmuseum.ub.tu-berlin.de/", "wikidata": "Q635323", "wikipedia": "de:Architekturmuseum der Technischen Universität Berlin"}}, {"type": "node", "id": 9277014760, "lat": 52.5158884, "lon": 13.3975159, "tags": {"addr:city": "Berlin", "addr:housenumber": "1", "addr:postcode": "10117", "addr:street": "Werderscher Markt", "addr:suburb": "Mitte", "contact:phone": "+49 30 20905577", "fee": "no", "name": "Friedrichswerdersche Kirche", "name:de": "Friedrichswerdersche Kirche", "name:es": "Iglesia de Friedrichswerder", "name:fr": "Église de Friedrichswerder", "opening_hours": "Tu-Su 10:00-18:00", "tourism": "museum", "website": "https://www.smb.museum/museen-einrichtungen/friedrichswerdersche-kirche/", "wheelchair": "limited"}}, {"type": "node", "id": 9689247850, "lat": 52.510452, "lon": 13.4032861, "tags": {"addr:city": "Berlin", "addr:country": "DE", "addr:housenumber": "30", "addr:postcode": "10117", "addr:street": "Seydelstraße", "addr:suburb": "Mitte", "alt_name:en": "Museum für bildende Papierkunst", "contact:website": "https://www.hausdespapiers.com/", "fee": "no", "name": "Haus des Papiers", "opening_hours": "Fr-Su 10:00-17:00; Mo-Th off", "operator": "Haus des Papiers gGmbH", "tourism": "museum", "wikidata": "Q107313410", "wikipedia": "de:Haus des Papiers"}}, {"type": "node", "id": 9741714717, "lat": 52.4978636, "lon": 13.3597341, "tags": {"addr:housenumber": "18", "addr:postcode": "10783", "addr:street": "Bülowstraße", "name": "Das kleine Grosz Museum", "opening_hours": "Th, Sa-Mo 11:00-18:00; Fr 11:00-20:00", "tourism": "museum", "website": "https://www.daskleinegroszmuseum.berlin/", "wikidata": "Q112041310"}}, {"type": "node", "id": 9806828893, "lat": 52.5028154, "lon": 13.4452761, "tags": {"addr:city": "Berlin", "addr:country": "DE", "addr:housenumber": "80", "addr:postcode": "10243", "addr:street": "Mühlenstraße", "addr:suburb": "Friedrichshain", "contact:website": "https://thewallmuseum.com", "name": "The Wall Museum", "tourism": "museum", "wikidata": "Q54453799", "wikipedia": "de:The Wall Museum Berlin"}}, {"type": "node", "id": 9926784273, "lat": 52.4658388, "lon": 13.4339213, "tags": {"addr:housenumber": "17", "addr:street": "Kranoldstraße", "description": "Bibelgesellschaft, die verschiedene Workshops für Jugendlich mit Lego und Minecraft anbietet sowie ein Bibelmuseum beherbergt.", "name": "Bibellabor", "tourism": "museum", "website": "https://canstein-berlin.de/"}}, {"type": "node", "id": 9979815161, "lat": 52.5205542, "lon": 13.2920498, "tags": {"fee": "yes", "name": "Käthe-Kollwitz-Museum Berlin", "name:ja": "ケーテ・コルヴィッツ美術館", "opening_hours": "PH,Mo-Su 11:00-18:00", "start_date": "2022-09", "tourism": "museum", "website": "https://www.kaethe-kollwitz.berlin/", "wikidata": "Q20892625", "wikipedia": "de:Käthe-Kollwitz-Museum Berlin"}}, {"type": "node", "id": 9979815162, "lat": 52.5209193, "lon": 13.2958372, "tags": {"addr:city": "Berlin", "addr:country": "DE", "addr:housenumber": "10", "addr:postcode": "14059", "addr:street": "Spandauer Damm", "addr:suburb": "Charlottenburg", "contact:website": "https://www.spsg.de/schloesser-gaerten/objekt/schloss-charlottenburg-altes-schloss/", "fee": "yes", "fee:icom_member": "no", "name": "Schloss Charlottenburg", "name:de": "Schloss Charlottenburg", "name:en": "Charlottenburg Palace", "name:es": "Palacio de Charlottenburg", "name:fa": "کاخ شارلوتنبورگ", "name:fr": "Château de Charlottenburg", "name:he": "ארמון שרלוטנבורג", "name:it": "Castello di Charlottenburg", "name:ja": "シャルロッテンブルク宮殿", "name:nl": "Slot Charlottenburg", "name:pl": "Pałac Charlottenburg", "name:uk": "Замок Шарлоттенбург", "name:zh": "夏洛騰堡宮", "opening_hours": "Tu-Su 10:00-17:30", "operator": "Stiftung Preußische Schlösser und Gärten Berlin-Brandenburg", "toilets:wheelchair": "yes", "tourism": "museum", "wheelchair": "yes"}}, {"type": "node", "id": 10003644033, "lat": 52.53393, "lon": 13.3405293, "tags": {"addr:city": "Berlin", "addr:country": "DE", "addr:housenumber": "103", "addr:postcode": "10551", "addr:street": "Quitzowstraße", "addr:suburb": "Moabit", "contact:website": "https://trostfrauen.museum", "fee": "no", "name": "Museum der Trostfrauen", "opening_hours": "Tu 14:00-18:00; Su 14:00-18:00", "tourism": "museum"}}, {"type": "node", "id": 10029372863, "lat": 52.4876934, "lon": 13.3885333, "tags": {"addr:city": "Berlin", "addr:country": "DE", "addr:housenumber": "40", "addr:postcode": "10965", "addr:street": "Fidicinstraße", "addr:suburb": "Kreuzberg", "contact:phone": "+49 30 61627505", "contact:website": "https://www.muehlenhaupt.de/", "name": "Kurt Mühlenhaupt Museum", "opening_hours": "Tu-Su 14:00-18:00", "tourism": "museum", "wikidata": "Q18288036", "wikimedia_commons": "Category:Kurt-Mühlenhaupt-Museum", "wikipedia": "de:Kurt Mühlenhaupt Museum"}}, {"type": "node", "id": 10041423479, "lat": 52.5301032, "lon": 13.3683003, "tags": {"addr:city": "Berlin", "addr:country": "DE", "addr:housenumber": "54", "addr:postcode": "10557", "addr:street": "Heidestraße", "addr:suburb": "Moabit", "contact:website": "https://www.hauskunstmitte.de/", "fee": "yes", "name": "Haus Kunst Mitte", "opening_hours": "We-Su 12:00-18:00; Mo-Tu closed", "tourism": "museum", "wheelchair": "limited"}}, {"type": "node", "id": 10142723917, "lat": 52.5174509, "lon": 13.3904195, "tags": {"addr:housenumber": "10", "addr:postcode": "10117", "addr:street": "Unter den Linden", "check_date:opening_hours": "2024-03-25", "fee": "yes", "fee:icom_member": "unknown", "name": "Bud Spencer Museum", "opening_hours": "Mo-Su 10:00-19:00", "tourism": "museum", "website": "https://www.budspencer-museum.com/"}}, {"type": "node", "id": 10154918993, "lat": 52.3767447, "lon": 13.627162, "tags": {"check_date:opening_hours": "2024-04-01", "fee": "no", "museum": "history", "name": "Kleines Eichwalder Museum für Ortsgeschichte", "opening_hours:signed": "no", "operator": "Ortschronist Eichwalde", "operator:type": "public", "tourism": "museum"}}, {"type": "node", "id": 10804128222, "lat": 52.3878178, "lon": 13.3970516, "tags": {"addr:housenumber": "41", "addr:street": "Steinstraße", "description": "Empfang und Eingang 5. OG", "entrance": "main", "fee": "no", "name": "Kindermuseum unterm Dach", "opening_hours": "Mo-Fr 14:00-18:00; Sa, Su 11:00-17:00", "tourism": "museum", "website": "https://www.kindermuseum-unterm-dach.berlin/"}}, {"type": "node", "id": 10855520708, "lat": 52.5275959, "lon": 13.3940895, "tags": {"addr:housenumber": "155", "addr:postcode": "10115", "addr:street": "Linienstraße", "email": "mail@neugerriemschneider.com", "name": "neugerriemschneider", "opening_hours": "Mo-Su 11:00-18:00", "phone": "030 28877277", "tourism": "museum", "website": "https://www.neugerriemschneider.com/"}}, {"type": "node", "id": 10959576469, "lat": 52.5077349, "lon": 13.3880411, "tags": {"addr:city": "Berlin", "addr:housenumber": "91", "addr:postcode": "10117", "addr:street": "Zimmerstraße", "fee": "yes", "fee:icom_member": "unknown", "museum": "history", "name": "TimeRide - Berlin 1985 und VR-Stadtrundgänge", "official_name": "TimeRide Senseum Berlin", "operator": "TimeRide GmbH", "operator:type": "business", "tourism": "museum", "website": "https://www.timeride.de/berlin"}}, {"type": "node", "id": 10992121591, "lat": 52.4549647, "lon": 13.5786101, "tags": {"addr:housenumber": "12", "addr:street": "Puchanstraße", "name": "Gedenkstätte Köpenicker Blutwoche", "opening_hours": "Th 10:00-18:00; Su 14:00-18:00", "phone": "+49 30 902973351", "tourism": "museum", "website": "https://www.berlin.de/museum-treptow-koepenick/gedenkstaette/startseite-der-gedenkst-tte-k-penicker-blutwoche-943089.php"}}, {"type": "node", "id": 11094595135, "lat": 52.4223917, "lon": 13.4374274, "tags": {"museum": "local", "name": "Heimatmuseum", "operator": "Buckower Heimatverein e.V.", "tourism": "museum"}}, {"type": "node", "id": 11203063853, "lat": 52.5029022, "lon": 13.3803524, "tags": {"check_date:opening_hours": "2024-11-23", "email": "kasse@berlinstory-bunker.de", "fee": "yes", "fee:icom_member": "unknown", "image": "https://commons.wikimedia.org/wiki/File:Berlin_Story_Bunker_im_Anhalter_Hochbunker,_Berlin-Kreuzberg-49369.jpg", "name": "Berlin Story Bunker", "opening_hours": "Mo-Su 10:00-19:00", "operator": "Berlin Story Bunker GmbH", "phone": "+49 30 26555546", "tourism": "museum", "website": "https://www.berlinstory.de/", "wikidata": "Q122705459"}}, {"type": "node", "id": 11272995330, "lat": 52.5257323, "lon": 13.3889157, "tags": {"addr:city": "Berlin", "addr:housenumber": "54", "addr:postcode": "10117", "addr:street": "Oranienburger Straße", "fee": "yes", "museum": "art", "name": "Fotografiska Berlin", "opening_hours": "Mo-Su 10:00-23:00", "operator": "Fotografiska", "tourism": "museum", "website": "https://www.fotografiska.com/berlin"}}, {"type": "node", "id": 11373437496, "lat": 52.5030126, "lon": 13.392346, "tags": {"addr:city": "Berlin", "addr:housenumber": "1", "addr:postcode": "10969", "addr:street": "Fromet-und-Moses-Mendelssohnplatz", "fee": "no", "museum": "children", "name": "ANOHA – Die Kinderwelt des Jüdischen Museums Berlin", "opening_hours": "Tu-Fr 09:00-16:00; PH,Sa,Su 10:00-17:00; Dec 24 off", "operator": "Stiftung Jüdisches Museum Berlin", "ref:vatin": "DE 200 42 91 62", "tourism": "museum", "website": "https://anoha.de/"}}, {"type": "node", "id": 11629726405, "lat": 52.519358, "lon": 13.3968995, "tags": {"addr:city": "Berlin", "addr:housenumber": "10", "addr:postcode": "10117", "addr:street": "Am Kupfergraben", "name": "Haus Bastian – Zentrum für kulturelle Bildung", "tourism": "museum", "website": "https://www.smb.museum/museen-einrichtungen/haus-bastian-zentrum-fuer-kulturelle-bildung/home/"}}, {"type": "node", "id": 11694388740, "lat": 52.5046731, "lon": 13.5234335, "tags": {"fee": "yes", "government": "culture", "name": "Museum Schloß Friedrichsfelde", "tourism": "museum", "wikidata": "Q76632504"}}, {"type": "node", "id": 11760628612, "lat": 52.5042573, "lon": 13.424666, "tags": {"addr:city": "Berlin", "addr:postcode": "10997", "addr:street": "Mariannenplatz 2", "name": "Theodor-Fontane-Apotheke im Bethanien", "opening_hours": "Tu-We 11:00-16:00", "operator": "FHXB Friedrichshain-Kreuzberg Museum", "tourism": "museum"}}, {"type": "node", "id": 11787592208, "lat": 52.4741555, "lon": 13.4461584, "tags": {"addr:city": "Berlin", "addr:country": "DE", "addr:housename": "Rixdorfer Schmiede", "addr:housenumber": "28", "addr:postcode": "12055", "addr:street": "Richardplatz", "addr:suburb": "Neukölln", "name": "Rixdorfer Schmiede", "opening_hours": "Mo-Th 10:00-13:00,14:00-17:00", "tourism": "museum", "wheelchair": "limited", "wikidata": "Q2155786", "wikipedia": "de:Schmiede am Richardplatz"}}, {"type": "node", "id": 11812325269, "lat": 52.5229427, "lon": 13.4077366, "tags": {"fee": "yes", "name": "DeJa Vu Museum", "opening_hours": "Mo-Su 10:00-20:00", "tourism": "museum", "wheelchair": "no"}}, {"type": "node", "id": 11813223472, "lat": 52.5179501, "lon": 13.3915589, "tags": {"access": "yes", "addr:city": "Berlin", "addr:housenumber": "8", "addr:postcode": "10117", "addr:street": "Unter den Linden", "contact:email": "kulturwerk@sbb.spk-berlin.de", "contact:instagram": "https://www.instagram.com/stabikulturwerk/", "contact:website": "https://stabi-kulturwerk.de/", "description": "1.000 Quadratmeter große Ausstellung zur Geschichte der Staatsbibliothek zu Berlin und ihrer Sammlungen.", "fee": "no", "image": "https://commons.wikimedia.org/wiki/File:Stabi_Kulturwerk.jpg", "name": "Stabi Kulturwerk", "opening_hours": "Tu-Su 10:00-18:00, Th 10:00-20:00; PH,Mo off; May 14,Dec 24,Dec 31 off", "operator": "Stiftung Preußischer Kulturbesitz", "operator:short": "SPK", "operator:type": "public", "operator:wikidata": "Q685171", "operator:wikipedia": "de:Stiftung Preußischer Kulturbesitz", "tourism": "museum", "wheelchair": "yes", "wikidata": "Q117822507", "wikimedia_commons": "Category:Stabi Kulturwerk"}}, {"type": "node", "id": 11816495166, "lat": 52.5167746, "lon": 13.380424, "tags": {"addr:city": "Berlin", "addr:housenumber": "78", "addr:postcode": "10117", "addr:street": "Unter den Linden", "email": "frage@erlebnis-europa.eu", "fee": "no", "name": "Erlebnis Europa", "opening_hours": "Mo-Su 10:00-18:00", "phone": "+49 30 2280 2900", "tourism": "museum", "website": "https://visiting.europarl.europa.eu/de/visitor-offer/other-locations/europa-experience/berlin", "wheelchair": "yes", "wikidata": "Q46448088"}}, {"type": "node", "id": 11900902990, "lat": 52.4573936, "lon": 13.5269565, "tags": {"addr:city": "Berlin", "addr:housenumber": "75A", "addr:postcode": "12459", "addr:street": "Wilhelminenhofstraße", "description": "House C, 6th floor, HTW-Wilhelminenhof campus", "email": "https://lists.htw-berlin.de/mailman/listinfo/htw-computermuseum", "fee": "no", "level": "6", "museum": "history", "name": "Computer Museum HTW Berlin", "operator:type": "university", "tourism": "museum", "website": "https://computermuseum.htw-berlin.de/", "wheelchair": "yes"}}, {"type": "node", "id": 11929113057, "lat": 52.5115009, "lon": 13.3997991, "tags": {"addr:city": "Berlin", "addr:housenumber": "54", "addr:postcode": "10117", "addr:street": "Leipziger Straße", "check_date": "2025-03-09", "fee": "yes", "fee:icom_member": "no", "internet_access": "wlan", "internet_access:fee": "no", "level": "0", "museum": "living_history", "name": "Werkbundarchiv - Museum der Dinge", "opening_hours": "Th-Mo 12:00-19:00", "phone": "+49 30 25 00 23 33.", "toilets": "yes", "toilets:wheelchair": "yes", "tourism": "museum", "website": "https://museumderdinge.de/", "wheelchair": "yes", "wikidata": "Q2560329", "wikipedia": "de:Werkbundarchiv – Museum der Dinge"}}, {"type": "node", "id": 11964727284, "lat": 52.5055188, "lon": 13.3373083, "tags": {"name": "Paradox Museum", "opening_hours": "Mo-Fr 11:00-19:00; Sa 10:00-19:00; Su 10:00-18:00; Tu off", "tourism": "museum", "website": "https://paradoxmuseumberlin.com"}}, {"type": "node", "id": 12178377448, "lat": 52.5493687, "lon": 13.3874681, "tags": {"access": "customers", "charge": "6 EUR/person;5 EUR/reduced", "contact:website": "https://www.berliner-unterwelten.de/mythos-germania/dauerausstellung.html", "description": "Dauerausstellung zu den Umbauplanungen für Berlin in der NS-Zeit.", "entrance": "main", "fee": "yes", "level": "-1.5", "min_age": "7", "name": "Mythos Germania", "opening_hours": "Sa 11:00-17:00", "operator": "Berliner Unterwelten e.V.", "operator:type": "private_non_profit", "operator:wikidata": "Q821833", "operator:wikipedia": "de:Berliner Unterwelten", "toilets": "yes", "tourism": "museum", "wheelchair": "no", "wikidata": "Q2166904"}}, {"type": "node", "id": 12207025383, "lat": 52.5374085, "lon": 13.3963637, "tags": {"addr:city": "Berlin", "addr:country": "DE", "addr:housenumber": "143", "addr:postcode": "10115", "addr:street": "Brunnenstraße", "addr:suburb": "Mitte", "fee": "yes", "museum": "history", "name": "Berliner Unterwelten e.V", "tourism": "museum"}}, {"type": "node", "id": 12345830211, "lat": 52.6161264, "lon": 13.6786585, "tags": {"addr:city": "Werneuchen", "addr:housenumber": "27", "addr:postcode": "16356", "addr:street": "Krummenseer Chaussee", "addr:suburb": "Seefeld", "email": "fred-frohberg-stift@gmx.net", "museum": "technology", "name": "Radiomuseum Berlin in Brandenburg", "opening_hours": "So 12:00-18:00", "operator": "Fred-Frohberg-Stiftungsfördergesellschaft e.V.", "phone": "+49 163 8207377", "tourism": "museum", "website": "https://radiomuseum.fred-frohberg-stiftung.de", "wikidata": "Q131198902"}}, {"type": "node", "id": 12357897312, "lat": 52.5243656, "lon": 13.4165412, "tags": {"addr:city": "Berlin", "addr:country": "DE", "addr:housenumber": "6", "addr:postcode": "10178", "addr:street": "Bernhard-Weiß-Straße", "contact:email": "kontakt@keibelstrasse.de", "contact:facebook": "https://www.facebook.com/keibelstrasse/", "contact:instagram": "https://www.instagram.com/keibelstrasse/", "contact:phone": "+49 30 28098011", "contact:twitter": "https://twitter.com/keibelstrasse", "contact:website": "https://www.keibelstrasse.de/", "fee": "no", "museum": "history", "name": "Lernort Keibelstraße", "old_name": "Untersuchungshaftanstalt Keibelstraße", "opening_hours": "\"nur im Rahmen von Führungen und Lernwerkstätten\"", "operator": "Agentur für Bildung, Geschichte und Politik e.V.", "operator:type": "private_non_profit", "start_date": "2019-02", "tourism": "museum", "wikidata": "Q84322842", "wikipedia": "de:Lernort Keibelstraße"}}, {"type": "node", "id": 12387885001, "lat": 52.5042678, "lon": 13.3258475, "tags": {"addr:housenumber": "185", "addr:street": "Uhlandstraße", "name": "Deutsches Design Museum", "opening_hours": "Sa 11:00-16:00", "tourism": "museum"}}, {"type": "node", "id": 12672329705, "lat": 52.5340605, "lon": 13.5271517, "tags": {"fee": "yes", "name": "DDR Museum Depot", "opening_hours": "Tu 11:00-15:00; Th 14:00-19:00; Su 11:00-16:00", "tourism": "museum", "website": "https://www.ddr-museum.de/de/sammlung/depotbesichtigung", "wheelchair": "limited"}}, {"type": "node", "id": 12696380244, "lat": 52.4771738, "lon": 13.3871949, "tags": {"addr:city": "Berlin", "addr:housenumber": "45", "addr:postcode": "12101", "addr:street": "Tempelhofer Damm", "changing_table": "yes", "charge": "6.00 EUR", "email": "thf-tower@thf-berlin.de", "fee": "yes", "level": "6", "museum": "history", "name": "THF Tower Ausstellung", "name:en": "THF Tower Exhibition", "phone": "+49 30 2000 374 261", "toilets": "yes", "toilets:wheelchair": "yes", "tourism": "museum", "website": "https://www.thf-berlin.de/ihr-besuch/dauerausstellungen", "wheelchair": "yes"}}, {"type": "node", "id": 12890518186, "lat": 52.5250141, "lon": 13.2788764, "tags": {"museum": "history", "name": "Friedhofsmuseum", "tourism": "museum"}}, {"type": "node", "id": 13062130474, "lat": 52.5016997, "lon": 13.3269358, "tags": {"addr:city": "Berlin", "addr:housenumber": "24", "addr:postcode": "10719", "addr:street": "Fasanenstraße", "changing_table": "no", "check_date": "2025-08-10", "email": "info@exilmuseum.berlin", "fee": "no", "museum": "history", "name": "Werkstatt Exilmuseum", "opening_hours": "closed", "operator": "Stiftung Exilmuseum Berlin", "operator:type": "private", "toilets": "yes", "toilets:menstrual_products": "no", "tourism": "museum", "website": "https://stiftung-exilmuseum.berlin/de", "wheelchair": "yes", "wikidata": "Q57759640", "wikipedia": "de:Stiftung Exilmuseum Berlin"}}, {"type": "node", "id": 13075857990, "lat": 52.5130556, "lon": 13.4039446, "tags": {"fee": "yes", "name": "PETRI Berlin", "tourism": "museum"}}]}