{"version": 0.6, "generator": "Overpass API 0.7.62.8 e802775f", "osm3s": {"timestamp_osm_base": "2025-08-20T14:19:30Z", "copyright": "The data included in this document is from www.openstreetmap.org. The data is made available under ODbL."}, "elements": [{"type": "node", "id": 64888570, "lat": 52.5646771, "lon": 13.5071817, "tags": {"addr:city": "Berlin", "addr:housenumber": "1", "addr:postcode": "13051", "addr:street": "Prerower Platz", "amenity": "post_office", "brand": "Deutsche Post", "brand:wikidata": "Q157645", "brand:wikipedia": "en:Deutsche Post", "level": "0", "name": "Deutsche Post", "opening_hours": "Mo-Fr 09:00-18:30; Sa 09:00-12:00", "operator": "Deutsche Post", "operator:wikidata": "Q157645", "toilets:wheelchair": "yes", "wheelchair": "yes"}}, {"type": "node", "id": 89274887, "lat": 52.5196982, "lon": 13.4115537, "tags": {"amenity": "post_office", "brand": "Deutsche Post", "brand:wikidata": "Q157645", "brand:wikipedia": "en:Deutsche Post", "level": "0", "name": "Deutsche Post", "opening_hours": "Mo-Fr 09:00-19:00; Sa 09:00-15:00", "operator": "Deutsche Post", "operator:wikidata": "Q157645", "operator:wikipedia": "de:Deutsche Post AG", "wheelchair": "no"}}, {"type": "node", "id": 97877441, "lat": 52.6357854, "lon": 13.4938163, "tags": {"addr:city": "Berlin", "addr:country": "DE", "addr:housenumber": "21", "addr:postcode": "13125", "addr:street": "Wiltbergstraße", "addr:suburb": "Buch", "amenity": "post_office", "entrance": "yes", "name": "Postbank Finanzcenter", "opening_hours": "PH,Mo-Su 00:00-24:00", "wheelchair": "yes"}}, {"type": "node", "id": 251290430, "lat": 52.441346, "lon": 13.6889878, "tags": {"amenity": "post_office"}}, {"type": "node", "id": 257705263, "lat": 52.5338083, "lon": 13.1980106, "tags": {"amenity": "post_office", "level": "1", "name": "Postbank Finanzcenter", "opening_hours": "Mo-Fr 09:30-18:00; Sa 09:30-17:30; Su,PH off", "operator": "Postbank;Deutsche Post;DHL", "wheelchair": "yes"}}, {"type": "node", "id": 258888571, "lat": 52.5651108, "lon": 13.5713372, "tags": {"addr:city": "Berlin", "addr:housenumber": "76-80", "addr:postcode": "12689", "addr:street": "Wittenberger Straße", "amenity": "post_office", "brand": "Deutsche Post", "brand:wikidata": "Q157645", "brand:wikipedia": "en:Deutsche Post", "name": "Deutsche Post", "opening_hours": "Sa 08:00-12:30; Mo-Fr 08:00-18:00", "operator": "Deutsche Post", "operator:wikidata": "Q157645", "operator:wikipedia": "de:Deutsche Post AG", "wheelchair": "yes"}}, {"type": "node", "id": 259609019, "lat": 52.548998, "lon": 13.2010183, "tags": {"amenity": "post_office", "name": "Post", "opening_hours": "Mo-Fr 10:00-18:30; Sa 10:00-13:00; Su,PH off", "operator": "Deutsche Post", "operator:wikidata": "Q157645", "operator:wikipedia": "de:Deutsche Post AG", "wheelchair": "yes"}}, {"type": "node", "id": 263388055, "lat": 52.4107336, "lon": 13.7527731, "tags": {"amenity": "post_office", "name": "Deutsche Post", "operator": "Deutsche Post", "operator:wikidata": "Q157645", "wheelchair": "yes"}}, {"type": "node", "id": 268072806, "lat": 52.5889268, "lon": 13.287191, "tags": {"amenity": "post_office", "brand": "Deutsche Post", "brand:wikidata": "Q157645", "brand:wikipedia": "en:Deutsche Post", "name": "Deutsche Post", "opening_hours": "Mo-Fr 09:00-18:30, Sa 09:00-14:00", "operator": "Deutsche Post", "operator:wikidata": "Q157645", "operator:wikipedia": "de:Deutsche Post AG", "postal_code": "13507", "wheelchair": "limited", "wheelchair:description": "Zugang nur zu Öffnungszeiten über Hintereingang"}}, {"type": "node", "id": 269477697, "lat": 52.5114603, "lon": 13.4169551, "tags": {"addr:city": "Berlin", "addr:country": "DE", "addr:postcode": "10179", "addr:street": "Brückenstraße", "addr:suburb": "Mitte", "amenity": "post_office", "brand": "Deutsche Post", "brand:wikidata": "Q157645", "brand:wikipedia": "en:Deutsche Post", "last_checked": "2015-02-25", "name": "Deutsche Post", "opening_hours": "Mo-Fr 09:00-18:00;Sa 09:00-12:00", "operator": "Deutsche Post", "operator:wikidata": "Q157645", "operator:wikipedia": "de:Deutsche Post AG", "wheelchair": "no"}}, {"type": "node", "id": 270320951, "lat": 52.4347533, "lon": 13.3426964, "tags": {"addr:city": "Berlin", "addr:country": "DE", "addr:housenumber": "60-62", "addr:postcode": "12247", "addr:street": "Kaiser-Wilhelm-Straße", "addr:suburb": "Lankwitz", "amenity": "post_office", "name": "Postbank Filiale 506", "opening_hours": "Mo-Fr 09:00-18:00; Sa 09:00-13:00", "operator": "Deutsche Post", "operator:wikidata": "Q157645", "wheelchair": "yes"}}, {"type": "node", "id": 270766888, "lat": 52.4383621, "lon": 13.7199883, "tags": {"amenity": "post_office", "wheelchair": "no"}}, {"type": "node", "id": 278361796, "lat": 52.5133719, "lon": 13.5226685, "tags": {"amenity": "post_office", "atm": "yes", "name": "Postbank", "opening_hours": "Mo-Fr 09:00-18:00; Sa 09:00-12:00", "operator": "Deutsche Post", "operator:wikidata": "Q157645", "operator:wikipedia": "de:Deutsche Post AG", "wheelchair": "yes"}}, {"type": "node", "id": 292396766, "lat": 52.6172587, "lon": 13.4886389, "tags": {"amenity": "post_office", "name": "Schmökerzeit", "opening_hours": "Mo-Sa 10:00-18:30", "wheelchair": "yes"}}, {"type": "node", "id": 297885281, "lat": 52.5139735, "lon": 13.6123814, "tags": {"addr:city": "Berlin", "addr:country": "DE", "addr:housenumber": "102", "addr:postcode": "12623", "addr:street": "Hönower Straße", "addr:suburb": "Mahlsdorf", "amenity": "post_office", "opening_hours": "Mo-Fr 10:00-18:00, Sa 10:00-12:00; PH off", "wheelchair": "no", "wheelchair:description:de": "Stufen am Eingang"}}, {"type": "node", "id": 298637247, "lat": 52.5264124, "lon": 13.4511435, "tags": {"addr:city": "Berlin", "addr:country": "DE", "addr:housenumber": "5", "addr:postcode": "10249", "addr:street": "Ebertystraße", "addr:suburb": "Friedrichshain", "amenity": "post_office", "check_date:opening_hours": "2023-09-20", "name": "Postfiliale", "opening_hours": "Mo-Fr 09:00-18:00; Sa 09:00-12:00", "wheelchair": "no"}}, {"type": "node", "id": 304897129, "lat": 52.4126136, "lon": 13.5721788, "tags": {"addr:city": "Berlin", "addr:housenumber": "1", "addr:postcode": "12524", "addr:street": "Bruno-Taut-Straße", "amenity": "post_office", "brand": "Deutsche Post", "brand:wikidata": "Q157645", "brand:wikipedia": "en:Deutsche Post", "name": "Deutsche Post", "opening_hours": "Mo-Fr 10:00-18:00; Sa 10:00-14:00", "operator": "Deutsche Post", "operator:wikidata": "Q157645", "operator:wikipedia": "de:Deutsche Post AG", "wheelchair": "yes"}}, {"type": "node", "id": 308811060, "lat": 52.5495837, "lon": 13.4161206, "tags": {"amenity": "post_office", "atm": "yes", "level": "0", "opening_hours": "Mo-Fr 09:00-20:00; Sa 10:00-20:00", "operator": "Deutsche Post", "operator:wikidata": "Q157645", "wheelchair": "yes"}}, {"type": "node", "id": 311985210, "lat": 52.5640375, "lon": 13.7260007, "tags": {"addr:city": "Altlandsberg", "addr:postcode": "15345", "addr:street": "Poststraße", "amenity": "post_office", "brand": "Deutsche Post AG", "brand:wikidata": "Q157645", "operator": "Deutsche Post", "operator:wikidata": "Q157645", "wheelchair": "no"}}, {"type": "node", "id": 322541059, "lat": 52.5965584, "lon": 13.3506157, "tags": {"addr:city": "Berlin", "addr:country": "DE", "addr:housenumber": "150", "addr:postcode": "13439", "addr:street": "Königshorster Straße", "addr:suburb": "Märkisches Viertel", "amenity": "post_office", "brand": "Deutsche Post", "brand:wikidata": "Q157645", "brand:wikipedia": "en:Deutsche Post", "name": "Deutsche Post", "opening_hours": "Mo-Fr 09:00-18:00; Sa 09:00-14:00", "operator": "Deutsche Post", "operator:wikidata": "Q157645", "operator:wikipedia": "de:Deutsche Post AG", "wheelchair": "yes"}}, {"type": "node", "id": 331473025, "lat": 52.3608876, "lon": 13.4121039, "tags": {"addr:city": "Blankenfelde-Mahlow", "addr:country": "DE", "addr:postcode": "15831", "addr:street": "Karl-Marx-Platz", "addr:suburb": "Mahlow", "amenity": "post_office", "brand": "DHL", "brand:wikidata": "Q489815", "brand:wikipedia": "en:DHL", "check_date:opening_hours": "2025-05-22", "name": "Postshop Mahlow", "opening_hours": "Mo-Fr 09:00-12:00,13:00-18:00; Sa 08:00-11:00; PH off", "wheelchair": "yes"}}, {"type": "node", "id": 345546409, "lat": 52.4586959, "lon": 13.5766157, "tags": {"addr:city": "Berlin", "addr:housenumber": "33-38", "addr:postcode": "12555", "addr:street": "Bahnhofstraße", "amenity": "post_office", "brand": "Deutsche Post", "brand:wikidata": "Q157645", "brand:wikipedia": "en:Deutsche Post", "level": "0", "name": "Deutsche Post", "opening_hours": "Mo-Fr 09:00-19:00; Sa 09:30-14:00; PH off", "operator": "Deutsche Post", "operator:wikidata": "Q157645", "operator:wikipedia": "de:Deutsche Post AG", "post_office": "post_annex", "wheelchair": "yes"}}, {"type": "node", "id": 353344153, "lat": 52.4038698, "lon": 13.2505498, "tags": {"amenity": "post_office", "brand": "Deutsche Post", "brand:wikidata": "Q157645", "brand:wikipedia": "en:Deutsche Post", "check_date:opening_hours": "2025-02-04", "name": "Deutsche Post", "opening_hours": "Mo-Fr 09:00-18:30; Sa 09:00-13:00", "operator": "Deutsche Post", "operator:wikidata": "Q157645", "wheelchair": "yes"}}, {"type": "node", "id": 360743771, "lat": 52.3897828, "lon": 13.2198607, "tags": {"amenity": "post_office", "operator": "Postagentur"}}, {"type": "node", "id": 370131144, "lat": 52.4506878, "lon": 13.3398208, "tags": {"addr:city": "Berlin", "addr:country": "DE", "addr:housenumber": "24", "addr:postcode": "12169", "addr:street": "Steglitzer Damm", "addr:suburb": "Steglitz", "amenity": "post_office", "brand": "Deutsche Post", "brand:wikidata": "Q157645", "brand:wikipedia": "en:Deutsche Post", "name": "Deutsche Post", "opening_hours": "Mo-Fr 09:00-19:00, Sa 09:00-16:00", "operator": "Deutsche Post", "operator:wikidata": "Q157645", "operator:wikipedia": "de:Deutsche Post AG", "phone": "+49 1802 3333", "website": "https://standorte.deutschepost.de/Standortsuche?postleitzahl=14163&standorttyp=filialen_verkaufspunkte&lang=de&period=0", "wheelchair": "yes"}}, {"type": "node", "id": 481148749, "lat": 52.4187952, "lon": 13.1573476, "tags": {"amenity": "post_office", "operator": "Deutsche Post", "operator:wikidata": "Q157645", "wheelchair": "yes"}}, {"type": "node", "id": 552357265, "lat": 52.5754596, "lon": 13.2839542, "tags": {"addr:city": "Berlin", "addr:country": "DE", "addr:housenumber": "69", "addr:postcode": "13507", "addr:street": "Bernauer Straße", "addr:suburb": "Tegel", "amenity": "post_office", "name": "Postfiliale", "opening_hours": "Mo-Fr 09:00-19:00, Sa 08:00-16:00", "operator": "DHL, Postbank, Deutsche Post", "phone": "+4918023333", "wheelchair": "yes"}}, {"type": "node", "id": 597557763, "lat": 52.4522325, "lon": 13.56951, "tags": {"addr:city": "Berlin", "addr:country": "DE", "addr:housenumber": "32B", "addr:postcode": "12555", "addr:street": "Lindenstraße", "addr:suburb": "Köpenick", "amenity": "post_office", "name": "pin MAIL", "opening_hours": "Mo 08:00-12:00,13:00-16:00; Tu-Fr 08:00-12:00,13:00-18:00; Sa 08:00-13:00", "operator": "PIN AG", "wheelchair": "yes"}}, {"type": "node", "id": 618020076, "lat": 52.469814, "lon": 13.4630769, "tags": {"addr:city": "Berlin", "addr:housenumber": "4d", "addr:postcode": "12057", "addr:street": "Grenzallee", "amenity": "post_office", "brand": "k kiosk", "brand:wikidata": "Q60381703", "drink:club-mate": "yes", "name": "k kiosk", "opening_hours": "Mo-Sa 07:00-19:00", "shop": "newsagent", "source": "https://standorte.deutschepost.de/LocationDetail?template=locationdetail&standorttyp=filialen_verkaufspunkte&objecttype=branch&objectid=4121151", "wheelchair": "yes"}}, {"type": "node", "id": 627734098, "lat": 52.6554581, "lon": 13.54089, "tags": {"amenity": "post_office", "name": "Postagentur", "operator": "Deutsche Post AG", "wheelchair": "no"}}, {"type": "node", "id": 644659553, "lat": 52.5504533, "lon": 13.3788501, "tags": {"addr:city": "Berlin", "addr:country": "DE", "addr:housenumber": "42", "addr:postcode": "13357", "addr:street": "Pankstraße", "addr:suburb": "Gesundbrunnen", "amenity": "post_office", "check_date": "2025-08-03", "contact:phone": "+49 30 41995526", "level": "0", "name": "Zeitungsladen Parlak", "note": "Paket Shop ID: 2760190924", "opening_hours": "Mo-Fr 05:00-20:00; Sa 06:00-20:00; Su 07:00-20:00", "operator": "GLS", "operator:wikidata": "Q366182", "ref": "2760190924", "shop": "kiosk", "wheelchair": "no"}}, {"type": "node", "id": 669863754, "lat": 52.5593687, "lon": 13.0885694, "tags": {"amenity": "post_office", "noname": "yes", "opening_hours": "Mo-Fr 10:00-17:30; Sa 09:00-14:00", "operator": "Deutsche Post", "operator:wikidata": "Q157645", "operator:wikipedia": "de:Deutsche Post AG"}}, {"type": "node", "id": 674019820, "lat": 52.5430615, "lon": 13.3926865, "tags": {"amenity": "post_office", "check_date": "2023-03-16", "name": "Kiosk", "operator": "Deutsche Post", "operator:wikidata": "Q157645", "shop": "kiosk", "wheelchair": "limited"}}, {"type": "node", "id": 784381064, "lat": 52.5745377, "lon": 13.3548466, "tags": {"amenity": "post_office", "brand": "Hermes", "check_date:opening_hours": "2023-08-15", "opening_hours": "Mo-Fr 08:15-13:30,14:00-18:30; Sa 09:30-14:00", "operator": "Hermes", "operator:wikidata": "Q1613532", "wheelchair": "limited"}}, {"type": "node", "id": 945142182, "lat": 52.4210328, "lon": 13.5389405, "tags": {"amenity": "post_office", "operator": "Deutsche Post", "operator:wikidata": "Q157645", "operator:wikipedia": "de:Deutsche Post AG", "shop": "kiosk", "wheelchair": "yes"}}, {"type": "node", "id": 1028152134, "lat": 52.4149913, "lon": 13.347647, "tags": {"amenity": "post_office", "toilets:wheelchair": "no", "wheelchair": "yes"}}, {"type": "node", "id": 1056915626, "lat": 52.4350788, "lon": 13.2589726, "tags": {"addr:city": "Berlin", "addr:country": "DE", "addr:housenumber": "52", "addr:postcode": "14163", "addr:street": "Potsdamer Straße", "addr:suburb": "Zehlendorf", "amenity": "post_office", "check_date:opening_hours": "2024-08-31", "name": "Deutsche Post", "opening_hours": "Mo-Fr 09:00-18:00; Sa 09:00-14:00; Su,PH off", "operator": "Deutsche Post", "operator:wikidata": "Q157645", "operator:wikipedia": "de:Deutsche Post AG", "wheelchair": "yes"}}, {"type": "node", "id": 1066055936, "lat": 52.5359348, "lon": 13.4754318, "tags": {"amenity": "post_office", "check_date:opening_hours": "2025-01-06", "lottery": "yes", "name": "Post-Shop", "opening_hours": "Mo-Fr 08:00-18:00; Sa 08:00-13:00", "wheelchair": "yes"}}, {"type": "node", "id": 1068842530, "lat": 52.4174527, "lon": 13.2866287, "tags": {"amenity": "post_office", "toilets:wheelchair": "yes", "wheelchair": "yes"}}, {"type": "node", "id": 1118909742, "lat": 52.3492725, "lon": 13.1033559, "tags": {"amenity": "post_office", "name": "Post Shop", "opening_hours": "Mo-Fr 09:00-12:00,13:00-18:00; Sa 08:00-12:00", "wheelchair": "yes"}}, {"type": "node", "id": 1119746019, "lat": 52.4133804, "lon": 13.3142288, "tags": {"amenity": "post_office", "name": "Hermes Shop", "operator": "Hermes", "operator:wikidata": "Q1613532", "operator:wikipedia": "en:Hermes Group", "wheelchair": "yes"}}, {"type": "node", "id": 1157595126, "lat": 52.5695204, "lon": 13.3610124, "tags": {"amenity": "post_office", "check_date:opening_hours": "2024-09-26", "name": "Postbank", "opening_hours": "Mo 13:00-18:00, Tu-Fr 09:00-18:00; Sa 09:00-14:00", "operator": "Deutsche Post", "operator:wikidata": "Q157645", "wheelchair": "no"}}, {"type": "node", "id": 1207853564, "lat": 52.6367607, "lon": 13.2006049, "tags": {"amenity": "post_office", "ref": "Post", "wheelchair": "yes"}}, {"type": "node", "id": 1251071263, "lat": 52.5066446, "lon": 13.4160886, "tags": {"amenity": "post_office", "name": "tabaCCenter", "opening_hours": "PH off; Mo-Fr 07:00-19:00; Sa 07:00-17:00", "shop": "newsagent", "wheelchair": "yes"}}, {"type": "node", "id": 1323349216, "lat": 52.4074618, "lon": 13.2378394, "tags": {"addr:city": "Kleinmachnow", "addr:country": "DE", "addr:housenumber": "104b", "addr:postcode": "14532", "addr:street": "Zehlendorfer Damm", "amenity": "post_office", "opening_hours": "Mo-Fr 08:30-18:00; Sa 09:00-14:00; Su off", "wheelchair": "no"}}, {"type": "node", "id": 1334894394, "lat": 52.5681909, "lon": 13.4399318, "tags": {"addr:city": "Berlin", "addr:housenumber": "66", "addr:postcode": "13089", "addr:street": "Romain-Rolland-Straße", "addr:suburb": "Heinersdorf", "amenity": "post_office", "brand": "DHL", "brand:wikidata": "Q489815", "name": "DHL", "opening_hours": "Mo-Fr 09:00-18:00; Sa 09:00-13:00", "operator": "Mario Heine"}}, {"type": "node", "id": 1336764318, "lat": 52.4416735, "lon": 13.5879786, "tags": {"amenity": "post_office", "brand": "Deutsche Post", "brand:wikidata": "Q157645", "brand:wikipedia": "en:Deutsche Post", "name": "Deutsche Post", "opening_hours": "Mo-Fr 09:00-19:00; Sa 09:00-14:00; PH off", "operator": "Deutsche Post", "operator:wikidata": "Q157645", "operator:wikipedia": "de:Deutsche Post AG", "wheelchair": "yes"}}, {"type": "node", "id": 1338232283, "lat": 52.4974325, "lon": 13.5222608, "tags": {"amenity": "post_office", "check_date:opening_hours": "2024-07-22", "level": "0", "name": "Postbank Finanzcenter", "opening_hours": "Mo-Fr 09:00-18:00; Sa 09:00-12:30; PH off", "operator": "Postbank AG", "wheelchair": "yes"}}, {"type": "node", "id": 1370144820, "lat": 52.515231, "lon": 13.468602, "tags": {"addr:city": "Berlin", "addr:country": "DE", "addr:housenumber": "73-77", "addr:postcode": "10247", "addr:street": "Frankfurter Allee", "addr:suburb": "Friedrichshain", "amenity": "post_office", "atm": "yes", "brand": "Deutsche Post", "brand:wikidata": "Q157645", "brand:wikipedia": "en:Deutsche Post", "check_date:opening_hours": "2023-04-29", "level": "0", "name": "Deutsche Post", "opening_hours": "Mo-Fr 09:00-18:30, Sa 09:30-13:00", "operator": "Deutsche Post", "operator:wikidata": "Q157645", "operator:wikipedia": "de:Deutsche Post AG", "wheelchair": "yes"}}, {"type": "node", "id": 1385782504, "lat": 52.5090868, "lon": 13.3236362, "tags": {"amenity": "post_office", "opening_hours": "Mo-Fr 13:00-18:30", "wheelchair": "yes"}}, {"type": "node", "id": 1433484573, "lat": 52.6562829, "lon": 13.4222897, "tags": {"amenity": "post_office", "name": "Hermes SAT Bernau", "operator": "Hermes", "operator:wikidata": "Q1613532"}}, {"type": "node", "id": 1490227873, "lat": 52.5218706, "lon": 13.1648243, "tags": {"addr:city": "Berlin", "addr:housenumber": "28-30", "addr:postcode": "13593", "addr:street": "Obstallee", "amenity": "post_office", "brand": "Deutsche Post", "brand:wikidata": "Q157645", "brand:wikipedia": "en:Deutsche Post", "contact:phone": "+4918055555", "name": "Deutsche Post", "opening_hours": "Mo-Fr 09:00-18:00; Sa 09:00-13:00; PH off", "operator": "Deutsche Post", "operator:wikidata": "Q157645", "operator:wikipedia": "de:Deutsche Post AG", "wheelchair": "yes"}}, {"type": "node", "id": 1497906110, "lat": 52.5746676, "lon": 13.5736812, "tags": {"amenity": "post_office", "name": "Postfiliale Ahrensfelde", "opening_hours": "Mo-Fr 09:00-18:00; Sa 09:00-12:00", "wheelchair": "yes"}}, {"type": "node", "id": 1519869624, "lat": 52.4367636, "lon": 13.4469948, "tags": {"amenity": "post_office", "check_date:opening_hours": "2025-08-01", "name": "Deutsche Post / Postbank", "opening_hours": "Mo-Fr 09:00-18:30; Sa 09:00-13:00", "operator": "Deutsche Post", "operator:wikidata": "Q157645", "operator:wikipedia": "de:Deutsche Post AG", "wheelchair": "yes"}}, {"type": "node", "id": 1552575486, "lat": 52.5128124, "lon": 13.4176257, "tags": {"addr:city": "Berlin", "addr:country": "DE", "addr:housenumber": "5-6a", "addr:postcode": "10179", "addr:street": "Brückenstraße", "addr:suburb": "Mitte", "amenity": "post_office", "name": "StoExpress Germany GmbH", "name:zh": "申通德国(StoExpress)", "opening_hours": "Mo-Sa 10:00-18:00; PH off", "phone": "+49 30 610811300"}}, {"type": "node", "id": 1617243582, "lat": 52.5250711, "lon": 13.466216, "tags": {"amenity": "post_office", "check_date:opening_hours": "2023-09-22", "name": "Post-Shop", "opening_hours": "Mo-Fr 09:00-18:00; Sa 09:00-13:00", "wheelchair": "yes"}}, {"type": "node", "id": 1641970531, "lat": 52.4617546, "lon": 13.3853338, "tags": {"addr:city": "Berlin", "addr:country": "DE", "addr:housenumber": "171-173", "addr:postcode": "12099", "addr:street": "Tempelhofer Damm", "addr:suburb": "Tempelhof", "amenity": "post_office", "check_date": "2023-08-04", "name": "Postbank Finanzcenter", "opening_hours": "Sa 09:00-13:00; Mo-Fr 09:00-18:30", "operator": "Deutsche Post", "operator:wikidata": "Q157645", "operator:wikipedia": "de:Deutsche Post AG", "surveillance": "indoor", "wheelchair": "yes"}}, {"type": "node", "id": 1660300165, "lat": 52.5387081, "lon": 13.602865, "tags": {"amenity": "post_office", "check_date:opening_hours": "2025-01-15", "name": "Postbank Finanzcenter", "opening_hours": "Mo-Fr 09:00-18:30, Sa 09:00-12:00; PH off", "operator": "Deutsche Post", "operator:wikidata": "Q157645", "operator:wikipedia": "de:Deutsche Post AG", "wheelchair": "yes"}}, {"type": "node", "id": 1672551315, "lat": 52.4498642, "lon": 13.6243324, "tags": {"addr:city": "Berlin", "addr:country": "DE", "addr:housenumber": "117", "addr:postcode": "12587", "addr:street": "Bölschestraße", "addr:suburb": "Friedrichshagen", "amenity": "post_office", "check_date": "2025-05-01", "check_date:opening_hours": "2021-12-23", "description": "Postfiliale in Schäfers Post- und Lottoshop", "name": "Deutsche Post Partnerfiliale", "opening_hours": "Mo-Fr 10:00-18:00; Sa 09:00-12:00", "operator": "Deutsche Post", "operator:wikidata": "Q157645", "operator:wikipedia": "de:Deutsche Post AG", "website": "https://standorte.deutschepost.de/Standortsuche", "wheelchair": "no"}}, {"type": "node", "id": 1721717725, "lat": 52.6306779, "lon": 13.323336, "tags": {"addr:city": "Glienicke/Nordbahn", "addr:housenumber": "54", "addr:postcode": "16548", "addr:street": "Hauptstraße", "amenity": "post_office", "description": "Im SF Postagentur Laden", "name": "SF Postagentur", "opening_hours": "Mo-Fr 09:00-18:30; Sa 09:00-13:00", "operator": "Sascha Funke", "website": "https://www.sf-postagentur.de/"}}, {"type": "node", "id": 1734450896, "lat": 52.5902736, "lon": 13.397812, "tags": {"amenity": "post_office", "name": "Poststelle", "wheelchair": "no", "wheelchair:description": "2 Stufen, enger Weg, innen nochmals 1 große Stufe"}}, {"type": "node", "id": 1802756295, "lat": 52.4364269, "lon": 13.5443574, "tags": {"addr:city": "Berlin", "addr:country": "DE", "addr:housenumber": "11", "addr:postcode": "12489", "addr:street": "Dörpfeldstraße", "addr:suburb": "Adlershof", "amenity": "post_office", "check_date": "2025-06-01", "check_date:opening_hours": "2023-03-13", "name": "Monis Postshop", "opening_hours": "Mo-Fr 09:30-18:00; Sa 10:00-13:00", "post_office": "post_partner", "post_office:service_provider": "Deutsche Post;DHL", "ref": "516", "wheelchair": "yes"}}, {"type": "node", "id": 1881516186, "lat": 52.5048715, "lon": 13.3319097, "tags": {"addr:city": "Berlin", "addr:housenumber": "41", "addr:postcode": "10623", "addr:street": "Joachimsthaler Straße", "amenity": "post_office", "brand": "Deutsche Post", "brand:wikidata": "Q157645", "brand:wikipedia": "en:Deutsche Post", "check_date:opening_hours": "2023-02-20", "name": "Deutsche Post", "opening_hours": "Mo 09:30-19:00; Tu-Fr 09:30-18:30; Sa 09:30-14:00", "operator": "Deutsche Post", "operator:wikidata": "Q157645", "operator:wikipedia": "de:Deutsche Post AG", "wheelchair": "yes"}}, {"type": "node", "id": 1963129660, "lat": 52.4679454, "lon": 13.4307313, "tags": {"addr:city": "Berlin", "addr:country": "DE", "addr:housenumber": "111", "addr:postcode": "12051", "addr:street": "Hermannstraße", "addr:suburb": "Neukölln", "amenity": "post_office", "brand": "Deutsche Post", "brand:wikidata": "Q157645", "brand:wikipedia": "en:Deutsche Post", "name": "Deutsche Post", "opening_hours": "Mo-Fr 09:00-18:00; Sa 09:30-13:00; Su off", "operator": "Deutsche Post", "operator:wikidata": "Q157645", "operator:wikipedia": "de:Deutsche Post AG", "phone": "+49 30 62727927", "wheelchair": "no"}}, {"type": "node", "id": 2014284804, "lat": 52.4298452, "lon": 13.5205736, "tags": {"amenity": "post_office", "name": "Zok Regattahandel", "opening_hours": "Mo-Fr 10:00-18:00;Sa 10:00-14:00", "operator": "Hermes", "operator:wikidata": "Q1613532", "shop": "hardware", "website": "http://www.regattahandel.de/"}}, {"type": "node", "id": 2021286592, "lat": 52.4989616, "lon": 13.3135951, "tags": {"amenity": "post_office", "brand": "DHL", "check_date": "2024-07-10", "name": "Kiosk", "opening_hours": "Mo-Fr 08:00-20:00; Sa 08:00-18:00", "shop": "kiosk", "wheelchair": "limited"}}, {"type": "node", "id": 2032547417, "lat": 52.4839559, "lon": 13.3612903, "tags": {"addr:housenumber": "24", "addr:postcode": "10829", "addr:street": "Leberstraße", "amenity": "post_office", "name": "Zeitungen & Tabakwaren Barth", "opening_hours": "Mo-Fr 06:00-20:00; Sa 07:00-18:00; Su 08:00-12:00", "wheelchair": "no"}}, {"type": "node", "id": 2046262883, "lat": 52.5021696, "lon": 13.3529111, "tags": {"addr:city": "Berlin", "addr:country": "DE", "addr:housenumber": "11", "addr:postcode": "10785", "addr:street": "Karl-Heinrich-Ulrichs-Straße", "addr:suburb": "Schöneberg", "amenity": "post_office", "name": "PIN Mail AG", "opening_hours": "Mo 08:00-12:00,13:00-16:00; Tu-Fr 08:00-12:00,13:00-18:00; Sa 08:00-13:00", "wheelchair": "yes"}}, {"type": "node", "id": 2053207124, "lat": 52.4888853, "lon": 13.3858172, "tags": {"amenity": "post_office", "brand": "Hermes Paketshop", "check_date": "2023-09-23", "opening_hours": "Mo-Fr 09:00-18:00; Sa 10:00-14:00", "operator": "Hermes", "operator:wikidata": "Q1613532", "wheelchair": "yes"}}, {"type": "node", "id": 2075875010, "lat": 52.5240318, "lon": 13.4618807, "tags": {"addr:city": "Berlin", "addr:country": "DE", "addr:housenumber": "38", "addr:postcode": "10249", "addr:street": "Hermann-Blankenstein-Straße", "addr:suburb": "Prenzlauer Berg", "amenity": "post_office", "name": "kkiosk", "opening_hours": "Mo-Th 09:00-20:00; Fr,Sa 08:00-20:00", "wheelchair": "yes"}}, {"type": "node", "id": 2131447199, "lat": 52.5488549, "lon": 13.6002288, "tags": {"addr:housenumber": "17", "addr:street": "Landsberger Chaussee", "amenity": "post_office", "name": "Multi Service/Post"}}, {"type": "node", "id": 2260558395, "lat": 52.4330593, "lon": 13.2425952, "tags": {"amenity": "post_office", "operator": "Hermes", "operator:wikidata": "Q1613532", "type": "post_partner"}}, {"type": "node", "id": 2322990543, "lat": 52.5199928, "lon": 13.616877, "tags": {"amenity": "post_office", "name": "Hermes", "operator": "Hermes Europe"}}, {"type": "node", "id": 2398075984, "lat": 52.4420837, "lon": 13.4562593, "tags": {"amenity": "post_office", "noname": "yes", "wheelchair": "no"}}, {"type": "node", "id": 2429502439, "lat": 52.5101116, "lon": 13.4583614, "tags": {"addr:city": "Berlin", "addr:country": "DE", "addr:housenumber": "4", "addr:postcode": "10245", "addr:street": "Gabriel-Max-Straße", "addr:suburb": "Friedrichshain", "amenity": "post_office", "contact:phone": "+49 170 3066913", "description": "Spätverkauf und Postagentur", "name": "Quick Store Aquarium Lounge Postagentur", "opening_hours": "Mo-Sa 10:00-17:00; Su off", "post_office": "post_partner", "post_office:brand": "dhl,deutsche_post", "source": "Dakota 20", "wheelchair": "yes"}}, {"type": "node", "id": 2485492744, "lat": 52.492694, "lon": 13.4219892, "tags": {"addr:city": "Berlin", "addr:country": "DE", "addr:postcode": "10967", "addr:street": "Kottbusser Damm", "addr:suburb": "Kreuzberg", "amenity": "post_office", "brand": "DHL", "brand:wikidata": "Q489815", "check_date": "2023-06-18", "name": "DHL BVG Kiosk", "shop": "kiosk", "wheelchair": "limited"}}, {"type": "node", "id": 2724240147, "lat": 52.5187292, "lon": 13.3428175, "tags": {"amenity": "post_office", "name": "P&P Bürobedarf", "opening_hours": "Sa 10:00-13:00; Mo,Tu,Th 10:00-18:00; We,Fr 13:00-18:00", "ref": "Deutsche Post Filiale Berlin 211", "shop": "stationery", "wheelchair": "yes"}}, {"type": "node", "id": 2727787998, "lat": 52.6309315, "lon": 13.7328414, "tags": {"amenity": "post_office", "name": "Deutsche Post"}}, {"type": "node", "id": 2727790197, "lat": 52.63484, "lon": 13.733215, "tags": {"amenity": "post_office", "name": "Hermes Paketshop"}}, {"type": "node", "id": 2778210536, "lat": 52.4654765, "lon": 13.3833792, "tags": {"addr:housenumber": "31-33", "addr:street": "Alt-Tempelhof", "amenity": "post_office", "check_date:opening_hours": "2024-11-18", "name": "UPS Paketshop", "opening_hours": "Mo-Sa 08:00-20:00", "operator": "United Parcel Service", "wheelchair": "yes"}}, {"type": "node", "id": 2834832470, "lat": 52.5322847, "lon": 13.4352557, "tags": {"addr:city": "Berlin", "addr:country": "DE", "addr:housenumber": "36", "addr:postcode": "10407", "addr:street": "Bötzowstraße", "addr:suburb": "Prenzlauer Berg", "amenity": "post_office", "name": "Lotto Post Tabak", "opening_hours": "Mo-Fr 09:00-18:00; Sa 09:00-13:00", "shop": "kiosk", "source": "Survey", "wheelchair": "no"}}, {"type": "node", "id": 2868082584, "lat": 52.4500753, "lon": 13.2531967, "tags": {"addr:city": "Berlin", "addr:housenumber": "35-36", "addr:postcode": "14169", "addr:street": "Ladenstraße", "amenity": "post_office", "description": "Inside TeleMediaPoint", "name": "Post-Agentur", "opening_hours": "Mo-Fr 10:00-18:00; Sa 10:00-15:00", "operator": "Deutsche Post", "operator:wikidata": "Q157645"}}, {"type": "node", "id": 2960514674, "lat": 52.6075417, "lon": 13.4203494, "tags": {"amenity": "post_office", "name": "Postfiliale", "opening_hours": "Mo-Fr 08:00-20:00; Sa 09:00-20:00", "toilets:wheelchair": "no", "wheelchair": "yes"}}, {"type": "node", "id": 3046472102, "lat": 52.4823778, "lon": 13.4320943, "tags": {"amenity": "post_office", "level": "1", "name": "Postbank Filialcenter", "opening_hours": "Mo-Fr 10:00-19:00; Sa 10:00-16:00; PH off", "operator": "Deutsche Post", "operator:wikidata": "Q157645", "operator:wikipedia": "de:Deutsche Post AG", "website": "https://standorte.deutschepost.de/Standortsuche", "wheelchair": "yes"}}, {"type": "node", "id": 3188602341, "lat": 52.5101275, "lon": 13.2799282, "tags": {"addr:city": "Berlin", "addr:country": "DE", "addr:housenumber": "29", "addr:postcode": "14057", "addr:street": "Kaiserdamm", "addr:suburb": "Westend", "amenity": "post_office", "name": "Postcon Konsolidierungs GmbH", "operator": "postcon", "operator:wikidata": "Q2384619"}}, {"type": "node", "id": 3333071085, "lat": 52.6078582, "lon": 13.2349572, "tags": {"amenity": "post_office", "name": "Kiosk", "opening_hours": "Mo-Fr 07:00-18:00; Sa 07:30-13:00", "shop": "convenience"}}, {"type": "node", "id": 3365778060, "lat": 52.5436041, "lon": 13.7452097, "tags": {"amenity": "post_office", "opening_hours": "Mo-Fr 09:00-13:00, 15:00-18:00; Sa 09:00-12:00", "wheelchair": "limited"}}, {"type": "node", "id": 3475511115, "lat": 52.3777817, "lon": 13.0951241, "tags": {"addr:city": "Potsdam", "addr:country": "DE", "addr:housenumber": "22", "addr:postcode": "14478", "addr:street": "Schilfhof", "addr:suburb": "Schlaatz", "amenity": "post_office", "brand": "DHL", "brand:wikidata": "Q489815", "brand:wikipedia": "en:DHL", "name": "DHL", "opening_hours": "Mo-Sa 08:00-18:00; Su,PH off", "post_office:type": "post_partner", "ref": "484", "wheelchair": "yes"}}, {"type": "node", "id": 3619536287, "lat": 52.6200794, "lon": 13.2372447, "tags": {"amenity": "post_office", "name": "Getränke Hoffmann", "opening_hours": "Mo-Fr 09:00-20:00; Sa 08:00-18:00", "operator": "Hermes", "operator:wikidata": "Q1613532", "wheelchair": "yes"}}, {"type": "node", "id": 3673269309, "lat": 52.4529434, "lon": 13.1430531, "tags": {"addr:city": "Berlin", "addr:country": "DE", "addr:housenumber": "1A", "addr:postcode": "14089", "addr:street": "Sakrower Landstraße", "addr:suburb": "Kladow", "amenity": "post_office", "collection_times": "Mo-Fr 08:00 - 20:00; Sa 08:00-16:00", "noname": "yes", "opening_hours": "Mo-Fr 09:30-18:30; Sa 09:30-13:00", "post_office:type": "post_partner", "wheelchair": "yes"}}, {"type": "node", "id": 3738119422, "lat": 52.4224113, "lon": 13.751531, "tags": {"amenity": "post_office", "name": "Kiosk", "opening_hours": "Mo-Fr 09:00-19:00; Sa 09:00-18:00", "shop": "kiosk", "wheelchair": "yes"}}, {"type": "node", "id": 3767037835, "lat": 52.3839411, "lon": 13.1124944, "tags": {"addr:city": "Potsdam", "addr:country": "DE", "addr:housenumber": "12", "addr:postcode": "14482", "addr:street": "Grünstraße", "addr:suburb": "Babelsberg Süd", "amenity": "post_office", "brand": "Mail Boxes Etc.", "brand:wikidata": "Q1139182", "brand:wikipedia": "en:Mail Boxes Etc.", "email": "mbe0212@mbe.de", "fax": "+49 331 74007771", "name": "Mail Boxes etc.", "opening_hours": "Mo-Fr 10:00-12:00, 14:00-17:30; Sa-Su, PH off", "operator": "Hendrik Tietze", "payment:american_express": "yes", "payment:coins": "yes", "payment:girocard": "yes", "payment:maestro": "yes", "payment:mastercard": "yes", "payment:notes": "yes", "payment:visa": "yes", "phone": "+49 331 74007770", "ref": "0212", "shop": "copyshop", "website": "https://www.mbe.de/de/versand-druck/potsdam/0212"}}, {"type": "node", "id": 3811297499, "lat": 52.4566061, "lon": 13.4531846, "tags": {"amenity": "post_office", "brand": "FedEx", "brand:wikidata": "Q459477", "brand:wikipedia": "en:FedEx", "name": "FedEx Station"}}, {"type": "node", "id": 3842659812, "lat": 52.5449746, "lon": 13.5501366, "tags": {"amenity": "post_office", "check_date:opening_hours": "2022-07-06", "name": "Post office and newspaper shop", "opening_hours:signed": "no"}}, {"type": "node", "id": 3986745461, "lat": 52.6655411, "lon": 13.378612, "tags": {"addr:city": "Mühlenbecker Land", "addr:country": "DE", "addr:housenumber": "25", "addr:postcode": "16567", "addr:street": "Hauptstraße", "addr:suburb": "Mühlenbeck", "amenity": "post_office", "opening_hours": "Mo-Fr 10:00-18:00; Sa 08:00-13:00", "shop": "kiosk"}}, {"type": "node", "id": 4119774790, "lat": 52.5676599, "lon": 13.3786637, "tags": {"addr:street": "Provinzstraße", "amenity": "post_office", "check_date:opening_hours": "2021-10-12", "name": "Post & DHL", "opening_hours": "Mo-Fr 07:00-18:00; Sa 07:00-14:00", "wheelchair": "no"}}, {"type": "node", "id": 4123971025, "lat": 52.5209024, "lon": 13.6988982, "tags": {"amenity": "post_office", "name": "Filiale Neuenhagen", "opening_hours": "Mo-Fr 09:00-18:00; Sa 09:00-12:00", "operator": "Deutsche Post", "wheelchair": "yes"}}, {"type": "node", "id": 4131414394, "lat": 52.3655066, "lon": 13.3139161, "tags": {"addr:city": "Großbeeren", "addr:country": "DE", "addr:housenumber": "96", "addr:postcode": "14979", "addr:street": "Berliner Straße", "amenity": "post_office"}}, {"type": "node", "id": 4185109790, "lat": 52.3520874, "lon": 13.3062888, "tags": {"addr:city": "Großbeeren", "addr:country": "DE", "addr:housenumber": "24", "addr:postcode": "14979", "addr:street": "Dorfaue", "amenity": "post_office", "name": "Sun Plus Sonnenstudio Tabak Lotto Presse", "opening_hours": "Mo-Fr 09:00-18:00; Sa 09:00-16:00", "phone": "+49 33701 59365"}}, {"type": "node", "id": 4296515828, "lat": 52.40204, "lon": 13.5434356, "tags": {"amenity": "post_office", "operator": "Deutsche Post", "operator:wikidata": "Q157645"}}, {"type": "node", "id": 4316817351, "lat": 52.541846, "lon": 13.2365302, "tags": {"amenity": "post_office", "name": "Postfiliale Haselhorst", "opening_hours": "Mo,We,Fr 09:45-13:00, Sa 10:00-12:00, Mo-Fr 14:00-18:00", "operator": "Deutsche Post", "operator:wikidata": "Q157645", "operator:wikipedia": "de:Deutsche Post AG", "wheelchair": "yes"}}, {"type": "node", "id": 4323171151, "lat": 52.5164585, "lon": 13.4402307, "tags": {"access:covid19": "yes", "addr:city": "Berlin", "addr:housenumber": "41", "addr:postcode": "10243", "addr:street": "Straße der Pariser Kommune", "amenity": "post_office", "wheelchair": "no"}}, {"type": "node", "id": 4423331984, "lat": 52.4150998, "lon": 13.6588336, "tags": {"amenity": "post_office", "wheelchair": "yes"}}, {"type": "node", "id": 4464077285, "lat": 52.416409, "lon": 13.3617254, "tags": {"addr:city": "Berlin", "addr:housenumber": "170 - 172", "addr:postcode": "12277", "addr:street": "Malteserstraße", "amenity": "post_office", "name": "Postbank Filiale", "noname": "yes", "opening_hours": "Mo-Fr 09:00-18:00; Sa 10:00-13:00", "operator": "Deutsche Post", "operator:wikidata": "Q157645", "operator:wikipedia": "de:Deutsche Post AG", "phone": "+49 2285 5005536", "ref": "507", "website": "https://www.postbank.de/"}}, {"type": "node", "id": 4464537690, "lat": 52.5155797, "lon": 13.3903399, "tags": {"addr:city": "Berlin", "addr:housenumber": "29", "addr:postcode": "10117", "addr:street": "Behrenstraße", "amenity": "post_office", "level": "0", "opening_hours": "Mo-Fr 07:00-22:00; Sa 08:00-20:00", "surveillance": "indoor"}}, {"type": "node", "id": 4513962127, "lat": 52.5088106, "lon": 13.3044232, "tags": {"addr:floor": "1", "amenity": "post_office", "brand": "Deutsche Post", "brand:wikidata": "Q157645", "brand:wikipedia": "en:Deutsche Post", "name": "Deutsche Post", "operator": "Deutsche Post", "operator:wikidata": "Q157645", "operator:wikipedia": "de:Deutsche Post AG", "wheelchair": "yes"}}, {"type": "node", "id": 4529122589, "lat": 52.3646794, "lon": 13.5938337, "tags": {"addr:city": "Schulzendorf", "addr:country": "DE", "addr:housenumber": "4", "addr:postcode": "15732", "addr:street": "Richard-Israel-Straße", "amenity": "post_office", "name": "DHL Shop", "name:de": "DHL Shop", "name:en": "DHL Shop", "opening_hours": "Tu-Fr 09:00-18:00; Sa 08:00-13:00", "operator": "Lotto-Toto Kiosk Arman"}}, {"type": "node", "id": 4529122590, "lat": 52.364629, "lon": 13.593857, "tags": {"addr:city": "Schulzendorf", "addr:country": "DE", "addr:housenumber": "4", "addr:postcode": "15732", "addr:street": "Richard-Israel-Straße", "amenity": "post_office", "name": "Hermes PaketShop", "opening_hours": "Mo-Fr 08:30-19:00; Sa 08:30-17:00", "operator": "Blumengeschäft"}}, {"type": "node", "id": 4537589635, "lat": 52.566924, "lon": 13.5279664, "tags": {"addr:city": "Berlin", "addr:housenumber": "3", "addr:postcode": "13057", "addr:street": "Randowstraße", "amenity": "post_office", "brand": "Deutsche Post", "brand:wikidata": "Q157645", "brand:wikipedia": "en:Deutsche Post", "name": "Deutsche Post", "opening_hours": "Mo-Fr 08:00-19:00; Sa 08:00-13:00"}}, {"type": "node", "id": 4607553084, "lat": 52.5276719, "lon": 13.3276124, "tags": {"amenity": "post_office", "name": "Post-Point", "operator": "Kiosk", "wheelchair": "limited"}}, {"type": "node", "id": 4622109990, "lat": 52.5328365, "lon": 13.4269508, "tags": {"amenity": "post_office", "check_date": "2023-08-12", "name": "Pinguin Druck", "wheelchair": "yes"}}, {"type": "node", "id": 4762523479, "lat": 52.440392, "lon": 13.601405, "tags": {"addr:city": "Berlin", "addr:housenumber": "44", "addr:postcode": "12559", "addr:street": "Müggelschlößchenweg", "amenity": "post_office", "brand": "Deutsche Post", "check_date": "2025-06-07", "opening_hours": "Mo-Fr 06:00-17:00, Sa 07:00-12:00", "operator": "Deutsche Post", "operator:wikidata": "Q157645", "operator:wikipedia": "de:Deutsche Post AG", "post_office:type": "partner", "ref": "592"}}, {"type": "node", "id": 4862561442, "lat": 52.5334891, "lon": 13.4568123, "tags": {"amenity": "post_office", "shop": "newsagent", "wheelchair": "yes"}}, {"type": "node", "id": 5007481247, "lat": 52.3509259, "lon": 13.1035486, "tags": {"amenity": "post_office", "name": "GLS Paketshop", "operator": "GLS", "operator:wikidata": "Q366182", "post_office:type": "post_partner", "wheelchair": "yes"}}, {"type": "node", "id": 5042418153, "lat": 52.6146271, "lon": 13.2442914, "tags": {"amenity": "post_office", "lottery": "yes", "post_office:type": "post_partner", "wheelchair": "limited"}}, {"type": "node", "id": 5047369165, "lat": 52.5856164, "lon": 13.2267748, "tags": {"addr:city": "Berlin", "addr:country": "DE", "addr:housenumber": "9A", "addr:postcode": "13505", "addr:street": "Falkenplatz", "addr:suburb": "Konradshöhe", "amenity": "post_office", "name": "Postfiliale am Falkenplatz", "opening_hours": "Mo-Fr 10:00-13:00, 15:00-18:00; Sa 10:00-13:00; Su,PH off", "wheelchair": "yes"}}, {"type": "node", "id": 5153424275, "lat": 52.4860299, "lon": 13.3389674, "tags": {"addr:city": "Berlin", "addr:country": "DE", "addr:housenumber": "25", "addr:postcode": "10825", "addr:street": "Wartburgstraße", "addr:suburb": "Schöneberg", "amenity": "post_office", "drink:coffee": "yes", "lottery": "yes", "name": "Uni-Shop", "outdoor_seating": "yes", "post_office:type": "post_partner", "shop": "kiosk", "wheelchair": "yes"}}, {"type": "node", "id": 5191726020, "lat": 52.5212709, "lon": 13.1976208, "tags": {"amenity": "post_office", "name": "Pens & Scissors", "operator": "Deutsche Post", "operator:wikidata": "Q157645"}}, {"type": "node", "id": 5433652216, "lat": 52.3647026, "lon": 13.0921126, "tags": {"addr:city": "Potsdam", "addr:country": "DE", "addr:housenumber": "32", "addr:postcode": "14478", "addr:street": "Zum Jagenstein", "addr:suburb": "Waldstadt II", "amenity": "post_office", "brand": "Deutsche Post", "brand:wikidata": "Q157645", "brand:wikipedia": "en:Deutsche Post", "camera:mount": "wall", "camera:type": "fixed", "entrance": "shop", "level": "0", "man_made": "surveillance", "name": "Postpartnershop Opitz", "opening_hours": "Mo-Fr 09:00-17:00; Sa 09:00-12:00; PH,Su off", "operator": "Deutsche Post", "operator:wikidata": "Q157645", "post_office:type": "post_partner", "surveillance": "indoor", "surveillance:type": "camera", "surveillance:zone": "shop", "wheelchair": "yes"}}, {"type": "node", "id": 5502910918, "lat": 52.5153223, "lon": 13.4608202, "tags": {"addr:city": "Berlin", "addr:country": "DE", "addr:housenumber": "31", "addr:postcode": "10247", "addr:street": "Frankfurter Allee", "addr:suburb": "Friedrichshain", "amenity": "post_office", "brand": "DPD", "brand:wikidata": "Q541030", "name": "DPD Store Friedrichshain", "opening_hours": "Mo-Fr 09:00-19:00; Sa 10:00-16:00", "wheelchair": "no"}}, {"type": "node", "id": 5647743619, "lat": 52.4393676, "lon": 13.3158901, "tags": {"amenity": "post_office", "name": "Post", "opening_hours": "Mo-Fr 09:00-18:00; Sa 09:30-13:00; PH closed", "operator": "Deutsche Post", "operator:wikidata": "Q157645", "operator:wikipedia": "de:Deutsche Post AG", "wheelchair": "yes"}}, {"type": "node", "id": 5785192448, "lat": 52.5698892, "lon": 13.4035839, "tags": {"addr:city": "Berlin", "addr:housenumber": "20", "addr:postcode": "13187", "addr:street": "Breite Straße", "addr:suburb": "Pankow", "amenity": "post_office", "check_date:opening_hours": "2024-01-15", "level": "-1", "name": "Postbank", "opening_hours": "Mo-Fr 09:30-18:30; Sa 09:30-14:00", "operator": "Deutsche Post", "operator:wikidata": "Q157645", "operator:wikipedia": "de:Deutsche Post AG", "ref": "514", "wheelchair": "yes"}}, {"type": "node", "id": 5797252665, "lat": 52.4733182, "lon": 13.6848289, "tags": {"addr:city": "Schöneiche bei Berlin", "addr:country": "DE", "addr:housenumber": "2", "addr:postcode": "15566", "addr:street": "Friedrich-Ebert-Straße", "amenity": "post_office", "name": "Postlounge", "opening_hours": "Mo-Fr 09:00-12:00, 14:00-18:00; Sa 09:00-12:00", "operator": "Edeka Walter", "start_date": "2024-08-12"}}, {"type": "node", "id": 5810042266, "lat": 52.3823432, "lon": 13.1240194, "tags": {"amenity": "post_office", "brand": "Hermes", "brand:wikidata": "Q1613532", "brand:wikipedia": "de:Hermes Europe", "check_date:opening_hours": "2021-12-18", "contact:phone": "+49 331 600 3669", "contact:twitter": "https://twitter.com/hermesde", "contact:website": "https://www.myhermes.de/", "contact:youtube": "http://www.youtube.com/user/hermeslogistik", "name": "Hermes Paketshop", "opening_hours": "Mo-Fr 09:00-20:00; Sa 09:00-18:00; Su,PH off", "operator": "Jürgen Paetzold", "operator:type": "business", "post_office:type": "post_partner", "wheelchair": "yes"}}, {"type": "node", "id": 5856191985, "lat": 52.5272796, "lon": 13.3393735, "tags": {"addr:city": "Berlin", "addr:housenumber": "4", "addr:postcode": "10551", "addr:street": "Jonasstraße", "amenity": "post_office", "brand": "DHL", "brand:wikidata": "Q489815", "check_date:opening_hours": "2025-06-17", "name": "DHL", "opening_hours": "Sa 09:00-18:00; Mo-Fr 09:00-22:00", "operator": "K & K Büroservice GmbH"}}, {"type": "node", "id": 5864239948, "lat": 52.540692, "lon": 13.1319997, "tags": {"addr:city": "Berlin", "addr:country": "DE", "addr:housenumber": "148", "addr:postcode": "13591", "addr:street": "Torweg", "addr:suburb": "Staaken", "amenity": "post_office", "name": "Deutsche Post", "operator": "Deutsche Post"}}, {"type": "node", "id": 5922090419, "lat": 52.5001164, "lon": 13.4239369, "tags": {"amenity": "post_office", "name": "Lotto Post", "opening_hours": "Mo-Fr 09:00-19:00, Sa 09:00-17:00", "post_office": "post_partner", "shop": "kiosk"}}, {"type": "node", "id": 5945635505, "lat": 52.4854838, "lon": 13.3544066, "tags": {"addr:city": "Berlin", "addr:country": "DE", "addr:housenumber": "27-29", "addr:postcode": "10827", "addr:street": "Hauptstraße", "addr:suburb": "Schöneberg", "amenity": "post_office", "branch": "Filiale 529", "check_date:opening_hours": "2024-08-07", "name": "Deutsche Post", "opening_hours": "Mo-Fr 09:00-18:30; Sa 09:00-13:00", "operator": "Deutsche Post", "operator:wikidata": "Q157645", "operator:wikipedia": "de:Deutsche Post AG", "wheelchair": "yes", "wheelchair:description": "Für Rollstuhlfahrer*innen ist die Klingel um die Ecke durch die Hofeinfahrt."}}, {"type": "node", "id": 6071379212, "lat": 52.5007715, "lon": 13.4943154, "tags": {"addr:city": "Berlin", "addr:housenumber": "44", "addr:postcode": "10317", "addr:street": "Lückstraße", "amenity": "post_office", "brand": "Hermes Paketshop", "brand:wikidata": "Q1613532", "brand:wikipedia": "en:Hermes Group", "name": "Hermes Paketshop", "opening_hours": "Mo-Fr 09:30-17:30; Sa,Su off", "operator": "Hermes", "operator:wikidata": "Q1613532", "post_office:type": "post_partner", "wheelchair": "no"}}, {"type": "node", "id": 6137936121, "lat": 52.50655, "lon": 13.5034597, "tags": {"amenity": "post_office", "brand": "Hermes", "check_date:opening_hours": "2023-12-22", "name": "Hermes Paketshop", "opening_hours": "Mo-Fr 07:00-22:00; Sa 08:00-22:00", "operator": "Kietzladen", "post_office:type": "post_partner", "wheelchair": "no"}}, {"type": "node", "id": 6143283756, "lat": 52.5087707, "lon": 13.4973297, "tags": {"amenity": "post_office", "brand": "DHL", "brand:wikidata": "Q489815", "brand:wikipedia": "en:DHL", "check_date": "2023-05-02", "name": "DHL", "opening_hours": "Mo-Fr 01:00-24:00, Sa 01:00-24:00", "operator": "DHL", "post_office:type": "post_partner", "wheelchair": "no"}}, {"type": "node", "id": 6143283757, "lat": 52.5014478, "lon": 13.4934068, "tags": {"addr:city": "Berlin", "addr:housenumber": "117", "addr:postcode": "10317", "addr:street": "Weitlingstraße", "amenity": "post_office", "brand": "DHL", "brand:wikidata": "Q489815", "brand:wikipedia": "en:DHL", "check_date": "2024-07-22", "name": "DHL", "opening_hours": "Mo-Fr 07:00-23:00; Sa 08:00-23:00", "operator": "Minimarkt Mura", "post_office:type": "post_partner", "wheelchair": "no"}}, {"type": "node", "id": 6145999781, "lat": 52.5097154, "lon": 13.5038766, "tags": {"amenity": "post_office", "brand": "DHL", "brand:wikidata": "Q489815", "name": "DHL Paketshop", "opening_hours": "Mo-Sa 10:00-19:00", "operator": "Big Kiosk", "post_office:type": "post_partner", "wheelchair": "no"}}, {"type": "node", "id": 6148127067, "lat": 52.4996676, "lon": 13.4970858, "tags": {"amenity": "post_office", "brand": "DHL", "brand:wikidata": "Q489815", "brand:wikipedia": "en:DHL", "check_date:opening_hours": "2025-06-05", "name": "DHL", "opening_hours": "Mo-Sa 07:00-19:00", "operator": "KKiosk", "post_office:type": "post_partner", "wheelchair": "yes"}}, {"type": "node", "id": 6153473430, "lat": 52.6474282, "lon": 13.2028158, "tags": {"amenity": "post_office", "name": "turbopost", "operator": "Turbo POST GmbH"}}, {"type": "node", "id": 6167489563, "lat": 52.4825298, "lon": 13.5248732, "tags": {"amenity": "post_office", "brand": "DHL", "brand:wikidata": "Q489815", "brand:wikipedia": "en:DHL", "check_date:opening_hours": "2023-05-29", "name": "DHL Postfiliale 512", "opening_hours": "Mo-Fr 09:00-18:00; Sa 08:00-12:00", "wheelchair": "yes"}}, {"type": "node", "id": 6379030640, "lat": 52.4679737, "lon": 13.3859853, "tags": {"addr:housenumber": "129", "addr:street": "Tempelhofer Damm", "amenity": "post_office", "name": "UPS Access Point", "opening_hours": "Mo-Fr 10:00-18:30", "operator": "United Parcel Service", "phone": "+49 1806 882663", "wheelchair": "yes"}}, {"type": "node", "id": 6388092786, "lat": 52.5940143, "lon": 13.33383, "tags": {"addr:housenumber": "88-90", "addr:street": "Roedernallee", "amenity": "post_office", "brand": "Deutsche Post", "brand:wikidata": "Q157645", "brand:wikipedia": "en:Deutsche Post", "name": "Deutsche Post", "opening_hours": "Mo-Fr 10:00-18:00; Sa 10:00-14:00", "operator": "Deutsche Post", "operator:wikidata": "Q157645", "operator:wikipedia": "de:Deutsche Post AG"}}, {"type": "node", "id": 6434326540, "lat": 52.5597754, "lon": 13.349359, "tags": {"amenity": "post_office", "brand": "Hermes Paketshop", "brand:wikidata": "Q1613532", "brand:wikipedia": "en:Hermes Group", "name": "Hermes Paketshop", "opening_hours": "Mo-Th 08:00-11:00, Fr 08:00-14:00, Mo-Th 14:00-17:00", "operator": "Hermes", "operator:wikidata": "Q1613532", "wheelchair": "limited"}}, {"type": "node", "id": 6463564996, "lat": 52.4942603, "lon": 13.4340792, "tags": {"amenity": "post_office", "description": "Erster Anti-Rassismus Späti der Welt", "name": "Späti", "wheelchair": "no"}}, {"type": "node", "id": 6694854105, "lat": 52.4960547, "lon": 13.5102344, "tags": {"addr:city": "Berlin", "addr:housenumber": "176", "addr:postcode": "10319", "addr:street": "Sewanstraße", "amenity": "post_office", "brand": "Hermes Paketshop", "brand:wikidata": "Q1613532", "brand:wikipedia": "en:Hermes Group", "name": "Hermes Paketshop", "opening_hours": "Mo-Fr 07:00-18:00; Sa 09:00-16:00", "operator": "Hermes", "operator:wikidata": "Q1613532", "wheelchair": "yes"}}, {"type": "node", "id": 6898479085, "lat": 52.5627448, "lon": 13.0966919, "tags": {"addr:city": "Falkensee", "addr:country": "DE", "addr:housenumber": "44-46", "addr:postcode": "14612", "addr:street": "Bahnhofstraße", "amenity": "post_office", "brand": "Hermes Paketshop", "brand:wikidata": "Q1613532", "brand:wikipedia": "de:Hermes Europe", "contact:phone": "+49 30 89580070", "name": "Hermes PaketShop", "opening_hours": "Mo-Fr 09:00-20:00; Sa 08:00-16:00", "operator": "Hermes", "operator:wikidata": "Q1613532"}}, {"type": "node", "id": 6908069025, "lat": 52.3782129, "lon": 13.108046, "tags": {"addr:city": "Potsdam", "addr:country": "DE", "addr:housenumber": "82", "addr:postcode": "14482", "addr:street": "Fritz-Zubeil-Straße", "addr:suburb": "Babelsberg Süd", "amenity": "post_office", "brand": "Hermes", "check_date:opening_hours": "2025-05-31", "name": "Hermes Paketshop", "opening_hours": "Mo-Fr 08:00-19:00; Sa 08:00-18:00; PH off", "operator": "Lotto Toto", "operator:type": "private", "post_office:type": "post_partner", "wheelchair": "yes"}}, {"type": "node", "id": 6908080032, "lat": 52.3758319, "lon": 13.1287418, "tags": {"addr:city": "Potsdam", "addr:country": "DE", "addr:housenumber": "5", "addr:postcode": "14480", "addr:street": "Johannes-Kepler-Platz", "addr:suburb": "Stern", "amenity": "post_office", "brand": "UPS", "name": "UPS AccessPoint", "opening_hours": "Mo-Fr 06:30-19:00; Sa 07:30-12:00; Su 09:30-12:30; PH off", "operator": "Spätkauf", "operator:type": "private", "post_office:type": "post_partner"}}, {"type": "node", "id": 6928783065, "lat": 52.4686518, "lon": 13.4910555, "tags": {"addr:city": "Berlin", "addr:country": "DE", "addr:housenumber": "6", "addr:postcode": "12437", "addr:street": "Baumschulenstraße", "addr:suburb": "Baumschulenweg", "amenity": "post_office", "name": "ATM EXTRAS", "wheelchair": "no"}}, {"type": "node", "id": 6967210416, "lat": 52.4524686, "lon": 13.5288084, "tags": {"addr:city": "Berlin", "addr:postcode": "12439", "addr:street": "Schnellerstraße", "amenity": "post_office", "brand": "hermes", "check_date": "2025-06-04", "opening_hours": "Mo-Fr 08:00-20:00; Sa 08:00-18:00", "operator": "Hermes", "operator:wikidata": "Q1613532", "operator:wikipedia": "en:Hermes Group", "post_office:type": "post_partner"}}, {"type": "node", "id": 6967210420, "lat": 52.4564682, "lon": 13.5109911, "tags": {"amenity": "post_office", "brand": "DHL", "brand:wikidata": "Q489815", "name": "DHL", "opening_hours": "Mo-Fr 06:00-20:00, Sa 08:00-13:00", "operator": "DHL", "operator:type": "private", "operator:wikidata": "Q489815", "operator:wikipedia": "en:DHL", "post_office:type": "post_partner"}}, {"type": "node", "id": 6967210423, "lat": 52.4362795, "lon": 13.5432009, "tags": {"amenity": "post_office", "brand": "UPS", "opening_hours": "07:00-24:00,00:00-01:00", "post_office:type": "post_partner", "ref": "522", "wheelchair": "no"}}, {"type": "node", "id": 6967210426, "lat": 52.4456675, "lon": 13.5630358, "tags": {"amenity": "post_office", "brand": "DHL", "brand:wikidata": "Q489815", "brand:wikipedia": "en:DHL", "check_date:opening_hours": "2025-01-05", "name": "DHL", "opening_hours": "Mo-Fr 07:00-18:00, Sa 08:00-13:00; PH off", "post_office:type": "post_partner", "ref": "522"}}, {"type": "node", "id": 6983688060, "lat": 52.5422545, "lon": 13.7453377, "tags": {"amenity": "post_office", "brand": "DHL", "brand:wikidata": "Q489815", "brand:wikipedia": "en:DHL", "name": "DHL"}}, {"type": "node", "id": 6988371274, "lat": 52.5231216, "lon": 13.7540777, "tags": {"amenity": "post_office", "brand": "DHL", "brand:wikidata": "Q489815", "brand:wikipedia": "en:DHL", "name": "DHL", "opening_hours": "Mo-Fr 09:00-18:00; Sa 09:00-13:00", "wheelchair": "no"}}, {"type": "node", "id": 7025879082, "lat": 52.5356612, "lon": 13.4334547, "tags": {"addr:city": "Berlin", "addr:housenumber": "122", "addr:postcode": "10407", "addr:street": "Danziger Straße", "amenity": "post_office", "brand:wikipedia": "en:DHL", "level": "0", "name": "DHL", "opening_hours": "Mo-Fr 08:00-20:00; Sa 09:00-20:00", "operator": "Deutsche Post", "operator:type": "private", "operator:wikidata": "Q157645", "operator:wikipedia": "en:DHL", "ref": "554", "website": "https://www.deutschepost.de/de/s/standorte.html?objectid=4297929&isFeedbackDeeplink=true&template=locationdetail"}}, {"type": "node", "id": 7249782635, "lat": 52.5435809, "lon": 13.4428902, "tags": {"addr:city": "Berlin", "addr:country": "DE", "addr:housenumber": "90", "addr:postcode": "10409", "addr:street": "Greifswalder Straße", "addr:suburb": "Prenzlauer Berg", "amenity": "post_office", "brand": "DHL", "brand:wikidata": "Q489815", "brand:wikipedia": "en:DHL", "check_date:opening_hours": "2023-11-14", "level": "1", "name": "DHL", "note": "bei Pfennigpfeiffer", "opening_hours": "Mo-Fr 09:00-18:00; Sa 09:00-13:00", "operator": "DHL", "operator:type": "private", "operator:wikidata": "Q489815", "operator:wikipedia": "en:DHL"}}, {"type": "node", "id": 7454045232, "lat": 52.5074265, "lon": 13.39452, "tags": {"amenity": "post_office", "brand": "Deutsche Post", "brand:wikidata": "Q157645", "brand:wikipedia": "en:Deutsche Post", "name": "Deutsche Post", "operator": "Deutsche Post", "operator:wikidata": "Q157645", "operator:wikipedia": "de:Deutsche Post AG", "wheelchair": "yes"}}, {"type": "node", "id": 7602174940, "lat": 52.6619211, "lon": 13.2874092, "tags": {"amenity": "post_office", "name": "Deutsche Post", "opening_hours": "Mo-Fr 09:00-18:00; Sa 09:00-13:00", "operator": "Deutsche Post", "operator:wikidata": "Q157645", "wheelchair": "yes"}}, {"type": "node", "id": 7752757116, "lat": 52.4955203, "lon": 13.2859045, "tags": {"addr:city": "Berlin", "addr:housenumber": "124", "addr:postcode": "10711", "addr:street": "Kurfürstendamm", "amenity": "post_office", "brand": "PIN AG", "brand:wikidata": "Q28794284", "level": "0", "name": "PIN AG - Depot Wilmersdorf", "opening_hours": "Mo 08:00-12:00,13:00-16:00; Tu-Fr 08:00-12:00,13:00-18:00; Sa 08:00-13:00", "operator": "PIN AG", "operator:wikidata": "Q28794284"}}, {"type": "node", "id": 7781356468, "lat": 52.517514, "lon": 13.582289, "tags": {"addr:city": "Berlin", "addr:country": "DE", "addr:housenumber": "21", "addr:postcode": "12619", "addr:street": "Lion-Feuchtwanger-Straße", "amenity": "post_office", "name": "Lotto/Tabak/Presse Raschel", "opening_hours": "Mo-Fr 08:00-18:00, Sa 08:00-14:00; PH off", "shop": "kiosk"}}, {"type": "node", "id": 7895952499, "lat": 52.4835153, "lon": 13.2671875, "tags": {"addr:city": "Berlin", "addr:housenumber": "3a", "addr:postcode": "14193", "addr:street": "Hagenplatz", "amenity": "post_office", "check_date": "2023-06-28", "name": "Deutsche Post - DHL Hagenplatz", "opening_hours": "Mo-Fr 09:00-13:00, 14:00-18:00; Sa 09:00-13:00", "operator": "Deutsche Post", "operator:wikidata": "Q157645", "operator:wikipedia": "de:Deutsche Post AG"}}, {"type": "node", "id": 7937449612, "lat": 52.4908243, "lon": 13.5273363, "tags": {"amenity": "post_office", "brand": "DHL", "brand:wikidata": "Q489815", "brand:wikipedia": "en:DHL", "name": "DHL", "opening_hours": "Mo-Fr 7:30-19:00; Sa 9:00-16:00", "operator": "Maiglökchen", "post_office:type": "post_partner", "wheelchair": "yes"}}, {"type": "node", "id": 8084634934, "lat": 52.5040963, "lon": 13.3429837, "tags": {"amenity": "post_office", "name": "Deutsche Post, DHL", "operator": "Deutsche Post", "operator:wikidata": "Q157645", "operator:wikipedia": "de:Deutsche Post AG"}}, {"type": "node", "id": 8112899380, "lat": 52.4871276, "lon": 13.3747693, "tags": {"amenity": "post_office", "name": "UPS Access Point", "opening_hours": "Mo-Sa 11:00-21:00; PH closed", "operator": "UPS"}}, {"type": "node", "id": 8256100941, "lat": 52.512107, "lon": 13.6612551, "tags": {"amenity": "post_office", "check_date:opening_hours": "2023-11-11", "name": "Fairkauf", "opening_hours": "Mo-Fr 09:00-19:00; Sa 09:00-18:00", "wheelchair": "yes"}}, {"type": "node", "id": 8442976872, "lat": 52.4980887, "lon": 13.4648382, "tags": {"addr:housenumber": "35", "addr:street": "Markgrafendamm", "amenity": "post_office", "brand": "GLS", "name": "GSL Paketshop", "operator": "GLS", "operator:wikidata": "Q366182", "operator:wikipedia": "en:GLS Group", "post_office:type": "post_partner", "wheelchair": "yes"}}, {"type": "node", "id": 8459440165, "lat": 52.532564, "lon": 13.4694341, "tags": {"addr:city": "Berlin", "addr:housenumber": "171", "addr:postcode": "10369", "addr:street": "Landsberger Allee", "amenity": "post_office", "brand": "Deutsche Post", "brand:wikidata": "Q157645", "brand:wikipedia": "en:Deutsche Post", "check_date:opening_hours": "2025-04-28", "name": "Deutsche Post", "opening_hours": "Mo-Fr 09:00-18:00; Sa 09:00-12:00", "operator": "Deutsche Post", "operator:wikidata": "Q157645", "operator:wikipedia": "de:Deutsche Post AG"}}, {"type": "node", "id": 8536726121, "lat": 52.3854027, "lon": 13.1066454, "tags": {"amenity": "post_office", "brand": "DHL", "brand:wikidata": "Q489815", "name": "DHL Postfiliale 690", "opening_hours": "Mo-Fr 10:00-20:00, Sa 10:00-17:00, Su 15:00-17:00", "operator": "Video World", "post_office:type": "post_partner", "stamps": "yes", "wheelchair": "yes"}}, {"type": "node", "id": 8775336717, "lat": 52.5934068, "lon": 13.4394161, "tags": {"addr:housenumber": "8", "addr:postcode": "13127", "addr:street": "Pankstraße", "amenity": "post_office", "check_date": "2024-06-13", "email": "paketshop@mmd-berlin.de", "name": "MMD Paketshop", "opening_hours": "Mo-Fr 10:00-12:30, 13:30-18:00", "phone": "+49 30 54988830", "website": "https://www.mmd-berlin.de/paketshop/"}}, {"type": "node", "id": 8852547909, "lat": 52.4825915, "lon": 13.6021114, "tags": {"addr:city": "Berlin", "addr:housenumber": "84a", "addr:postcode": "12623", "addr:street": "Hultschiner Damm", "amenity": "post_office", "brand": "Deutsche Post", "name": "Deutsche Post", "opening_hours": "Mo-Fr 09:00-19:00; Sa 09:00-14:00; PH off", "wheelchair": "yes"}}, {"type": "node", "id": 9006816146, "lat": 52.5292628, "lon": 13.3844413, "tags": {"addr:city": "Berlin", "addr:housenumber": "121", "addr:postcode": "10115", "addr:street": "Chausseestraße", "amenity": "post_office", "operator": "Deutsche Post", "operator:wikidata": "Q157645", "operator:wikipedia": "de:Deutsche Post AG", "ref:vatin": "DE520557771510"}}, {"type": "node", "id": 9022437762, "lat": 52.4440288, "lon": 13.5674393, "tags": {"amenity": "post_office", "brand": "DHL", "brand:wikidata": "Q489815", "brand:wikipedia": "en:DHL", "name": "DHL", "opening_hours": "Mo-Fr 08:30-15:00; Sa,Su off", "post_office:type": "post_partner", "ref": "475", "wheelchair": "no"}}, {"type": "node", "id": 9022437763, "lat": 52.4446059, "lon": 13.5681367, "tags": {"amenity": "post_office", "brand": "DHL", "brand:wikidata": "Q489815", "brand:wikipedia": "en:DHL", "name": "DHL", "opening_hours": "Mo-Sa 07:00-01:00", "post_office:type": "post_partner", "ref": "493", "wheelchair": "no"}}, {"type": "node", "id": 9035861377, "lat": 52.5555819, "lon": 13.5579099, "tags": {"amenity": "post_office"}}, {"type": "node", "id": 9083898246, "lat": 52.5401287, "lon": 13.6105001, "tags": {"addr:city": "Berlin", "addr:housenumber": "23-37", "addr:postcode": "12627", "addr:street": "Quedlinburger Straße", "amenity": "post_office", "name": "Hermes PaketShop", "opening_hours": "Mo-Fr 09:00-20:00; Sa 09:00-18:00; PH off", "operator": "Hermes", "operator:wikidata": "Q1613532", "operator:wikipedia": "en:Hermes Group", "phone": "+49 40 593551111", "wheelchair": "yes"}}, {"type": "node", "id": 9142542531, "lat": 52.4481895, "lon": 13.3055003, "tags": {"addr:housenumber": "1", "addr:street": "Enzianstr.", "amenity": "post_office", "description": "Deutsche Post/ DHL im Kiosk", "opening_hours": "Mo-Fr 07:00-13:00, 14:00-18:00; Sa 07:00-13:00"}}, {"type": "node", "id": 9174631310, "lat": 52.5117794, "lon": 13.3131284, "tags": {"amenity": "post_office", "check_date": "2025-08-04", "level": "0", "name": "Pin Mail", "opening_hours": "Mo 08:00-12:00,13:00-16:00; Tu-Fr 08:00-12:00,13:00-18:00; Sa 08:00-13:00; Su,PH off", "wheelchair": "yes"}}, {"type": "node", "id": 9201575258, "lat": 52.6164243, "lon": 13.3067987, "tags": {"amenity": "post_office", "brand": "Hermes Paketshop", "note": "ist die Kleider Klinik", "opening_hours": "Mo-Fr 09:00-13:00,14:00-18:00; Sa 09:00-13:00"}}, {"type": "node", "id": 9222266686, "lat": 52.5103696, "lon": 13.2777301, "tags": {"addr:city": "Berlin", "addr:country": "DE", "addr:housenumber": "17-19", "addr:postcode": "14050", "addr:street": "Fredericiastraße", "addr:suburb": "Westend", "amenity": "post_office", "operator": "Deutsche Post", "operator:wikidata": "Q157645", "operator:wikipedia": "de:Deutsche Post AG", "source": "Deutsche Post AG", "wheelchair": "no"}}, {"type": "node", "id": 9270388136, "lat": 52.5062606, "lon": 13.4962301, "tags": {"amenity": "post_office", "brand": "UPS", "check_date:opening_hours": "2023-03-28", "name": "UPS Access Point", "opening_hours": "Mo-Sa 10:00-23:55", "operator": "Kiosk 47", "post_office": "post_partner", "wheelchair": "no"}}, {"type": "node", "id": 9324986266, "lat": 52.5037141, "lon": 13.450597, "tags": {"addr:housenumber": "20", "addr:street": "Rotherstraße", "amenity": "post_office", "name": "Pen & Paper", "opening_hours": "Mo-Fr 08:00-20:00; Sa 10:00-15:00", "wheelchair": "yes"}}, {"type": "node", "id": 9329133969, "lat": 52.4963273, "lon": 13.3865182, "tags": {"amenity": "post_office", "brand": "DHL", "level": "-1", "name": "DHL", "opening_hours": "Mo-Th 07:00-18:00; Sa 07:00-16:00", "shop": "kiosk", "wheelchair": "no"}}, {"type": "node", "id": 9329137097, "lat": 52.4985219, "lon": 13.3879268, "tags": {"addr:city": "Berlin", "addr:housenumber": "24", "addr:postcode": "10963", "addr:street": "Hallesches Ufer", "amenity": "post_office", "brand": "DHL", "brand:wikidata": "Q489815", "name": "DHL Paketshop 444", "opening_hours": "Mo-Sa 10:00-22:00", "operator:wikipedia": "en:DHL", "shop": "kiosk"}}, {"type": "node", "id": 9652203760, "lat": 52.5475071, "lon": 13.4487001, "tags": {"amenity": "post_office", "brand": "DHL", "brand:wikidata": "Q489815", "description": "quasi nur Briefkasten für Pakete", "name": "DHL Paketshop"}}, {"type": "node", "id": 9856797501, "lat": 52.5094882, "lon": 13.499631, "tags": {"addr:city": "Berlin", "addr:housenumber": "22", "addr:postcode": "10317", "addr:street": "Irenenstraße", "amenity": "post_office", "name": "Filiale 413", "opening_hours": "Mo-Fr 09:00-18:00; Sa 09:00-13:00", "operator": "Deutsche Post", "operator:wikidata": "Q157645", "wheelchair": "limited"}}, {"type": "node", "id": 9991258483, "lat": 52.4981499, "lon": 13.3532289, "tags": {"addr:city": "Berlin", "addr:country": "DE", "addr:housenumber": "10", "addr:postcode": "10777", "addr:street": "Nollendorfstraße", "addr:suburb": "Schöneberg", "amenity": "post_office", "name": "Hermes", "operator": "Melody", "wheelchair": "no"}}, {"type": "node", "id": 10000494078, "lat": 52.5104067, "lon": 13.2843223, "tags": {"amenity": "post_office", "disused:shop": "yes", "name": "Bärlin Company", "opening_hours": "Mo-Fr 09:00-18:00; Sa 10:00-16:00"}}, {"type": "node", "id": 10015764560, "lat": 52.5332463, "lon": 13.424969, "tags": {"addr:city": "Berlin", "addr:housenumber": "14", "addr:postcode": "10405", "addr:street": "Winsstraße", "addr:suburb": "Prenzlauer Berg", "amenity": "post_office", "check_date:opening_hours": "2023-08-05", "name": "The Winsy Späti", "opening_hours:signed": "no", "operator": "Hermes", "operator:wikidata": "Q1613532", "shop": "convenience", "wheelchair": "yes"}}, {"type": "node", "id": 10089839259, "lat": 52.525912, "lon": 13.3005338, "tags": {"addr:city": "Berlin", "addr:housenumber": "24", "addr:postcode": "10589", "addr:street": "Osnabrücker Straße", "amenity": "post_office", "name": "Lotto-Tabak-Presse Türkmann", "opening_hours": "Mo-Fr 08:00-19:00; Sa 09:00-16:00; Su off", "operator": "Deutsche Post", "operator:wikidata": "Q157645"}}, {"type": "node", "id": 10130657649, "lat": 52.398701, "lon": 13.2479375, "tags": {"addr:city": "Teltow", "addr:country": "DE", "addr:housenumber": "17", "addr:postcode": "14513", "addr:street": "Potsdamer Straße", "amenity": "post_office", "email": "Kiosk@lucky-clouds.de", "mobile": "+49 162 1528313", "name": "Lucky Clouds", "opening_hours": "Mo-Fr 08:30-14:00,15:00-18:00; Sa 08:00-13:00", "operator": "Hermes", "operator:wikidata": "Q1613532", "phone": "+49 3328 9348047", "post_office": "post_partner", "website": "https://www.instagram.com/lucky_clouds_teltow/", "wheelchair": "no"}}, {"type": "node", "id": 10152401251, "lat": 52.5100468, "lon": 13.4679814, "tags": {"addr:city": "Berlin", "addr:housenumber": "23", "addr:postcode": "10247", "addr:street": "Weichselstraße", "amenity": "post_office", "brand": "DHL", "brand:wikidata": "Q489815", "name": "Paketshop 651", "opening_hours": "Mo-Sa 10:00-22:00", "wheelchair": "no"}}, {"type": "node", "id": 10159421697, "lat": 52.5009399, "lon": 13.4126777, "tags": {"addr:city": "Berlin", "addr:housenumber": "4-5", "addr:postcode": "10969", "addr:street": "Ritterstraße", "amenity": "post_office", "branch": "479", "name:signed": "no", "operator": "Deutsche Post", "operator:wikidata": "Q157645"}}, {"type": "node", "id": 10661022115, "lat": 52.488669, "lon": 13.4244578, "tags": {"amenity": "post_office", "name": "Hermes PaketShop", "operator": "Hermes", "operator:wikidata": "Q1613532"}}, {"type": "node", "id": 10673727945, "lat": 52.5224879, "lon": 13.378427, "tags": {"addr:city": "Berlin", "addr:housenumber": "46", "addr:postcode": "10117", "addr:street": "Reinhardtstraße", "amenity": "post_office", "check_date": "2023-03-18", "opening_hours": "Mo-Fr 09:00-19:00, Sa 10:00-15:00", "operator": "Deutsche Post", "operator:wikidata": "Q157645"}}, {"type": "node", "id": 11001433180, "lat": 52.3880596, "lon": 13.0903141, "tags": {"amenity": "post_office", "name": "DEBEX GmbH"}}, {"type": "node", "id": 11045663311, "lat": 52.5732562, "lon": 13.5627281, "tags": {"amenity": "post_office", "brand": "DHL", "brand:wikidata": "Q489815", "name": "DHL", "post_office": "post_partner", "post_office:brand": "DHL"}}, {"type": "node", "id": 11201033450, "lat": 52.5258311, "lon": 13.3036619, "tags": {"amenity": "post_office", "name": "Nova Post", "opening_hours": "Mo-Fr 08:00-20:00, Sa 09:00-18:00", "operator": "Nova Post", "operator:wikidata": "Q118613846", "website": "novapost.pl"}}, {"type": "node", "id": 11222033521, "lat": 52.3809579, "lon": 13.244437, "tags": {"amenity": "post_office", "name": "DEBEX GmbH"}}, {"type": "node", "id": 11230676460, "lat": 52.4334595, "lon": 13.5377305, "tags": {"amenity": "post_office", "brand": "Hermes Paketshop", "opening_hours": "Mo-Fr 08:00-18:00; Sa 09:00-13:00", "post_office:type": "post_partner", "wheelchair": "yes"}}, {"type": "node", "id": 11306087269, "lat": 52.6078363, "lon": 13.2349419, "tags": {"addr:housenumber": "20", "addr:postcode": "13503", "addr:street": "Bekassinenweg", "amenity": "post_office", "name": "Deutsche Post Filiale 536", "opening_hours": "Mo, We-Fr 10:00-13:00, 14:00-18:00; Tu 10:00-13:00; Sa 09:30-13:00"}}, {"type": "node", "id": 11388269536, "lat": 52.4604947, "lon": 13.522316, "tags": {"amenity": "post_office", "brand": "Hermes", "opening_hours": "Mo-Sa 06:00-23:00", "operator": "Hermes", "operator:wikidata": "Q1613532", "post_office:type": "post_partner", "wheelchair": "no"}}, {"type": "node", "id": 11388269537, "lat": 52.46331, "lon": 13.5136281, "tags": {"amenity": "post_office", "brand": "GLS", "opening_hours": "Mo-Fr 09:00-17:30; Sa 09:00-11:00", "operator": "GLS", "operator:wikidata": "Q366182", "post_office:type": "post_partner", "ref": "2760238121", "wheelchair": "no"}}, {"type": "node", "id": 11398404302, "lat": 52.4572667, "lon": 13.508119, "tags": {"amenity": "post_office", "brand": "DHL", "brand:wikidata": "Q489815", "check_date:opening_hours": "2025-01-14", "level": "0", "name": "DHL", "opening_hours": "Mo-Sa 08:00-20:00", "operator": "DHL", "operator:wikidata": "Q489815", "operator:wikipedia": "en:DHL", "post_office:type": "post_partner"}}, {"type": "node", "id": 11468861516, "lat": 52.4474354, "lon": 13.315032, "tags": {"amenity": "post_office", "name": "Speditionsshop Steglitz"}}, {"type": "node", "id": 11551897397, "lat": 52.4391828, "lon": 13.3440554, "tags": {"amenity": "post_office", "note": "Opening_hours must also be updated for defibrillator", "opening_hours": "Mo 8:00-12:00,13:00-16:00; Tu-Fr 8:00-12:00,13:00-18:00; Sa 8:00-13:00", "operator": "PIN Mail", "operator:type": "private", "operator:wikidata": "Q1342288", "post_office:letter_from": "yes", "post_office:parcel_from": "no", "post_office:parcel_pickup": "yes"}}, {"type": "node", "id": 11641660991, "lat": 52.4395878, "lon": 13.4533702, "tags": {"amenity": "post_office", "brand": "DHL", "brand:wikidata": "Q489815", "name": "DHL", "opening_hours": "Mo-Fr 09:00-18:00; Sa 09:00-13:00", "wheelchair": "yes"}}, {"type": "node", "id": 11688222528, "lat": 52.4345942, "lon": 13.3424659, "tags": {"amenity": "post_office", "name": "Kaiser Wilhelm Str 60-62, 12247", "opening_hours": "Tu-Fr 09:00-13:00,14:00-18:00; Mo 09:00-18:00; Sa 09:00-13:00"}}, {"type": "node", "id": 11874996831, "lat": 52.5356593, "lon": 13.3975105, "tags": {"addr:housenumber": "155", "addr:street": "Brunnenstraße", "amenity": "post_office", "check_date": "2024-05-02", "level": "1", "name": "PaketConcierge", "opening_hours": "Mo-Fr 09:30-20:00; Sa 10:00-16:00; Su off", "wheelchair": "no"}}, {"type": "node", "id": 12009067146, "lat": 52.4225753, "lon": 13.5085368, "tags": {"addr:city": "Berlin", "addr:housenumber": "87", "addr:postcode": "12355", "addr:street": "Köpenicker Straße", "amenity": "post_office", "operator": "Hermes", "operator:wikidata": "Q1613532"}}, {"type": "node", "id": 12097440358, "lat": 52.4322244, "lon": 13.2197583, "tags": {"amenity": "post_office", "name": "Postfiliale 442", "opening_hours": "Mo-Fr 09:30-19:000; Sa 10:30-18:00"}}, {"type": "node", "id": 12106421521, "lat": 52.4492301, "lon": 13.5838152, "tags": {"amenity": "post_office", "brand": "DHL", "brand:wikidata": "Q489815", "brand:wikipedia": "en:DHL", "name": "DHL", "opening_hours": "Mo-Fr 10:00-13:00,14:00-19:00;Sa 11:00-13:00", "post_office:type": "post_partner", "ref": "486", "wheelchair": "yes"}}, {"type": "node", "id": 12106706392, "lat": 52.3726445, "lon": 13.6156622, "tags": {"amenity": "post_office", "brand:wikidata": "Q489815", "name": "Der glückliche Lottoladen", "opening_hours": "Mo-Fr 09:00-18:00, Sa 09:00-12:30; PH off", "operator": "Der Lottoladen", "post_office": "post_partner", "post_office:service_provider": "Deutsche Post;DHL"}}, {"type": "node", "id": 12110531565, "lat": 52.439387, "lon": 13.2158246, "tags": {"amenity": "post_office", "brand": "DHL", "brand:wikidata": "Q489815", "name": "DHL Paketshop", "opening_hours": "Mo-Sa 06:00-22:00", "operator": "Deutsche Post", "operator:wikidata": "Q157645", "ref": "413", "website": "https://www.dhl.de/de/privatkunden/dhl-standorte-finden.html?address=14129&locationType=filialen"}}, {"type": "node", "id": 12153497953, "lat": 52.5619739, "lon": 13.3543391, "tags": {"amenity": "post_office", "brand": "DPD", "brand:wikidata": "Q541030", "name": "DPD"}}, {"type": "node", "id": 12293894684, "lat": 52.4027313, "lon": 13.5249374, "tags": {"amenity": "post_office"}}, {"type": "node", "id": 12309529501, "lat": 52.5474825, "lon": 13.4126098, "tags": {"amenity": "post_office", "brand": "DHL", "brand:wikidata": "Q489815", "name": "DHL Postfiliale 543", "opening_hours": "Mo-Sa 10:00-20:00", "wheelchair": "yes"}}, {"type": "node", "id": 12362935336, "lat": 52.3865298, "lon": 13.4057158, "tags": {"amenity": "post_office", "name": "Postfiliale 404", "opening_hours": "Mo-Fr 09:00-18:00; Sa 10:00-14:00"}}, {"type": "node", "id": 12420722659, "lat": 52.5001027, "lon": 13.3305519, "tags": {"amenity": "post_office", "brand": "Mail Boxes Etc.", "brand:wikidata": "Q1139182", "name": "Mail Boxes Etc.", "opening_hours": "Mo-Fr 10:00-18:00", "shop": "copyshop"}}, {"type": "node", "id": 12463429856, "lat": 52.559728, "lon": 13.4127629, "tags": {"amenity": "post_office", "name": "Hermes PaketShop", "opening_hours": "Mo-Fr 08:00-01:00, Sa 09:00-01:00, Su 12:00-24:00", "operator": "Hermes", "operator:wikidata": "Q1613532"}}, {"type": "node", "id": 12463468004, "lat": 52.5590845, "lon": 13.4123863, "tags": {"amenity": "post_office", "brand": "DHL", "brand:wikidata": "Q489815", "name": "DHL"}}, {"type": "node", "id": 12469009548, "lat": 52.5677295, "lon": 13.3786639, "tags": {"amenity": "post_office", "brand": "DHL", "brand:wikidata": "Q489815", "name": "DHL", "opening_hours": "Mo-Fr 07:00-18:00; Sa 07:00-14:00"}}, {"type": "node", "id": 12469009574, "lat": 52.5713227, "lon": 13.3795811, "tags": {"amenity": "post_office", "brand": "DHL", "brand:wikidata": "Q489815", "name": "DHL Paketshop"}}, {"type": "node", "id": 12469087278, "lat": 52.5715771, "lon": 13.3737597, "tags": {"amenity": "post_office", "name": "DHL PaketShop", "opening_hours": "Mo-Fr 06:00-21:00; Sa,Su 07:00-20:00", "post_office:brand": "dhl", "post_office:service_provider": "dhl"}}, {"type": "node", "id": 12469117742, "lat": 52.5724492, "lon": 13.3724006, "tags": {"addr:city": "Berlin", "addr:housenumber": "87", "addr:postcode": "13409", "addr:street": "Raschdorffstraße", "amenity": "post_office", "check_date": "2025-01-14", "internet_access": "no", "name": "Hermes Paketshop", "opening_hours": "Mo-Fr 09:00-13:00, 15:00-18:00", "operator": "Hermes", "operator:wikidata": "Q1613532"}}, {"type": "node", "id": 12492673807, "lat": 52.5233555, "lon": 13.4268673, "tags": {"amenity": "post_office", "brand": "DHL", "brand:wikidata": "Q489815", "name": "DHL", "opening_hours": "Mo-Fr 08:00-18:00; Sa 08:00-13:00"}}, {"type": "node", "id": 12500393257, "lat": 52.3938949, "lon": 13.2109798, "tags": {"addr:city": "Stahnsdorf", "addr:postcode": "14532", "amenity": "post_office", "source": "local knowledge"}}, {"type": "node", "id": 12512442542, "lat": 52.5713983, "lon": 13.3796686, "tags": {"amenity": "post_office", "name": "GLS PaketShop", "operator": "GLS", "operator:wikidata": "Q366182"}}, {"type": "node", "id": 12512449861, "lat": 52.5656121, "lon": 13.3780725, "tags": {"amenity": "post_office", "name": "GLS PaketShop"}}, {"type": "node", "id": 12512539897, "lat": 52.5656115, "lon": 13.3780985, "tags": {"amenity": "post_office", "name": "Hermes PaketShop", "operator": "Hermes", "operator:wikidata": "Q1613532", "post_office:brand": "hermes", "post_office:service_provider": "hermes"}}, {"type": "node", "id": 12526672194, "lat": 52.5828347, "lon": 13.3652179, "tags": {"amenity": "post_office", "name": "GLS PaketShop"}}, {"type": "node", "id": 12526680118, "lat": 52.5608339, "lon": 13.3718117, "tags": {"amenity": "post_office", "name": "GLS PaketShop", "operator": "GLS", "operator:wikidata": "Q366182"}}, {"type": "node", "id": 12526689862, "lat": 52.5629659, "lon": 13.3663067, "tags": {"amenity": "post_office", "name": "GLS PaketShop", "operator": "GLS", "operator:wikidata": "Q366182"}}, {"type": "node", "id": 12557626412, "lat": 52.509608, "lon": 13.4350664, "tags": {"amenity": "post_office", "brand": "DHL", "brand:wikidata": "Q489815", "description": "Im REWE", "level": "-1", "name": "DHL"}}, {"type": "node", "id": 12557626414, "lat": 52.5101312, "lon": 13.4340314, "tags": {"amenity": "post_office", "brand": "DHL", "brand:wikidata": "Q489815", "description": "Im Press&Books", "level": "0", "name": "DHL"}}, {"type": "node", "id": 12585527310, "lat": 52.5284157, "lon": 13.5397005, "tags": {"addr:housenumber": "6", "addr:street": "Helene-Weigel-Platz", "amenity": "post_office", "name": "Deutsche Post Filiale 535", "opening_hours": "Mo-Fr 09:00-13:00, 13:30-17:30; Sa 09:00-12:00", "website": "https://deutschepost.de/"}}, {"type": "node", "id": 12587517670, "lat": 52.5566643, "lon": 13.3587862, "tags": {"amenity": "post_office", "operator": "Hermes", "operator:wikidata": "Q1613532"}}, {"type": "node", "id": 12637210823, "lat": 52.4775998, "lon": 13.7077376, "tags": {"amenity": "post_office", "name": "Hermes Paketshop", "opening_hours": "Mo-Fr 9:00 -18:30 Uhr", "operator": "Opimaler Leben", "ref": "https://www.myhermes.de/paketshop/", "wheelchair": "yes"}}, {"type": "node", "id": 12720288679, "lat": 52.3692949, "lon": 13.134055, "tags": {"amenity": "post_office", "brand": "Deutsche Post AG", "name": "PostShop - Filiale 420", "opening_hours": "Mo-Fr 09:00-20:00; Sa 09:00-14:00; Ph off", "post_office:brand:wikidata": "Q157645", "ref": "Filiale 420"}}, {"type": "node", "id": 12757052521, "lat": 52.5608195, "lon": 13.3717811, "tags": {"amenity": "post_office", "name": "Hermes PaketShop"}}, {"type": "node", "id": 12809384990, "lat": 52.5148042, "lon": 13.461689, "tags": {"amenity": "post_office", "name": "Hermes PaketShop"}}, {"type": "node", "id": 12823204113, "lat": 52.4952902, "lon": 13.4209309, "tags": {"amenity": "post_office", "name": "GLS PaketShop"}}, {"type": "node", "id": 12846714110, "lat": 52.4852091, "lon": 13.374518, "tags": {"addr:city": "Berlin", "addr:housenumber": "76", "addr:postcode": "10965", "addr:street": "Dudenstraße", "amenity": "post_office", "opening_hours": "Mo-Fr 10:00-18:00; Sa 09:30-14:30", "operator": "Deutsche Post", "operator:wikidata": "Q157645"}}, {"type": "node", "id": 12860517734, "lat": 52.559018, "lon": 13.4663106, "tags": {"amenity": "post_office", "brand": "Mail Boxes Etc.", "brand:wikidata": "Q1139182", "shop": "copyshop"}}, {"type": "node", "id": 12906290537, "lat": 52.4198011, "lon": 13.1591159, "tags": {"amenity": "post_office", "operator": "DHL"}}, {"type": "node", "id": 12961209167, "lat": 52.4222479, "lon": 13.3708265, "tags": {"amenity": "post_office", "name": "Kiosk 39", "operator": "Hermes", "operator:wikidata": "Q1613532"}}, {"type": "node", "id": 12961209168, "lat": 52.4220514, "lon": 13.3706576, "tags": {"amenity": "post_office", "name": "Späti 48", "operator": "GLS", "operator:wikidata": "Q366182"}}, {"type": "node", "id": 12961209169, "lat": 52.4220514, "lon": 13.3706561, "tags": {"amenity": "post_office", "brand": "DPD", "brand:wikidata": "Q541030", "name": "DPD"}}, {"type": "node", "id": 12973471191, "lat": 52.3945891, "lon": 13.0893067, "tags": {"access": "customers", "addr:city": "Potsdam", "addr:country": "DE", "addr:housenumber": "36", "addr:postcode": "14482", "addr:street": "Garnstraße", "addr:suburb": "Babelsberg Nord", "amenity": "post_office", "brand": "DPD", "brand:wikidata": "Q541030", "name": "DPD", "opening_hours": "Mo-Th 10:00-18:00; PH,Fr-Su off", "operator": "Heiko Milewski;Hendrik Hoeftmann", "operator:type": "private", "post_office": "post_partner", "post_office:service_provider": "DPD", "wheelchair": "yes"}}, {"type": "node", "id": 12979343671, "lat": 52.4801399, "lon": 13.4292074, "tags": {"addr:housenumber": "48", "addr:postcode": "12053", "addr:street": "Boddinstraße", "amenity": "post_office", "check_date": "2025-07-05", "name": "dies & das", "opening_hours": "Mo-Fr 08:00-20:00; Sa 08:00-16:00", "payment:cash": "yes", "payment:credit_cards": "yes", "payment:debit_cards": "yes", "wheelchair": "no"}}]}