{"version": 0.6, "generator": "Overpass API 0.7.62.8 e802775f", "osm3s": {"timestamp_osm_base": "2025-08-20T14:19:30Z", "copyright": "The data included in this document is from www.openstreetmap.org. The data is made available under ODbL."}, "elements": [{"type": "node", "id": 30352328, "lat": 52.5133372, "lon": 13.2842603, "tags": {"addr:city": "Berlin", "addr:country": "DE", "addr:suburb": "Westend", "amenity": "car_sharing", "wheelchair": "yes"}}, {"type": "node", "id": 616672198, "lat": 52.536068, "lon": 13.1917177, "tags": {"amenity": "car_sharing", "name": "Sixti Car Club", "operator": "Sixt"}}, {"type": "node", "id": 1826897235, "lat": 52.4997903, "lon": 13.4201248, "tags": {"addr:city": "Berlin", "addr:country": "DE", "addr:housenumber": "133", "addr:postcode": "10999", "addr:street": "Skalitzer Straße", "addr:suburb": "Kreuzberg", "amenity": "car_sharing", "brand": "Stadtmobil", "brand:wikidata": "Q2327629", "brand:wikipedia": "de:Stadtmobil", "name": "stadtmobil", "network": "Stadtmobil Berlin", "operator": "Stadtmobil Berlin GmbH", "operator:type": "private", "operator:wikidata": "Q2327629", "operator:wikipedia": "de:Stadtmobil"}}, {"type": "node", "id": 1826931830, "lat": 52.5051208, "lon": 13.4316834, "tags": {"addr:city": "Berlin", "addr:country": "DE", "addr:housenumber": "17-21", "addr:postcode": "10997", "addr:street": "Audre-Lorde-Straße", "addr:suburb": "Kreuzberg", "amenity": "car_sharing", "brand": "Stadtmobil", "brand:wikidata": "Q2327629", "brand:wikipedia": "de:Stadtmobil", "name": "Stadtmobil", "network": "Stadtmobil Berlin", "old_addr:housenumber": "121-123", "old_addr:street": "Manteuffelstraße", "operator": "Stadtmobil Berlin GmbH", "operator:type": "private", "wheelchair": "yes"}}, {"type": "node", "id": 3363900043, "lat": 52.5421241, "lon": 13.420326, "tags": {"amenity": "car_sharing", "check_date": "2023-07-06", "opening_hours": "24/7"}}, {"type": "node", "id": 3674966440, "lat": 52.5301815, "lon": 13.4320752, "tags": {"addr:city": "Berlin", "addr:country": "DE", "addr:housenumber": "13", "addr:postcode": "10407", "addr:street": "Bötzowstraße", "addr:suburb": "Prenzlauer Berg", "amenity": "car_sharing", "brand": "Stadtmobil", "brand:wikidata": "Q2327629", "contact:email": "support@naehkontor.de", "contact:phone": "+49 30 40043550", "contact:website": "http://www.naehkontor.de", "name": "Stadtmobil", "network": "Stadtmobil Berlin", "opening_hours": "Mo-Fr 10:00-20:00; Sa 11:00-18:00", "operator": "Stadtmobil Berlin GmbH", "operator:type": "private", "wheelchair": "yes"}}, {"type": "node", "id": 3875852629, "lat": 52.5449905, "lon": 13.4269668, "tags": {"amenity": "car_sharing", "brand": "Flinkster", "name": "Flinkster", "network": "Flinkster", "operator": "Deutsche Bahn Connect", "operator:type": "private", "operator:wikidata": "Q1152100", "operator:wikipedia": "de:Deutsche Bahn Connect"}}, {"type": "node", "id": 4436548357, "lat": 52.5343108, "lon": 13.381765, "tags": {"amenity": "car_sharing", "check_date": "2024-04-13", "network": "Flinkster", "website": "https://www.flinkster.de/kundenbuchung/process.php?proc=station&station_id=400342"}}, {"type": "node", "id": 4605555446, "lat": 52.5229639, "lon": 13.378748, "tags": {"amenity": "car_sharing", "brand": "Flinkster", "capacity": "5", "network": "Flinkster", "note": "Station wurde am 11. Januar 2017 eröffnet (http://web.archive.org/web/20170113112111/http://www.deutschebahn.com/de/presse/pressestart_zentrales_uebersicht/13104256/p20170112.html)", "operator": "Deutsche Bahn Connect", "operator:type": "private", "operator:wikidata": "Q1152100", "operator:wikipedia": "de:Deutsche Bahn Connect", "start_date": "2017-01"}}, {"type": "node", "id": 5260315892, "lat": 52.5473121, "lon": 13.4076002, "tags": {"amenity": "car_sharing", "brand": "Stadtmobil", "brand:wikidata": "Q2327629", "brand:wikipedia": "de:Stadtmobil", "capacity": "2", "network": "Stadtmobil Berlin", "operator": "Stadtmobil Berlin GmbH", "operator:type": "private", "ref": "Sonnenburger Straße 61 (S+U Schönhauser Allee: 700m)", "supervised": "no", "website": "https://berlin.stadtmobil.de/privatkunden/stationen/station/sonnenburger-strasse-61-s-u-schoenhauser-allee-700m/"}}, {"type": "node", "id": 6124260756, "lat": 52.5034886, "lon": 13.4375537, "tags": {"addr:housenumber": "11", "addr:street": "Köpenicker Straße", "amenity": "car_sharing", "name": "Cambio Station Köpenicker", "operator": "cambio CarSharing", "operator:short": "Cambio", "operator:type": "private", "operator:wikidata": "Q1028155", "operator:wikipedia": "de:Cambio CarSharing", "short_name": "Cambio"}}, {"type": "node", "id": 7536994036, "lat": 52.5135935, "lon": 13.4222072, "tags": {"amenity": "car_sharing", "ref_name": "S+U Jannowitzbrücke/Holzmarktstr."}}, {"type": "node", "id": 7915910821, "lat": 52.5287821, "lon": 13.4012144, "tags": {"amenity": "car_sharing", "brand": "Stadtmobil", "brand:wikidata": "Q2327629", "brand:wikipedia": "de:Stadtmobil", "capacity": "2", "name": "stadtmobil", "network": "Stadtmobil Berlin", "operator": "Stadtmobil Berlin GmbH", "operator:type": "private", "operator:wikidata": "Q2327629", "operator:wikipedia": "de:Stadtmobil"}}, {"type": "node", "id": 7995684589, "lat": 52.4796049, "lon": 13.3463921, "tags": {"amenity": "car_sharing", "operator": "cambio CarSharing", "operator:short": "Cambio", "operator:type": "private", "operator:wikidata": "Q1028155", "operator:wikipedia": "de:Cambio CarSharing", "short_name": "Cambio"}}, {"type": "node", "id": 8255683563, "lat": 52.5541797, "lon": 13.2260851, "tags": {"amenity": "car_sharing", "check_date": "2024-07-18", "name": "Jelbi-Station Daumstraße/Rhenaniastraße", "operator": "Berliner Verkehrsbetriebe"}}, {"type": "node", "id": 8614201454, "lat": 52.5386786, "lon": 13.2326674, "tags": {"amenity": "car_sharing", "check_date": "2024-06-06", "name": "Jelbi-Station U Haselhorst"}}, {"type": "node", "id": 8614204893, "lat": 52.5106897, "lon": 13.5009862, "tags": {"amenity": "car_sharing", "check_date": "2024-06-10", "name": "Jelbi-Station S+U Lichtenberg"}}, {"type": "node", "id": 9002051629, "lat": 52.5058683, "lon": 13.5608726, "tags": {"amenity": "car_sharing", "brand": "Jelbi", "brand:remarketed": "greenwheels,Miles,mobilee", "capacity": "4", "check_date": "2021-12-08", "name": "Jelbi", "network": "Jelbi", "opening_hours": "24/7", "operator": "BVG", "website": "https://www.jelbi.de/", "wheelchair": "yes"}}, {"type": "node", "id": 9074640222, "lat": 52.5440855, "lon": 13.4180888, "tags": {"addr:city": "Berlin", "addr:housenumber": "46", "addr:postcode": "10437", "addr:street": "Lychener Straße", "addr:suburb": "Prenzlauer Berg", "amenity": "car_sharing", "name": "cambio CarSharing - Station Helmholtz", "operator": "cambio CarSharing", "operator:short": "Cambio", "operator:type": "private", "operator:wikidata": "Q1028155", "operator:wikipedia": "de:Cambio CarSharing", "supervised": "no", "website": "https://www.cambio-carsharing.de/"}}, {"type": "node", "id": 10263347366, "lat": 52.4917973, "lon": 13.3791418, "tags": {"access": "customers", "amenity": "car_sharing", "brand": "cambio CarSharing", "brand:wikidata": "Q1028155", "brand:wikipedia": "de:Cambio CarSharing", "operator": "cambio CarSharing", "operator:short": "Cambio", "operator:type": "private", "operator:wikidata": "Q1028155", "short_name": "Cambio", "wikimedia_commons": "File:Carsharing Stellplatz mit Anbieterzuordnung Yorckstraße Berlin Kreuzberg.jpg"}}, {"type": "node", "id": 10271579872, "lat": 52.4867107, "lon": 13.4228501, "tags": {"access": "customers", "amenity": "car_sharing", "brand": "cambio CarSharing", "brand:wikidata": "Q1028155", "brand:wikipedia": "de:Cambio CarSharing", "operator": "cambio CarSharing", "operator:short": "Cambio", "operator:type": "private", "operator:wikidata": "Q1028155", "short_name": "Cambio"}}, {"type": "node", "id": 10293401273, "lat": 52.4885196, "lon": 13.4135196, "tags": {"access": "customers", "amenity": "car_sharing", "brand": "cambio CarSharing", "brand:wikidata": "Q1028155", "operator": "cambio CarSharing", "operator:short": "Cambio", "operator:type": "private", "operator:wikidata": "Q1028155"}}, {"type": "node", "id": 10293414916, "lat": 52.4974999, "lon": 13.4436721, "tags": {"access": "customers", "amenity": "car_sharing", "brand": "cambio CarSharing", "brand:wikidata": "Q1028155", "operator": "cambio CarSharing", "operator:short": "Cambio", "operator:type": "private", "operator:wikidata": "Q1028155"}}, {"type": "node", "id": 10608414647, "lat": 52.5722166, "lon": 13.4281633, "tags": {"addr:city": "Berlin", "addr:country": "DE", "addr:postcode": "13189", "addr:street": "Granitzstraße", "amenity": "car_sharing", "brand": "Flinkster", "capacity": "2", "name": "DB InfraGO Granitzstraße", "network": "Flinkster", "operator": "Deutsche Bahn Connect", "operator:type": "private", "operator:wikidata": "Q1152100", "supervised": "yes"}}, {"type": "node", "id": 10969860170, "lat": 52.4755902, "lon": 13.3663847, "tags": {"amenity": "car_sharing", "capacity": "8", "operator": "Miles"}}, {"type": "node", "id": 11268687349, "lat": 52.6740032, "lon": 13.2907174, "tags": {"addr:city": "Hohen Neuendorf", "addr:housenumber": "23", "addr:postcode": "16540", "addr:street": "Käthe-Kollwitz-Straße", "amenity": "car_sharing", "operator": "Carsharing Hohen Neuendorf e.V."}}, {"type": "node", "id": 11268687350, "lat": 52.6701275, "lon": 13.2863488, "tags": {"addr:street": "Wilhelm-Külz-Straße", "amenity": "car_sharing", "operator": "Carsharing Hohen Neuendorf e.V."}}, {"type": "node", "id": 12118950889, "lat": 52.4896852, "lon": 13.3957605, "tags": {"amenity": "car_sharing", "name": "cambio", "operator": "cambio CarSharing", "operator:short": "Cambio", "operator:type": "private", "operator:wikidata": "Q1028155"}}, {"type": "node", "id": 12400195590, "lat": 52.5486831, "lon": 13.4127871, "tags": {"amenity": "car_sharing", "name": "Cambio", "operator": "cambio CarSharing", "operator:short": "Cambio", "operator:type": "private", "operator:wikidata": "Q1028155", "source": "survey"}}, {"type": "node", "id": 12891470287, "lat": 52.5485664, "lon": 13.4128394, "tags": {"addr:city": "Berlin", "addr:housenumber": "78", "addr:postcode": "10437", "addr:street": "Kopenhagener Straße", "amenity": "car_sharing", "name": "cambio CarSharing - Station Schönhauser", "operator": "cambio CarSharing", "operator:short": "Cambio", "operator:type": "private", "operator:wikidata": "Q1028155", "website": "https://www.cambio-carsharing.de/"}}, {"type": "node", "id": 12891747547, "lat": 52.4949948, "lon": 13.414079, "tags": {"addr:city": "Berlin", "addr:housenumber": "85", "addr:postcode": "10967", "addr:street": "Planufer", "amenity": "car_sharing", "name": "cambio CarSharing - Station Admiral-Jelbi", "operator": "cambio CarSharing", "operator:short": "Cambio", "operator:type": "private", "operator:wikidata": "Q1028155", "website": "https://www.cambio-carsharing.de/"}}, {"type": "node", "id": 12891766078, "lat": 52.4971278, "lon": 13.3917197, "tags": {"addr:city": "Berlin", "addr:housenumber": "3", "addr:postcode": "10961", "addr:street": "Blücherplatz", "amenity": "car_sharing", "name": "cambio CarSharing - Station Blücherplatz", "operator": "cambio CarSharing", "operator:short": "Cambio", "operator:type": "private", "operator:wikidata": "Q1028155", "website": "https://www.cambio-carsharing.de/"}}, {"type": "node", "id": 12979828797, "lat": 52.4986966, "lon": 13.407865, "tags": {"access": "customers", "amenity": "car_sharing", "capacity": "7", "name": "Jelbi U Prinzenstraße"}}, {"type": "node", "id": 13062273477, "lat": 52.4961058, "lon": 13.4274822, "tags": {"access": "customers", "amenity": "car_sharing", "brand": "cambio CarSharing", "brand:wikidata": "Q1028155", "brand:wikipedia": "de:Cambio CarSharing", "operator": "cambio CarSharing", "operator:short": "Cambio", "operator:type": "private", "operator:wikidata": "Q1028155", "short_name": "Cambio"}}, {"type": "node", "id": 13062308746, "lat": 52.504043, "lon": 13.4179173, "tags": {"access": "customers", "amenity": "car_sharing", "brand": "cambio CarSharing", "brand:wikidata": "Q1028155", "brand:wikipedia": "de:Cambio CarSharing", "operator": "cambio CarSharing", "operator:short": "Cambio", "operator:type": "private", "operator:wikidata": "Q1028155", "short_name": "Cambio"}}, {"type": "node", "id": 13062358511, "lat": 52.5017514, "lon": 13.4243046, "tags": {"access": "customers", "amenity": "car_sharing", "brand": "cambio CarSharing", "brand:wikidata": "Q1028155", "brand:wikipedia": "de:Cambio CarSharing", "operator": "cambio CarSharing", "operator:short": "Cambio", "operator:type": "private", "operator:wikidata": "Q1028155", "short_name": "Cambio"}}, {"type": "node", "id": 13062387409, "lat": 52.5002696, "lon": 13.4269884, "tags": {"access": "customers", "amenity": "car_sharing", "brand": "cambio CarSharing", "brand:wikidata": "Q1028155", "brand:wikipedia": "de:Cambio CarSharing", "operator": "cambio CarSharing", "operator:short": "Cambio", "operator:type": "private", "operator:wikidata": "Q1028155", "short_name": "Cambio"}}]}