{"version": 0.6, "generator": "Overpass API 0.7.62.8 e802775f", "osm3s": {"timestamp_osm_base": "2025-08-20T14:19:30Z", "copyright": "The data included in this document is from www.openstreetmap.org. The data is made available under ODbL."}, "elements": [{"type": "node", "id": 29695282, "lat": 52.5336632, "lon": 13.3536389, "tags": {"addr:city": "Berlin", "addr:country": "DE", "addr:housenumber": "61A", "addr:postcode": "10559", "addr:street": "Perleberger Straße", "addr:suburb": "Moabit", "amenity": "police", "check_date": "2024-06-14", "name": "Polizei Abschnitt 27", "wheelchair": "limited"}}, {"type": "node", "id": 84644753, "lat": 52.5049589, "lon": 13.3905699, "tags": {"addr:city": "Berlin", "addr:country": "DE", "addr:housenumber": "219", "addr:postcode": "10969", "addr:street": "Friedrichstraße", "addr:suburb": "Kreuzberg", "amenity": "police", "check_date": "2025-05-09", "level": "0;1", "name": "Abschnitt 53 Kreuzberg-Nord", "name:de": "Abschnitt 53 Kreuzberg-Nord", "name:en": "District 53 North Kreuzberg", "operator": "Polizei Berlin", "operator:wikidata": "Q328480", "operator:wikipedia": "de:Polizei Berlin", "wheelchair": "no", "wikidata": "Q108875638"}}, {"type": "node", "id": 206102770, "lat": 52.4276915, "lon": 13.3475906, "tags": {"amenity": "police", "name": "Polizei Abschnitt 46", "operator": "Polizei Berlin", "operator:wikidata": "Q328480", "operator:wikipedia": "de:Polizei Berlin", "phone": "+49 30 4664 446 701", "website": "http://www.berlin.de/polizei/bezirk/dir4/a46.html", "wheelchair": "no"}}, {"type": "node", "id": 242769298, "lat": 52.5280167, "lon": 13.2269115, "tags": {"amenity": "police", "name": "Polizei Abschnitt 22", "wheelchair": "yes"}}, {"type": "node", "id": 244118624, "lat": 52.479156, "lon": 13.4347588, "tags": {"addr:city": "Berlin", "addr:country": "DE", "addr:housenumber": "9", "addr:postcode": "12053", "addr:street": "Rollbergstraße", "amenity": "police", "contact:fax": "+49 30 4664555799", "contact:phone": "+49 30 4664555700", "contact:website": "https://www.berlin.de/polizei/dienststellen/polizei-in-den-bezirken/direktion-5/abschnitt-55/", "name": "Polizeiabschnitt 55", "wheelchair": "limited", "wikidata": "Q108875640"}}, {"type": "node", "id": 261965140, "lat": 52.4922153, "lon": 13.4562264, "tags": {"addr:city": "Berlin", "addr:housenumber": "5-8", "addr:postcode": "12435", "addr:street": "Am Treptower Park", "amenity": "police", "building": "yes", "name": "Gemeinsames Terrorismusabwehrzentrum", "short_name": "GTAZ", "url": "https://www.bka.de/DE/UnsereAufgaben/Kooperationen/GTAZ/gtaz_node.html", "wikidata": "Q1411368", "wikipedia": "de:Gemeinsames Terrorismusabwehrzentrum"}}, {"type": "node", "id": 509897018, "lat": 52.5093215, "lon": 13.4968683, "tags": {"amenity": "police", "check_date": "2025-02-03", "level": "1", "name": "Bundespolizei", "operator": "Bundespolizei", "operator:short": "BPOL", "operator:wikidata": "Q56026", "operator:wikipedia": "de:Bundespolizei (Deutschland)", "wheelchair": "yes"}}, {"type": "node", "id": 573418582, "lat": 52.513314, "lon": 13.238435, "tags": {"amenity": "police", "name": "Stadionwache", "name:ja": "スタジアム警備", "wheelchair": "no"}}, {"type": "node", "id": 614482788, "lat": 52.524282, "lon": 13.4156959, "tags": {"addr:city": "Berlin", "addr:country": "DE", "addr:housenumber": "35", "addr:postcode": "10178", "addr:street": "Keibelstraße", "addr:suburb": "Mitte", "amenity": "police", "contact:phone": "+49 30 4664332700", "contact:website": "https://www.berlin.de/polizei/dienststellen/landespolizeidirektion/direktion-5/abschnitt-57/", "name": "Polizei Berlin – Abschnitt 57", "operator": "Polizei Berlin", "operator:wikidata": "Q328480", "operator:wikipedia": "de:Polizei Berlin", "wheelchair": "yes", "wikidata": "Q108875642"}}, {"type": "node", "id": 659031944, "lat": 52.5379765, "lon": 13.4523417, "tags": {"addr:city": "Berlin", "addr:country": "DE", "addr:housenumber": "101", "addr:postcode": "10407", "addr:street": "Storkower Straße", "addr:suburb": "Prenzlauer Berg", "amenity": "police", "check_date": "2025-06-30", "name": "Polizei Berlin Abschnitt 16", "operator": "Polizei Berlin", "operator:wikidata": "Q328480", "operator:wikipedia": "de:Polizei Berlin", "website": "http://www.berlin.de/polizei/bezirk/dir1/a16.html", "wheelchair": "limited", "wikidata": "Q108875617"}}, {"type": "node", "id": 988558167, "lat": 52.5220276, "lon": 13.3659377, "tags": {"addr:city": "Berlin", "addr:housenumber": "145", "addr:postcode": "10557", "addr:street": "Alt-Moabit", "addr:suburb": "Moabit", "amenity": "police", "contact:phone": "+49 30 4664334700", "name": "Polizei Abschnitt 28", "operator": "Polizei Berlin", "operator:wikidata": "Q328480", "operator:wikipedia": "de:Polizei Berlin", "wheelchair": "yes", "wikidata": "Q108875627"}}, {"type": "node", "id": 1235571254, "lat": 52.6171547, "lon": 13.2446746, "tags": {"amenity": "police", "name": "2. Bereitschaftspolizeiabteilung", "short_name": "2. BPA", "website": "https://www.berlin.de/polizei/dienststellen/direktion-einsatz/bereitschaftspolizei/"}}, {"type": "node", "id": 1288824514, "lat": 52.5094753, "lon": 13.4353317, "tags": {"addr:city": "Berlin", "addr:country": "DE", "addr:postcode": "10243", "addr:suburb": "Friedrichshain", "amenity": "police", "check_date": "2024-11-27", "level": "0", "name": "Bundespolizei", "operator": "Bundespolizei", "operator:short": "BPOL", "operator:wikidata": "Q56026", "operator:wikipedia": "de:Bundespolizei (Deutschland)", "wheelchair": "limited"}}, {"type": "node", "id": 2891400692, "lat": 52.5824041, "lon": 13.289049, "tags": {"addr:city": "Berlin", "addr:country": "DE", "addr:housenumber": "35", "addr:postcode": "13507", "addr:street": "Berliner Straße", "addr:suburb": "Tegel", "amenity": "police", "contact:fax": "+49 30 4664111799", "contact:phone": "+49 30 4664111701", "contact:website": "https://www.berlin.de/polizei/dienststellen/landespolizeidirektion/direktion-1/abschnitt-11/", "name": "Polizei Berlin – Abschnitt 11", "operator": "Polizei Berlin", "operator:wikidata": "Q328480", "wikidata": "Q108875609"}}, {"type": "node", "id": 2960443393, "lat": 52.4266549, "lon": 13.7416775, "tags": {"amenity": "police", "check_date": "2024-05-19", "name": "Polizei Land Brandenburg - Polizeirevier", "note": "not a duplicate, there are indeed three police institutions in this building", "wheelchair": "yes"}}, {"type": "node", "id": 2960443394, "lat": 52.426617, "lon": 13.7418661, "tags": {"amenity": "police", "check_date": "2024-05-19", "name": "Polizei Land Brandenburg - Revierpolizei", "note": "not a duplicate, there are indeed three police institutions in this building", "wheelchair": "yes"}}, {"type": "node", "id": 3127986846, "lat": 52.3551909, "lon": 13.3089087, "tags": {"addr:city": "Großbeeren", "addr:country": "DE", "addr:housenumber": "2", "addr:postcode": "14979", "addr:street": "Am Rathaus", "amenity": "police", "name": "Sprechzimmer Revierpolizei Großbeeren", "police": "offices"}}, {"type": "node", "id": 3230826578, "lat": 52.5122072, "lon": 13.444588, "tags": {"addr:city": "Berlin", "addr:country": "DE", "addr:housenumber": "10", "addr:postcode": "10243", "addr:street": "Wedekindstraße", "addr:suburb": "Friedrichshain", "amenity": "police", "check_date": "2024-11-26", "contact:website": "https://www.berlin.de/polizei/dienststellen/polizei-in-den-bezirken/direktion-5/abschnitt-51/", "name": "Polizei Berlin Abschnitt 51", "operator": "Polizei Berlin", "operator:wikidata": "Q328480", "operator:wikipedia": "de:Polizei Berlin", "wheelchair": "yes", "wikidata": "Q108875636"}}, {"type": "node", "id": 3868548230, "lat": 52.351423, "lon": 13.419108, "tags": {"addr:city": "Blankenfelde-Mahlow", "addr:country": "DE", "addr:housenumber": "2", "addr:postcode": "15827", "addr:street": "Heckenrosenstraße", "amenity": "police", "wheelchair": "limited"}}, {"type": "node", "id": 6482848243, "lat": 52.6625773, "lon": 13.3781408, "tags": {"amenity": "police", "name": "Revierpolizist", "opening_hours": "Tu 15:00-18:00"}}, {"type": "node", "id": 9673650886, "lat": 52.3833671, "lon": 13.1443528, "tags": {"amenity": "police", "name": "Bundespolizei", "operator": "Bundespolizei", "operator:short": "BPOL", "operator:wikidata": "Q56026", "police": "offices"}}, {"type": "node", "id": 10671508605, "lat": 52.5001222, "lon": 13.4183773, "tags": {"amenity": "police", "name": "Polizeistation", "name:en": "Police station"}}, {"type": "node", "id": 11568947841, "lat": 52.5083788, "lon": 13.333723, "tags": {"amenity": "police", "name": "Bundespolizei", "operator": "Bundespolizei", "operator:short": "BPOL", "operator:wikidata": "Q56026", "operator:wikipedia": "de:Bundespolizei (Deutschland)", "wheelchair": "yes"}}, {"type": "node", "id": 12161696502, "lat": 52.4689123, "lon": 13.3758937, "tags": {"amenity": "police", "name": "Polizei / Police"}}, {"type": "node", "id": 12847789059, "lat": 52.4978807, "lon": 13.4678385, "tags": {"addr:city": "Berlin", "addr:housenumber": "3", "addr:postcode": "10317", "addr:street": "Kynaststraße", "amenity": "police", "name": "Bundeskriminalamt Berlin - Liegenschaft B4", "operator": "Bundeskriminalamt", "operator:short": "BKA", "operator:wikidata": "Q56030"}}]}